NCES District ID,State District ID,District Name,County Name*,Street Address,City,State,ZIP,ZIP 4-digit,Phone,Students*,Teachers*,Schools,Locale Code*,Locale*,Student Teacher Ratio*,Type,Status
2600330,MI-56903,Academic and Career Education Academy,Midland County,884 EAST ISABELLA RD,MIDLAND,MI,48640,8326,(989)631-5202,98.00000,3.85000,1.00000,41,Rural: Fringe,25.45000000,Charter,Open
2600166,MI-82921,Academy for Business and Technology,Wayne County,19625 WOOD ST,MELVINDALE,MI,48122,2201,(313)382-3422,495.00000,34.80000,2.00000,21,Suburb: Large,14.22000000,Charter,Open
2600308,MI-50911,Academy of Warren,Macomb County,13943 EAST 8 MILE RD,WARREN,MI,48089,3351,(586)552-8010,802.00000,44.85000,1.00000,12,City: Midsize,17.88000000,Charter,Open
2600963,MI-82717,Achieve Charter Academy,Wayne County,3250 DENTON RD,CANTON,MI,48188,2110,(734)397-0960,779.00000,34.01000,1.00000,41,Rural: Fringe,22.91000000,Charter,Open
2601890,MI-31020,Adams Township School District,Houghton County,PO Box 37,Painesdale,MI,49955,0037,(906)482-0599,466.00000,33.60000,2.00000,42,Rural: Distant,13.87000000,Regular Local,Open
2601920,MI-46020,Addison Community Schools,Lenawee County,219 NORTH COMSTOCK ST,ADDISON,MI,49220,9753,(517)547-6900,717.00000,43.12000,3.00000,42,Rural: Distant,16.63000000,Regular Local,Open
2601950,MI-46010,Adrian Public Schools,Lenawee County,785 RIVERSIDE AVE STE 1,ADRIAN,MI,49221,1467,(517)264-6640,2771.00000,175.80000,7.00000,32,Town: Distant,15.76000000,Regular Local,Open
2600255,MI-63914,Advanced Technology Academy,Wayne County,4800 OAKMAN BLVD,DEARBORN,MI,48126,1492,(313)625-4700,1215.00000,54.24000,1.00000,12,City: Midsize,22.40000000,Charter,Open
2600106,MI-63901,AGBU Alex-Marie Manoogian School,Oakland County,22001 NORTHWESTERN HWY,SOUTHFIELD,MI,48075,4081,(248)569-2988,425.00000,20.83000,1.00000,13,City: Small,20.40000000,Charter,Open
2601980,MI-58020,Airport Community Schools,Monroe County,11270 GRAFTON RD,CARLETON,MI,48117,9392,(734)654-2414,2809.00000,155.53000,9.00000,41,Rural: Fringe,18.06000000,Regular Local,Open
2602010,MI-79010,Akron-Fairgrove Schools,Tuscola County,PO Box 319,Fairgrove,MI,48733,0217,(989)693-6163,340.00000,21.70000,3.00000,42,Rural: Distant,15.67000000,Regular Local,Open
2621810,MI-24030,Alanson Public Schools,Emmet County,7400 NORTH ST,ALANSON,MI,49706,9247,(231)548-2261,229.00000,19.17000,1.00000,42,Rural: Distant,11.95000000,Regular Local,Open
2602040,MI-05010,Alba Public Schools,Antrim County,5935 ELM ST,ELMIRA,MI,49730,8303,(231)584-2000,96.00000,7.20000,1.00000,43,Rural: Remote,13.33000000,Regular Local,Open
2602160,MI-01010,Alcona Community Schools,Alcona County,51 N BARLOW RD,HARRISVILLE,MI,48740,9606,(989)736-6212,677.00000,73.32000,2.00000,42,Rural: Distant,9.23000000,Regular Local,Open
2602190,MI-74030,Algonac Community School District,St. Clair County,5200 TAFT RD,CLAY,MI,48001,4701,(810)794-9364,1364.00000,72.51000,4.00000,21,Suburb: Large,18.81000000,Regular Local,Open
2680100,MI-03000,Allegan Area Educational Service Agency,Allegan County,310 THOMAS ST,ALLEGAN,MI,49010,9158,(269)512-7700,389.00000,58.55000,2.00000,32,Town: Distant,6.64000000,Specialized,Open
2602220,MI-03030,Allegan Public Schools,Allegan County,550 5TH ST,ALLEGAN,MI,49010,1670,(269)673-5431,2198.00000,129.00000,8.00000,32,Town: Distant,17.04000000,Regular Local,Open
2602520,MI-82020,Allen Park Public Schools,Wayne County,9601 VINE AVE,ALLEN PARK,MI,48101,1309,(313)827-2150,3684.00000,194.02000,5.00000,21,Suburb: Large,18.99000000,Regular Local,Open
2602550,MI-70040,Allendale Public Schools,Ottawa County,10505 LEARNING LN,ALLENDALE,MI,49401,8619,(616)892-5570,2636.00000,162.64000,6.00000,21,Suburb: Large,16.21000000,Regular Local,Open
2602640,MI-29010,Alma Public Schools,Gratiot County,1500 PINE AVE,ALMA,MI,48801,1275,(989)463-3111,1873.00000,119.77000,5.00000,32,Town: Distant,15.64000000,Regular Local,Open
2602670,MI-44020,Almont Community Schools,Lapeer County,4701 Howland Rd,ALMONT,MI,48003,1030,(810)798-8561,1402.00000,69.41000,3.00000,41,Rural: Fringe,20.20000000,Regular Local,Open
2602730,MI-04010,Alpena Public Schools,Alpena County,2373 GORDON RD,ALPENA,MI,49707,4627,(989)358-5044,3672.00000,200.89000,9.00000,33,Town: Remote,18.28000000,Regular Local,Open
2680120,MI-04000,Alpena-Montmorency-Alcona ESD,Alpena County,2118 US HIGHWAY 23 S,ALPENA,MI,49707,4542,(989)354-3101,229.00000,23.00000,1.00000,41,Rural: Fringe,9.96000000,Specialized,Open
2601034,MI-35902,Alternative Educational Academy of Iosco County,Iosco County,40 W M 55,TAWAS CITY,MI,48763,9286,(989)362-2575,205.00000,6.03000,1.00000,41,Rural: Fringe,34.00000000,Charter,Open
2601092,MI-65900,Alternative Educational Academy of Ogemaw County,Ogemaw County,2479 S M 76,WEST BRANCH,MI,48661,8749,(989)343-9070,118.00000,4.30000,1.00000,43,Rural: Remote,27.44000000,Charter,Open
2600986,MI-82730,American International Academy,Wayne County,300 Henry Ruff Road,Westland,MI,48186,,(734)713-5525,566.00000,38.67000,3.00000,21,Suburb: Large,14.64000000,Charter,Open
2600312,MI-82981,American Montessori Academy,Wayne County,14800 MIDDLEBELT RD,LIVONIA,MI,48154,4031,(313)533-0000,477.00000,30.50000,2.00000,21,Suburb: Large,15.64000000,Charter,Open
2602790,MI-50040,Anchor Bay School District,St. Clair County,5201 COUNTY LINE RD,CASCO,MI,48064,3409,(586)725-2861,5429.00000,286.22000,11.00000,21,Suburb: Large,18.97000000,Regular Local,Open
2602820,MI-81010,Ann Arbor Public Schools,Washtenaw County,2555 S STATE ST,ANN ARBOR,MI,48104,6145,(734)994-2230,17026.00000,1232.98000,32.00000,12,City: Midsize,13.81000000,Regular Local,Open
2600181,MI-13901,Arbor Academy,Calhoun County,55 ARBOR ST,BATTLE CREEK,MI,49015,2903,(269)963-5851,192.00000,15.00000,1.00000,13,City: Small,12.80000000,Charter,Open
2600989,MI-81909,Arbor Preparatory High School,Washtenaw County,6800 Hitchingham Road,Ypsilanti,MI,48197,,(734)961-9700,280.00000,17.58000,1.00000,41,Rural: Fringe,15.93000000,Charter,Open
2603240,MI-50050,Armada Area Schools,Macomb County,74500 BURK ST,ARMADA,MI,48005,3314,(586)784-2112,1746.00000,103.04000,4.00000,42,Rural: Distant,16.94000000,Regular Local,Open
2600273,MI-50905,Arts Academy in the Woods,Macomb County,32101 Caroline,Fraser,MI,48026,,(586)294-0391,316.00000,22.96000,1.00000,21,Suburb: Large,13.76000000,Charter,Open
2600267,MI-63915,Arts and Technology Academy of Pontiac,Oakland County,888 ENTERPRISE DR,PONTIAC,MI,48341,3167,(248)452-9309,818.00000,26.90000,1.00000,13,City: Small,30.41000000,Charter,Open
2603270,MI-07010,Arvon Township School District,Baraga County,21798 SKANEE RD,SKANEE,MI,49962,9049,(906)524-7336,10.00000,1.75000,1.00000,43,Rural: Remote,5.71000000,Regular Local,Open
2603480,MI-29020,Ashley Community Schools,Gratiot County,PO Box 6,Ashley,MI,48806,0006,(989)847-4000,238.00000,17.00000,4.00000,42,Rural: Distant,14.00000000,Regular Local,Open
2603510,MI-13050,Athens Area Schools,Calhoun County,4320 K DR S,EAST LEROY,MI,49051,9702,(269)729-5427,503.00000,40.38000,2.00000,42,Rural: Distant,12.46000000,Regular Local,Open
2603540,MI-25130,Atherton Community Schools,Genesee County,3354 SOUTH GENESEE RD,BURTON,MI,48519,1426,(810)591-9182,759.00000,45.34000,3.00000,21,Suburb: Large,16.74000000,Regular Local,Open
2603570,MI-60010,Atlanta Community Schools,Montmorency County,10500 COUNTY ROAD 489,ATLANTA,MI,49709,8000,(989)785-4877,267.00000,†,1.00000,43,Rural: Remote,‡,Regular Local,Open
2603600,MI-06020,Au Gres-Sims School District,Arenac County,310 S COURT ST,Au Gres,MI,48703,9332,(989)876-7150,416.00000,26.51000,3.00000,43,Rural: Remote,15.69000000,Regular Local,Open
2603660,MI-02010,AuTrain-Onota Public Schools,Alger County,PO Box 105,Deerton,MI,49822,0105,(906)343-6632,24.00000,3.40000,1.00000,42,Rural: Distant,7.06000000,Regular Local,Open
2603690,MI-63070,Avondale School District,Oakland County,2940 WAUKEGAN ST,AUBURN HILLS,MI,48326,3264,(248)537-6001,3821.00000,248.10000,9.00000,21,Suburb: Large,15.40000000,Regular Local,Open
2600017,MI-32010,Bad Axe Public Schools,Huron County,200 NORTH BARRIE STE 100,BAD AXE,MI,48413,9147,(989)269-9938,887.00000,54.85000,4.00000,33,Town: Remote,16.17000000,Regular Local,Open
2603810,MI-43040,Baldwin Community Schools,Lake County,525 4TH ST,BALDWIN,MI,49304,9518,(231)745-4791,442.00000,39.64000,3.00000,43,Rural: Remote,11.15000000,Regular Local,Open
2603870,MI-80020,Bangor Public Schools (Van Buren),Van Buren County,801 WEST ARLINGTON ST,BANGOR,MI,49013,1108,(269)427-6800,998.00000,74.18000,4.00000,42,Rural: Distant,13.45000000,Regular Local,Open
2603960,MI-80240,Bangor Township S/D #8,Van Buren County,29842 66TH ST,BANGOR,MI,49013,8607,(269)674-8091,24.00000,2.00000,1.00000,42,Rural: Distant,12.00000000,Regular Local,Open
2603900,MI-09030,Bangor Township Schools,Bay County,3359 EAST MIDLAND RD,BAY CITY,MI,48706,2825,(989)684-8121,2646.00000,145.47000,6.00000,23,Suburb: Small,18.19000000,Regular Local,Open
2600178,MI-82933,Barack Obama Leadership Academy,Wayne County,10800 EAST CANFIELD ST,DETROIT,MI,48214,1601,(313)823-6000,333.00000,18.00000,1.00000,11,City: Large,18.50000000,Charter,Open
2603990,MI-07020,Baraga Area Schools,Baraga County,210 LYONS ST,BARAGA,MI,49908,9430,(906)353-6664,317.00000,24.15000,1.00000,43,Rural: Remote,13.13000000,Regular Local,Open
2604020,MI-21090,Bark River-Harris School District,Menominee County,PO Box 350,Harris,MI,49845,0350,(906)466-9981,731.00000,37.83000,2.00000,43,Rural: Remote,19.32000000,Regular Local,Open
2680140,MI-08000,Barry ISD,Barry County,535 WEST WOODLAWN AVE,HASTINGS,MI,49058,1038,(269)945-9545,165.00000,14.00000,1.00000,32,Town: Distant,11.79000000,Specialized,Open
2604170,MI-19100,Bath Community Schools,Clinton County,6175 E Clark Road,Bath,MI,48808,0310,(517)641-6721,1006.00000,63.95000,3.00000,21,Suburb: Large,15.73000000,Regular Local,Open
2600275,MI-13904,Battle Creek Area Learning Center,Calhoun County,765 UPTON AVE,SPRINGFIELD,MI,49037,4850,(269)565-2460,185.00000,8.00000,1.00000,23,Suburb: Small,23.13000000,Charter,Open
2601055,MI-13900,Battle Creek Montessori Academy,Calhoun County,399 20TH ST N,SPRINGFIELD,MI,49037,4815,(269)339-3308,193.00000,6.40000,1.00000,23,Suburb: Small,30.16000000,Charter,Open
2600005,MI-13020,Battle Creek Public Schools,Calhoun County,3 VAN BUREN ST W,BATTLE CREEK,MI,49017,3009,(269)965-9465,3753.00000,259.82000,13.00000,13,City: Small,14.44000000,Regular Local,Open
2601000,MI-09903,Bay City Academy,Bay County,301 NORTH FARRAGUT ST,BAY CITY,MI,48708,6599,(989)414-8254,515.00000,30.10000,2.00000,13,City: Small,17.11000000,Charter,Open
2604260,MI-09010,Bay City School District,Bay County,601 BLEND ST,BAY CITY,MI,48706,4306,(989)686-9700,6385.00000,388.65000,13.00000,13,City: Small,16.43000000,Regular Local,Open
2600067,MI-09901,Bay-Arenac Community High School,Bay County,805 LANGSTAFF ST,ESSEXVILLE,MI,48732,1367,(989)893-8811,172.00000,10.00000,1.00000,23,Suburb: Small,17.20000000,Charter,Open
2680504,MI-09000,Bay-Arenac ISD,Bay County,4228 2 MILE RD,BAY CITY,MI,48706,2324,(989)686-4410,722.00000,66.17000,3.00000,23,Suburb: Small,10.91000000,Specialized,Open
2604290,MI-37040,Beal City Public Schools,Isabella County,3180 WEST BEAL CITY RD,MT PLEASANT,MI,48858,8774,(989)644-3901,654.00000,38.29000,2.00000,42,Rural: Distant,17.08000000,Regular Local,Open
2604320,MI-51020,Bear Lake Schools,Manistee County,7748 CODY ST,BEAR LAKE,MI,49614,9789,(231)864-3133,290.00000,18.95000,2.00000,43,Rural: Remote,15.30000000,Regular Local,Open
2604350,MI-15010,Beaver Island Community School,Charlevoix County,37895 KINGS HWY,BEAVER ISLAND,MI,49782,5142,(231)448-2744,51.00000,10.05000,1.00000,43,Rural: Remote,5.07000000,Regular Local,Open
2604440,MI-26010,Beaverton Schools,Gladwin County,PO Box 529,Beaverton,MI,48612,0529,(989)246-3000,929.00000,65.72000,2.00000,42,Rural: Distant,14.14000000,Regular Local,Open
2604470,MI-58030,Bedford Public Schools,Monroe County,1135 SMITH RD,TEMPERANCE,MI,48182,1002,(734)850-6000,3977.00000,225.50000,6.00000,21,Suburb: Large,17.64000000,Regular Local,Open
2604500,MI-25240,Beecher Community School District,Genesee County,1020 W COLDWATER RD,FLINT,MI,48505,,(810)591-9201,595.00000,28.60000,3.00000,21,Suburb: Large,20.80000000,Regular Local,Open
2604530,MI-34080,Belding Area School District,Ionia County,850 HALL ST,BELDING,MI,48809,2214,(616)794-4700,1662.00000,106.40000,4.00000,32,Town: Distant,15.62000000,Regular Local,Open
2604620,MI-05040,Bellaire Public Schools,Antrim County,204 W Forest Home Ave,Bellaire,MI,49615,9565,(231)533-8015,263.00000,20.53000,2.00000,43,Rural: Remote,12.81000000,Regular Local,Open
2604650,MI-23010,Bellevue Community Schools,Eaton County,904 W CAPITAL AVE,BELLEVUE,MI,49021,1312,(269)769-3432,590.00000,33.35000,2.00000,42,Rural: Distant,17.69000000,Regular Local,Open
2604740,MI-25060,Bendle Public Schools,Genesee County,3420 COLUMBINE AVE,BURTON,MI,48529,1329,(810)591-2501,1047.00000,68.90000,4.00000,21,Suburb: Large,15.20000000,Regular Local,Open
2604800,MI-25230,Bentley Community School District,Genesee County,1170 NORTH BELSAY RD,BURTON,MI,48509,1659,(810)591-9121,748.00000,48.77000,4.00000,21,Suburb: Large,15.34000000,Regular Local,Open
2604830,MI-11010,Benton Harbor Area Schools,Berrien County,870 COLFAX AVE,BENTON HARBOR,MI,49022,7409,(269)605-1000,1448.00000,70.27000,6.00000,23,Suburb: Small,20.61000000,Regular Local,Open
2600191,MI-11903,Benton Harbor Charter School Academy,Berrien County,455 RIVERVIEW DR STE 1,BENTON HARBOR,MI,49022,5080,(269)925-3807,442.00000,23.90000,1.00000,23,Suburb: Small,18.49000000,Charter,Open
2604950,MI-10015,Benzie County Central Schools,Benzie County,9300 HOMESTEAD RD,BENZONIA,MI,49616,9661,(231)882-9653,1236.00000,66.05000,6.00000,43,Rural: Remote,18.71000000,Regular Local,Open
2605010,MI-63050,Berkley School District,Oakland County,14501 TALBOT ST,OAK PARK,MI,48237,1160,(248)837-8000,3913.00000,246.65000,7.00000,21,Suburb: Large,15.86000000,Regular Local,Open
2605100,MI-34140,Berlin Township S/D #3,Ionia County,6679 SOUTH STATE RD,IONIA,MI,48846,9427,(616)527-4900,9.00000,1.00000,1.00000,42,Rural: Distant,9.00000000,Regular Local,Open
2680160,MI-11000,Berrien RESA,Berrien County,711 SAINT JOSEPH AVE,BERRIEN SPRINGS,MI,49103,1583,(269)471-7725,780.00000,77.10000,3.00000,31,Town: Fringe,10.12000000,Specialized,Open
2605430,MI-11240,Berrien Springs Public Schools,Berrien County,PO Box 130,BERRIEN SPRINGS,MI,49103,1126,(269)471-2891,4352.00000,157.78000,9.00000,41,Rural: Fringe,27.58000000,Regular Local,Open
2600006,MI-27010,Bessemer Area School District,Gogebic County,301 EAST SELLAR ST,BESSEMER,MI,49911,1522,(906)667-0802,359.00000,27.66000,2.00000,42,Rural: Distant,12.98000000,Regular Local,Open
2605690,MI-21065,Big Bay De Noc School District,Delta County,8928 OO 25 RD,COOKS,MI,49817,,(906)252-4500,176.00000,12.44000,1.00000,43,Rural: Remote,14.15000000,Regular Local,Open
2600105,MI-62470,Big Jackson School District,Newaygo County,4020 13 MILE RD,PARIS,MI,49338,9677,(231)796-8947,20.00000,1.20000,1.00000,42,Rural: Distant,16.67000000,Regular Local,Open
2605780,MI-54010,Big Rapids Public Schools,Mecosta County,21034 15 MILE RD,BIG RAPIDS,MI,49307,8845,(231)796-2627,2363.00000,110.60000,6.00000,32,Town: Distant,21.37000000,Regular Local,Open
2605820,MI-73170,Birch Run Area Schools,Saginaw County,12450 CHURCH ST SUITE 2,BIRCH RUN,MI,48415,8759,(989)624-9307,1817.00000,93.93000,4.00000,41,Rural: Fringe,19.34000000,Regular Local,Open
2605850,MI-63010,Birmingham Public Schools,Oakland County,31301 EVERGREEN RD,BEVERLY HILLS,MI,48025,3800,(248)203-3004,7314.00000,503.20000,13.00000,21,Suburb: Large,14.53000000,Regular Local,Open
2600114,MI-70904,Black River Public School,Ottawa County,491 COLUMBIA AVE,HOLLAND,MI,49423,4838,(616)355-0055,941.00000,66.87000,2.00000,13,City: Small,14.07000000,Charter,Open
2601072,MI-33915,Blended Learning Academies Credit Recovery High School,Clinton County,1754 E CLARK RD,LANSING,MI,48906,1020,(517)574-4667,172.00000,8.00000,2.00000,41,Rural: Fringe,21.50000000,Charter,Open
2606000,MI-46040,Blissfield Community Schools,Lenawee County,630 SOUTH LANE ST,BLISSFIELD,MI,49228,1278,(517)486-2205,1134.00000,69.00000,3.00000,41,Rural: Fringe,16.43000000,Regular Local,Open
2606090,MI-63080,Bloomfield Hills Schools,Oakland County,7273 Wing Lake Rd,Bloomfield Hills,MI,48301,,(248)341-5407,5143.00000,389.46000,10.00000,21,Suburb: Large,13.21000000,Regular Local,Open
2606270,MI-80090,Bloomingdale Public School District,Van Buren County,PO Box 217,Bloomingdale,MI,49026,0217,(269)521-3900,1090.00000,69.49000,3.00000,42,Rural: Distant,15.69000000,Regular Local,Open
2600992,MI-74914,Blue Water Middle College,St. Clair County,323 Erie Street,Port Huron,MI,48060,,(810)989-5800,255.00000,16.87000,1.00000,23,Suburb: Small,15.12000000,Charter,Open
2606300,MI-49020,Bois Blanc Pines School District,Mackinac County,PO Box 876,Pointe Aux Pins,MI,49775,0876,(906)632-3373,3.00000,1.00000,1.00000,42,Rural: Distant,3.00000000,Regular Local,Open
2606500,MI-15020,Boyne City Public Schools,Charlevoix County,321 SOUTH PARK ST,BOYNE CITY,MI,49712,1600,(231)439-8190,1292.00000,79.04000,4.00000,33,Town: Remote,16.35000000,Regular Local,Open
2606510,MI-15030,Boyne Falls Public School District,Charlevoix County,PO Box 356,Boyne Falls,MI,49713,0356,(231)549-2211,193.00000,16.26000,1.00000,41,Rural: Fringe,11.87000000,Regular Local,Open
2600284,MI-63917,Bradford Academy,Oakland County,24218 GARNER ST,SOUTHFIELD,MI,48033,2900,(248)351-0000,980.00000,60.20000,1.00000,13,City: Small,16.28000000,Charter,Open
2680180,MI-12000,Branch ISD,Branch County,370 MORSE ST,COLDWATER,MI,49036,1480,(517)279-5730,524.00000,95.20000,2.00000,32,Town: Distant,5.50000000,Specialized,Open
2601042,MI-82705,Branch Line School,Wayne County,16360 HUBBARD ST,LIVONIA,MI,48154,6100,(734)335-0663,150.00000,12.40000,1.00000,13,City: Small,12.10000000,Charter,Open
2606570,MI-63180,Brandon School District in the Counties of Oakland and Lapee,Oakland County,1025 SOUTH ORTONVILLE RD,ORTONVILLE,MI,48462,8739,(248)627-1802,2128.00000,161.37000,5.00000,41,Rural: Fringe,13.19000000,Regular Local,Open
2606600,MI-11210,Brandywine Community Schools,Berrien County,1830 S 3RD ST,NILES,MI,49120,4002,(269)684-7150,1304.00000,74.86000,5.00000,21,Suburb: Large,17.42000000,Regular Local,Open
2606630,MI-29040,Breckenridge Community Schools,Gratiot County,PO Box 217,Breckenridge,MI,48615,0217,(989)842-3182,617.00000,37.34000,2.00000,42,Rural: Distant,16.52000000,Regular Local,Open
2606720,MI-22030,Breitung Township School District,Dickinson County,810 PYLE DR,KINGSFORD,MI,49802,4455,(906)779-2650,1972.00000,111.77000,3.00000,33,Town: Remote,17.64000000,Regular Local,Open
2600306,MI-82983,Bridge Academy,Wayne County,9600 BUFFALO ST,HAMTRAMCK,MI,48212,3323,(313)462-6100,1328.00000,49.00000,3.00000,21,Suburb: Large,27.10000000,Charter,Open
2601136,MI-11900,Bridge Academy of Southwest Michigan,Berrien County,499 WEST MAIN ST,BENTON HARBOR,MI,49022,3622,(269)927-1064,92.00000,8.45000,1.00000,23,Suburb: Small,10.89000000,Charter,Open
2606780,MI-73180,Bridgeport-Spaulding Community School District,Saginaw County,4691 BEARCAT BLVD,BRIDGEPORT,MI,48722,9581,(989)777-1770,1452.00000,72.90000,4.00000,22,Suburb: Midsize,19.92000000,Regular Local,Open
2606840,MI-11340,Bridgman Public Schools,Berrien County,9964 GAST RD,BRIDGMAN,MI,49106,9750,(269)466-0271,849.00000,64.81000,3.00000,23,Suburb: Small,13.10000000,Regular Local,Open
2606870,MI-47010,Brighton Area Schools,Livingston County,125 S CHURCH ST,BRIGHTON,MI,48116,1652,(810)299-4040,5804.00000,336.88000,9.00000,22,Suburb: Midsize,17.23000000,Regular Local,Open
2606900,MI-17140,Brimley Area Schools,Chippewa County,7134 SOUTH M 221,BRIMLEY,MI,49715,9299,(906)248-3219,460.00000,35.79000,1.00000,42,Rural: Distant,12.85000000,Regular Local,Open
2606930,MI-46050,Britton Deerfield Schools,Lenawee County,201 COLLEGE AVE,BRITTON,MI,49229,9704,(517)451-4581,392.00000,25.20000,2.00000,42,Rural: Distant,15.56000000,Regular Local,Open
2606960,MI-12020,Bronson Community School District,Branch County,450 E GRANT ST,BRONSON,MI,49028,1524,(517)369-3260,993.00000,52.00000,3.00000,42,Rural: Distant,19.10000000,Regular Local,Open
2607040,MI-76060,Brown City Community Schools,Sanilac County,4349 Second St PO Box 160,Brown City,MI,48416,0160,(810)346-4700,717.00000,39.41000,2.00000,42,Rural: Distant,18.19000000,Regular Local,Open
2607140,MI-11310,Buchanan Community Schools,Berrien County,401 WEST CHICAGO ST,BUCHANAN,MI,49107,1044,(269)695-8401,1566.00000,90.70000,6.00000,21,Suburb: Large,17.27000000,Regular Local,Open
2607170,MI-28035,Buckley Community Schools,Wexford County,305 SOUTH 1ST ST,BUCKLEY,MI,49620,9764,(231)269-3325,480.00000,33.79000,1.00000,42,Rural: Distant,14.21000000,Regular Local,Open
2607320,MI-56020,Bullock Creek School District,Midland County,1420 SOUTH BADOUR RD,MIDLAND,MI,48640,9543,(989)631-9022,1697.00000,102.67000,5.00000,41,Rural: Fringe,16.53000000,Regular Local,Open
2607410,MI-75020,Burr Oak Community School District,St. Joseph County,PO Box 337,Burr Oak,MI,49030,0337,(269)489-2213,411.00000,15.90000,3.00000,42,Rural: Distant,25.85000000,Regular Local,Open
2607470,MI-02020,Burt Township School District,Alger County,27 Colwell St,GRAND MARAIS,MI,49839,5123,(906)494-2543,35.00000,6.00000,1.00000,43,Rural: Remote,5.83000000,Regular Local,Open
2600251,MI-25909,Burton Glen Charter Academy,Genesee County,4171 EAST ATHERTON RD,BURTON,MI,48519,1435,(810)744-2300,715.00000,31.93000,1.00000,21,Suburb: Large,22.39000000,Charter,Open
2607530,MI-78020,Byron Area Schools,Shiawassee County,312 WEST MAPLE ST,BYRON,MI,48418,9797,(810)266-4881,677.00000,38.59000,3.00000,41,Rural: Fringe,17.54000000,Regular Local,Open
2600096,MI-41908,Byron Center Charter School,Kent County,9930 BURLINGAME AVE SW,BYRON CENTER,MI,49315,8631,(616)878-4852,193.00000,18.10000,1.00000,41,Rural: Fringe,10.66000000,Charter,Open
2607560,MI-41040,Byron Center Public Schools,Kent County,8542 BYRON CENTER AVE SW,BYRON CENTER,MI,49315,8674,(616)878-6100,4443.00000,216.47000,6.00000,41,Rural: Fringe,20.52000000,Regular Local,Open
2680920,MI-72000,C.O.O.R. ISD,Roscommon County,11051 N CUT RD,Roscommon,MI,48653,9340,(989)275-9520,327.00000,14.25000,2.00000,42,Rural: Distant,22.95000000,Specialized,Open
2607590,MI-83010,Cadillac Area Public Schools,Wexford County,421 SOUTH MITCHELL ST,CADILLAC,MI,49601,2585,(231)876-5000,3158.00000,175.81000,6.00000,33,Town: Remote,17.96000000,Regular Local,Open
2607620,MI-41050,Caledonia Community Schools,Kent County,8948 KRAFT AVE SE,CALEDONIA,MI,49316,7303,(616)891-8185,4613.00000,276.76000,10.00000,21,Suburb: Large,16.67000000,Regular Local,Open
2680200,MI-13000,Calhoun Intermediate School District,Calhoun County,17111 G DR N,MARSHALL,MI,49068,9621,(269)781-5141,981.00000,71.66000,3.00000,23,Suburb: Small,13.69000000,Specialized,Open
2607710,MI-30010,Camden-Frontier School,Hillsdale County,4971 WEST MONTGOMERY RD,CAMDEN,MI,49232,9606,(517)368-5255,452.00000,32.93000,1.00000,42,Rural: Distant,13.73000000,Regular Local,Open
2601016,MI-82745,Caniff Liberty Academy,Wayne County,2650 Caniff Street,Hamtramck,MI,48212,,(313)872-2000,501.00000,22.50000,1.00000,21,Suburb: Large,22.27000000,Charter,Open
2600263,MI-82968,Canton Charter Academy,Wayne County,49100 FORD RD,CANTON,MI,48187,5415,(734)453-9517,703.00000,35.14000,1.00000,41,Rural: Fringe,20.01000000,Charter,Open
2601080,MI-82711,Canton Preparatory High School,Wayne County,46610 CHERRY HILL RD,CANTON,MI,48187,4801,(734)404-6776,624.00000,34.29000,1.00000,21,Suburb: Large,18.20000000,Charter,Open
2607800,MI-74040,Capac Community Schools,St. Clair County,541 N GLASSFORD ST,Capac,MI,48014,3070,(810)395-3710,744.00000,50.10000,3.00000,42,Rural: Distant,14.85000000,Regular Local,Open
2601013,MI-82752,Capstone Academy Charter School (SDA),Wayne County,13330 E JEFFERSON AVE,Detroit,MI,48215,2719,(313)202-6082,135.00000,7.00000,2.00000,11,City: Large,19.29000000,Charter,Open
2607890,MI-25080,Carman-Ainsworth Community Schools,Genesee County,G3475 W Court St,Flint,MI,48532,4742,(810)591-3205,3841.00000,194.07000,10.00000,21,Suburb: Large,19.79000000,Regular Local,Open
2608010,MI-55010,Carney-Nadeau Public Schools,Menominee County,PO Box 68,Carney,MI,49812,0068,(906)398-3052,270.00000,19.66000,2.00000,43,Rural: Remote,13.73000000,Regular Local,Open
2608040,MI-79020,Caro Community Schools,Tuscola County,301 NORTH HOOPER ST,CARO,MI,48723,1474,(989)673-3160,1496.00000,85.16000,5.00000,32,Town: Distant,17.57000000,Regular Local,Open
2608070,MI-73030,Carrollton Public Schools,Saginaw County,3211 CARLA DR,SAGINAW,MI,48604,1799,(989)754-1475,1681.00000,103.80000,5.00000,22,Suburb: Midsize,16.19000000,Regular Local,Open
2608130,MI-59020,Carson City-Crystal Area Schools,Montcalm County,PO Box 780,Carson City,MI,48811,0780,(989)584-3138,775.00000,43.35000,4.00000,43,Rural: Remote,17.88000000,Regular Local,Open
2608160,MI-76070,Carsonville-Port Sanilac School District,Sanilac County,100 NORTH GOETZE RD,CARSONVILLE,MI,48419,9745,(810)657-9393,408.00000,23.27000,3.00000,42,Rural: Distant,17.53000000,Regular Local,Open
2608280,MI-32030,Caseville Public Schools,Huron County,6609 VINE ST,CASEVILLE,MI,48725,9529,(989)856-2940,221.00000,17.90000,1.00000,43,Rural: Remote,12.35000000,Regular Local,Open
2600152,MI-51903,Casman Alternative Academy,Manistee County,225 9TH ST,MANISTEE,MI,49660,3109,(231)723-4981,63.00000,5.75000,1.00000,33,Town: Remote,10.96000000,Charter,Open
2608400,MI-79030,Cass City Public Schools,Tuscola County,4868 SEEGER ST,CASS CITY,MI,48726,9401,(989)872-2200,938.00000,54.23000,3.00000,43,Rural: Remote,17.30000000,Regular Local,Open
2608430,MI-14010,Cassopolis Public Schools,Cass County,22721 DIAMOND COVE ST,CASSOPOLIS,MI,49031,9711,(269)445-0503,866.00000,54.35000,4.00000,42,Rural: Distant,15.93000000,Regular Local,Open
2608520,MI-41070,Cedar Springs Public Schools,Kent County,204 EAST MUSKEGON ST,CEDAR SPRINGS,MI,49319,9326,(616)696-1204,3202.00000,185.08000,8.00000,31,Town: Fringe,17.30000000,Regular Local,Open
2601131,MI-50918,Center Line Preparatory Academy,Macomb County,8155 RITTER,CENTER LINE,MI,48015,1452,(586)690-4290,774.00000,46.89000,1.00000,21,Suburb: Large,16.51000000,Charter,Open
2608580,MI-50010,Center Line Public Schools,Macomb County,26400 Arsenal,Center Line,MI,48015,1600,(586)510-2000,2584.00000,163.02000,6.00000,21,Suburb: Large,15.85000000,Regular Local,Open
2600163,MI-81902,Central Academy,Washtenaw County,2459 SOUTH INDUSTRIAL HWY,ANN ARBOR,MI,48104,6129,(734)822-1100,530.00000,36.61000,1.00000,12,City: Midsize,14.48000000,Charter,Open
2608610,MI-05035,Central Lake Public Schools,Antrim County,8169 W State St,Central Lake,MI,49622,0128,(231)544-3141,247.00000,23.48000,1.00000,43,Rural: Remote,10.52000000,Regular Local,Open
2608640,MI-59125,Central Montcalm Public Schools,Montcalm County,PO Box 9,Stanton,MI,48888,0009,(989)831-2002,1374.00000,79.70000,3.00000,42,Rural: Distant,17.24000000,Regular Local,Open
2608670,MI-75030,Centreville Public Schools,St. Joseph County,PO Box 158,Centreville,MI,49032,0158,(269)467-5220,852.00000,51.47000,3.00000,42,Rural: Distant,16.55000000,Regular Local,Open
2600139,MI-82918,Cesar Chavez Academy,Wayne County,4100 MARTIN ST,DETROIT,MI,48210,2806,(313)551-0611,2225.00000,133.70000,4.00000,11,City: Large,16.64000000,Charter,Open
2600168,MI-82923,Chandler Park Academy,Wayne County,20100 KELLY RD,HARPER WOODS,MI,48225,1201,(248)905-5030,1976.00000,103.25000,3.00000,21,Suburb: Large,19.14000000,Charter,Open
2600209,MI-41920,Chandler Woods Charter Academy,Kent County,6895 SAMRICK AVE NE,BELMONT,MI,49306,8844,(616)866-6000,773.00000,34.91000,1.00000,21,Suburb: Large,22.14000000,Charter,Open
2608730,MI-15050,Charlevoix Public Schools,Charlevoix County,104 EAST SAINT MARYS DR,CHARLEVOIX,MI,49720,1749,(231)547-3200,806.00000,53.65000,2.00000,41,Rural: Fringe,15.02000000,Regular Local,Open
2680240,MI-15000,Charlevoix-Emmet ISD,Charlevoix County,8568 MERCER RD,CHARLEVOIX,MI,49720,1006,(231)547-9947,399.00000,32.00000,2.00000,33,Town: Remote,12.47000000,Specialized,Open
2608770,MI-23030,Charlotte Public Schools,Eaton County,378 STATE ST,CHARLOTTE,MI,48813,1704,(517)541-5100,2378.00000,138.29000,7.00000,31,Town: Fringe,17.20000000,Regular Local,Open
2601028,MI-72901,Charlton Heston Academy,Roscommon County,1350 N SAINT HELEN RD,SAINT HELEN,MI,48656,9521,(989)632-3390,767.00000,†,1.00000,43,Rural: Remote,‡,Charter,Open
2600100,MI-47902,Charyl Stockwell Academy,Livingston County,9758 EAST HIGHLAND RD,HOWELL,MI,48843,9098,(810)632-2200,1246.00000,74.89000,3.00000,21,Suburb: Large,16.64000000,Charter,Open
2608880,MI-31050,Chassell Township School District,Houghton County,PO Box 140,Chassell,MI,49916,0140,(906)483-2132,197.00000,16.34000,1.00000,41,Rural: Fringe,12.06000000,Regular Local,Open
2600151,MI-44901,Chatfield School,Lapeer County,231 LAKE DR,LAPEER,MI,48446,1661,(810)667-8970,483.00000,26.40000,1.00000,41,Rural: Fringe,18.30000000,Charter,Open
2680260,MI-16000,Cheb-Otsego-Presque Isle ESD,Cheboygan County,6065 LEARNING LN,INDIAN RIVER,MI,49749,9357,(231)238-9394,217.00000,28.85000,1.00000,43,Rural: Remote,7.52000000,Specialized,Open
2608910,MI-16015,Cheboygan Area Schools,Cheboygan County,PO Box 100,Cheboygan,MI,49721,0100,(231)627-4436,1505.00000,94.73000,5.00000,33,Town: Remote,15.89000000,Regular Local,Open
2608940,MI-81040,Chelsea School District,Washtenaw County,500 WASHINGTON ST,CHELSEA,MI,48118,1144,(734)433-2208,2300.00000,143.50000,4.00000,31,Town: Fringe,16.03000000,Regular Local,Open
2609150,MI-73110,Chesaning Union Schools,Saginaw County,850 NORTH 4TH ST,CHESANING,MI,48616,1056,(989)845-7020,1419.00000,86.90000,4.00000,42,Rural: Distant,16.33000000,Regular Local,Open
2609560,MI-54025,Chippewa Hills School District,Mecosta County,3226 ARTHUR RD,REMUS,MI,49340,9329,(989)967-2000,1814.00000,104.03000,6.00000,43,Rural: Remote,17.44000000,Regular Local,Open
2609570,MI-50080,Chippewa Valley Schools,Macomb County,19120 CASS AVE,CLINTON TOWNSHIP,MI,48038,2301,(586)723-2004,14703.00000,733.54000,20.00000,21,Suburb: Large,20.04000000,Regular Local,Open
2609630,MI-32040,Church School District,Huron County,2927 CROCKARD RD,BAD AXE,MI,48413,9098,(989)269-7772,12.00000,1.42000,1.00000,42,Rural: Distant,8.45000000,Regular Local,Open
2600947,MI-82996,Clara B. Ford Academy (SDA),Wayne County,20651 WEST WARREN ST,DEARBORN HEIGHTS,MI,48127,2622,(313)436-0020,44.00000,8.90000,1.00000,21,Suburb: Large,4.94000000,Charter,Open
2609750,MI-18010,Clare Public Schools,Clare County,201 EAST STATE ST,CLARE,MI,48617,1317,(989)386-9945,1605.00000,92.00000,4.00000,32,Town: Distant,17.45000000,Regular Local,Open
2680300,MI-18000,Clare-Gladwin Regional Education Service District,Clare County,4041 EAST MANNSIDING RD,CLARE,MI,48617,9753,(989)386-3851,349.00000,31.20000,1.00000,42,Rural: Distant,11.19000000,Specialized,Open
2609840,MI-63090,Clarenceville School District,Wayne County,20210 MIDDLEBELT RD,LIVONIA,MI,48152,2002,(248)919-0400,1773.00000,104.65000,4.00000,13,City: Small,16.94000000,Regular Local,Open
2609900,MI-63190,Clarkston Community School District,Oakland County,6389 CLARKSTON RD,CLARKSTON,MI,48346,1613,(248)623-5408,7626.00000,490.86000,14.00000,21,Suburb: Large,15.54000000,Regular Local,Open
2609930,MI-63270,Clawson Public Schools,Oakland County,626 Phillips Ave,Clawson,MI,48017,1589,(248)632-3341,1270.00000,88.40000,4.00000,21,Suburb: Large,14.37000000,Regular Local,Open
2610020,MI-39020,Climax-Scotts Community Schools,Kalamazoo County,372 SOUTH MAIN ST,CLIMAX,MI,49034,9773,(269)746-2400,543.00000,32.04000,3.00000,41,Rural: Fringe,16.95000000,Regular Local,Open
2610050,MI-46060,Clinton Community Schools,Lenawee County,340 E MICHIGAN AVE,CLINTON,MI,49236,9586,(517)456-6501,1257.00000,73.87000,5.00000,32,Town: Distant,17.02000000,Regular Local,Open
2680320,MI-19000,Clinton County RESA,Clinton County,1013 SOUTH US HIGHWAY 27 STE A,SAINT JOHNS,MI,48879,2423,(989)224-6831,268.00000,25.90000,1.00000,41,Rural: Fringe,10.35000000,Specialized,Open
2610080,MI-50070,Clintondale Community Schools,Macomb County,35100 LITTLE MACK AVE,CLINTON TOWNSHIP,MI,48035,2633,(586)791-6300,1823.00000,110.46000,6.00000,21,Suburb: Large,16.50000000,Regular Local,Open
2610110,MI-25150,Clio Area School District,Genesee County,1 MUSTANG DR,CLIO,MI,48420,2201,(810)591-7490,2626.00000,130.10000,7.00000,21,Suburb: Large,20.18000000,Regular Local,Open
2610140,MI-12010,Coldwater Community Schools,Branch County,401 SAUK RIVER DR,COLDWATER,MI,49036,7554,(517)279-5910,2756.00000,133.60000,5.00000,32,Town: Distant,20.63000000,Regular Local,Open
2600079,MI-33901,Cole Academy,Ingham County,1915 WEST MOUNT HOPE AVE,LANSING,MI,48910,2434,(517)372-0038,354.00000,20.00000,2.00000,41,Rural: Fringe,17.70000000,Charter,Open
2610200,MI-56030,Coleman Community Schools,Midland County,4823 NORTH COLEMAN SCHOOLS DR,COLEMAN,MI,48618,8551,(989)465-1891,609.00000,38.33000,2.00000,42,Rural: Distant,15.89000000,Regular Local,Open
2610230,MI-32260,Colfax Township S/D #1F,Huron County,1509 NORTH VAN DYKE RD,BAD AXE,MI,48413,9109,(989)269-8853,12.00000,1.08000,1.00000,41,Rural: Fringe,11.11000000,Regular Local,Open
2610380,MI-11330,Coloma Community Schools,Berrien County,PO Box 550,Coloma,MI,49038,0550,(269)468-2424,1161.00000,66.09000,4.00000,31,Town: Fringe,17.57000000,Regular Local,Open
2610410,MI-75040,Colon Community School District,St. Joseph County,400 DALLAS ST,COLON,MI,49040,9318,(269)432-3231,533.00000,35.40000,3.00000,42,Rural: Distant,15.06000000,Regular Local,Open
2606990,MI-38040,Columbia School District,Jackson County,11775 HEWITT RD,BROOKLYN,MI,49230,8961,(517)592-6641,1485.00000,85.90000,4.00000,31,Town: Fringe,17.29000000,Regular Local,Open
2600140,MI-82919,Commonwealth Community Development Academy,Wayne County,13477 EUREKA ST,DETROIT,MI,48212,1754,(313)366-9470,159.00000,10.50000,1.00000,11,City: Large,15.14000000,Charter,Open
2610620,MI-41080,Comstock Park Public Schools,Kent County,101 SCHOOL ST NE,COMSTOCK PARK,MI,49321,9114,(616)254-5002,1776.00000,124.49000,5.00000,21,Suburb: Large,14.27000000,Regular Local,Open
2610590,MI-39030,Comstock Public Schools,Kalamazoo County,3010 GULL RD,KALAMAZOO,MI,49048,1226,(269)250-8900,1794.00000,110.53000,5.00000,22,Suburb: Midsize,16.23000000,Regular Local,Open
2600069,MI-15901,Concord Academy - Boyne,Charlevoix County,401 EAST DIETZ RD,BOYNE CITY,MI,49712,9653,(231)582-0194,89.00000,10.92000,1.00000,41,Rural: Fringe,8.15000000,Charter,Open
2600074,MI-24901,Concord Academy - Petoskey,Emmet County,2468 ATKINS RD,PETOSKEY,MI,49770,9003,(231)439-6800,151.00000,13.65000,1.00000,41,Rural: Fringe,11.06000000,Charter,Open
2610650,MI-38080,Concord Community Schools,Jackson County,PO Box 338,Concord,MI,49237,0338,(517)524-8850,629.00000,41.65000,3.00000,41,Rural: Fringe,15.10000000,Regular Local,Open
2610750,MI-75050,Constantine Public School District,St. Joseph County,1 FALCON DR,CONSTANTINE,MI,49042,1177,(269)435-8900,1310.00000,75.20000,5.00000,31,Town: Fringe,17.42000000,Regular Local,Open
2610830,MI-70120,Coopersville Area Public School District,Ottawa County,198 EAST ST,COOPERSVILLE,MI,49404,1211,(616)997-3200,2554.00000,149.75000,6.00000,41,Rural: Fringe,17.06000000,Regular Local,Open
2680505,MI-31000,Copper Country ISD,Houghton County,809 HECLA ST,HANCOCK,MI,49930,1212,(906)482-4250,219.00000,30.17000,2.00000,33,Town: Remote,7.26000000,Specialized,Open
2601137,MI-31900,Copper Island Academy,Houghton County,52125 Industrial Dr N,Calumet,MI,49913,,(906)337-0443,324.00000,24.00000,1.00000,42,Rural: Distant,13.50000000,Charter,Open
2601101,MI-82760,Cornerstone Jefferson-Douglass Academy,Wayne County,6861 E NEVADA ST,DETROIT,MI,48234,2968,(734)812-8583,530.00000,11.00000,1.00000,11,City: Large,48.18000000,Charter,Open
2610860,MI-78100,Corunna Public Schools,Shiawassee County,124 NORTH SHIAWASSEE ST,CORUNNA,MI,48817,1436,(989)743-6338,1642.00000,104.05000,3.00000,32,Town: Distant,15.78000000,Regular Local,Open
2600142,MI-11901,Countryside Academy,Berrien County,4800 MEADOWBROOK RD,BENTON HARBOR,MI,49022,9629,(269)944-3319,758.00000,42.74000,2.00000,41,Rural: Fringe,17.74000000,Charter,Open
2601066,MI-41900,Covenant High School Grand Rapids,Kent County,50 ANTOINE ST SW,GRAND RAPIDS,MI,49507,1002,(616)364-2000,223.00000,12.40000,1.00000,12,City: Midsize,17.98000000,Charter,Open
2600322,MI-82991,Covenant Schools Detroit,Wayne County,1450 25TH ST,DETROIT,MI,48216,1404,(313)558-9271,565.00000,24.32000,4.00000,11,City: Large,23.23000000,Charter,Open
2610980,MI-80040,Covert Public Schools,Van Buren County,35323 M 140 HWY,COVERT,MI,49043,8784,(269)764-3704,308.00000,21.36000,3.00000,42,Rural: Distant,14.42000000,Regular Local,Open
2611030,MI-20015,Crawford AuSable Schools,Crawford County,1135 NORTH OLD 27,GRAYLING,MI,49738,9777,(989)344-3500,1647.00000,100.61000,4.00000,33,Town: Remote,16.37000000,Regular Local,Open
2600270,MI-82969,Creative Montessori Academy,Wayne County,12701 MCCANN ST,SOUTHGATE,MI,48195,2794,(734)284-5600,796.00000,38.70000,1.00000,21,Suburb: Large,20.57000000,Charter,Open
2600207,MI-41918,Creative Technologies Academy,Kent County,350 PINE ST,CEDAR SPRINGS,MI,49319,8680,(616)696-4905,323.00000,22.49000,1.00000,31,Town: Fringe,14.36000000,Charter,Open
2600295,MI-63921,Crescent Academy,Oakland County,17570 WEST 12 MILE RD,SOUTHFIELD,MI,48076,1905,(248)423-4581,709.00000,50.00000,3.00000,13,City: Small,14.18000000,Charter,Open
2600016,MI-82230,Crestwood School District,Wayne County,27235 JOY RD,DEARBORN HTS,MI,48127,1022,(313)278-0903,3767.00000,235.06000,6.00000,21,Suburb: Large,16.03000000,Regular Local,Open
2600150,MI-41916,Cross Creek Charter Academy,Kent County,7701 KALAMAZOO AVE SE,BYRON CENTER,MI,49315,9320,(616)656-4000,780.00000,38.39000,1.00000,21,Suburb: Large,20.32000000,Charter,Open
2600186,MI-54901,Crossroads Charter Academy,Mecosta County,215 NORTH STATE ST,BIG RAPIDS,MI,49307,1444,(231)796-9041,310.00000,28.80000,2.00000,32,Town: Distant,10.76000000,Charter,Open
2611140,MI-76080,Croswell-Lexington Community Schools,Sanilac County,5407 PECK RD,CROSWELL,MI,48422,8317,(810)679-1000,1868.00000,105.75000,5.00000,41,Rural: Fringe,17.66000000,Regular Local,Open
2600088,MI-38901,Da Vinci Schools,Jackson County,2985 SPRINGPORT RD,JACKSON,MI,49202,,(517)796-0031,489.00000,27.80000,2.00000,23,Suburb: Small,17.59000000,Charter,Open
2611400,MI-33040,Dansville Schools,Ingham County,PO BOX 187,DANSVILLE,MI,48819,0187,(517)623-6120,748.00000,43.20000,3.00000,42,Rural: Distant,17.31000000,Regular Local,Open
2600234,MI-82947,David Ellis Academy,Wayne County,18977 SCHAEFER HWY,DETROIT,MI,48235,1762,(313)450-0642,200.00000,9.50000,2.00000,11,City: Large,21.05000000,Charter,Open
2600333,MI-82994,David Ellis Academy West,Wayne County,19800 BEECH DALY RD,REDFORD,MI,48240,1348,(313)450-0642,663.00000,34.50000,1.00000,21,Suburb: Large,19.22000000,Charter,Open
2611430,MI-25140,Davison Community Schools,Genesee County,PO Box 319,Davison,MI,48423,0319,(810)591-0801,5582.00000,348.30000,9.00000,21,Suburb: Large,16.03000000,Regular Local,Open
2611600,MI-82030,Dearborn City School District,Wayne County,18700 AUDETTE ST,DEARBORN,MI,48124,4222,(313)827-3022,20128.00000,1269.64000,37.00000,12,City: Midsize,15.85000000,Regular Local,Open
2611610,MI-82040,Dearborn Heights School District #7,Wayne County,20629 ANNAPOLIS ST,DEARBORN HEIGHTS,MI,48125,2904,(313)203-3180,2539.00000,171.70000,6.00000,21,Suburb: Large,14.79000000,Regular Local,Open
2611670,MI-80050,Decatur Public Schools,Van Buren County,110 CEDAR ST,DECATUR,MI,49045,8848,(269)423-6800,785.00000,44.50000,2.00000,42,Rural: Distant,17.64000000,Regular Local,Open
2611700,MI-76090,Deckerville Community School District,Sanilac County,2633 BLACK RIVER ST,DECKERVILLE,MI,48427,9437,(810)376-3615,545.00000,38.28000,2.00000,42,Rural: Distant,14.24000000,Regular Local,Open
2680340,MI-21000,Delta-Schoolcraft ISD,Delta County,2525 3RD AVE S,ESCANABA,MI,49829,1258,(906)786-9300,276.00000,31.60000,2.00000,33,Town: Remote,8.73000000,Specialized,Open
2611910,MI-08010,Delton Kellogg Schools,Barry County,327 NORTH GROVE ST,DELTON,MI,49046,9771,(269)623-1505,1083.00000,65.81000,4.00000,42,Rural: Distant,16.46000000,Regular Local,Open
2611970,MI-17050,DeTour Area Schools,Chippewa County,PO Box 429,DeTour Village,MI,49725,0429,(906)297-2011,93.00000,9.72000,2.00000,43,Rural: Remote,9.57000000,Regular Local,Open
2600980,MI-17903,DeTour Arts and Technology Academy,Chippewa County,202 DIVISION ST,DE TOUR VILLAGE,MI,49725,5006,(906)297-2011,67.00000,8.63000,1.00000,43,Rural: Remote,7.76000000,Charter,Open
2600174,MI-82929,Detroit Academy of Arts and Sciences,Wayne County,2985 EAST JEFFERSON AVE,DETROIT,MI,48207,4288,(313)259-1744,1013.00000,25.00000,2.00000,11,City: Large,40.52000000,Charter,Open
2601048,MI-82700,Detroit Achievement Academy,Wayne County,7000 Outer Drive,Detroit,MI,48235,,(313)468-9518,672.00000,38.00000,2.00000,11,City: Large,17.68000000,Charter,Open
2600170,MI-82925,Detroit Community Schools,Wayne County,12675 BURT RD,DETROIT,MI,48223,3314,(313)537-3570,568.00000,30.75000,2.00000,11,City: Large,18.47000000,Charter,Open
2600232,MI-82945,Detroit Edison Public School Academy,Wayne County,1903 WILKINS ST,DETROIT,MI,48207,2112,(313)833-1100,1237.00000,42.60000,2.00000,11,City: Large,29.04000000,Charter,Open
2600302,MI-82979,Detroit Enterprise Academy,Wayne County,11224 KERCHEVAL ST,DETROIT,MI,48214,3323,(313)823-5799,746.00000,41.21000,1.00000,11,City: Large,18.10000000,Charter,Open
2601003,MI-82739,Detroit Innovation Academy,Wayne County,18211 PLYMOUTH RD,DETROIT,MI,48228,1142,(313)736-5537,379.00000,22.10000,1.00000,11,City: Large,17.15000000,Charter,Open
2600974,MI-82722,Detroit Leadership Academy,Wayne County,13600 VIRGIL ST,DETROIT,MI,48223,3051,(313)977-9178,742.00000,35.50000,2.00000,11,City: Large,20.90000000,Charter,Open
2600278,MI-82974,Detroit Merit Charter Academy,Wayne County,1091 ALTER RD,DETROIT,MI,48215,2861,(313)331-3328,703.00000,39.01000,1.00000,11,City: Large,18.02000000,Charter,Open
2600307,MI-82985,Detroit Premier Academy,Wayne County,7781 Asbury Park,Detroit,MI,48228,3685,(313)945-1472,715.00000,40.00000,1.00000,11,City: Large,17.88000000,Charter,Open
2601062,MI-82704,Detroit Public Safety Academy,Wayne County,1250 ROSA PARKS BLVD,DETROIT,MI,48216,1950,(313)965-6916,159.00000,7.60000,1.00000,11,City: Large,20.92000000,Charter,Open
2601103,MI-82015,Detroit Public Schools Community District,Wayne County,3011 W GRAND BLVD,DETROIT,MI,48202,3085,(313)873-7922,48548.00000,3019.36000,106.00000,11,City: Large,16.08000000,Regular Local,Open
2600239,MI-82953,Detroit Service Learning Academy,Wayne County,21605 WEST 7 MILE RD,DETROIT,MI,48219,1810,(734)604-7696,1408.00000,26.08000,3.00000,11,City: Large,53.99000000,Charter,Open
2611550,MI-19010,DeWitt Public Schools,Clinton County,PO Box 800,DeWitt,MI,48820,0800,(517)668-3000,3108.00000,169.09000,5.00000,21,Suburb: Large,18.38000000,Regular Local,Open
2612030,MI-81050,Dexter Community School District,Washtenaw County,2704 BAKER RD,DEXTER,MI,48130,1535,(734)424-4100,3386.00000,245.12000,7.00000,21,Suburb: Large,13.81000000,Regular Local,Open
2680360,MI-22000,Dickinson-Iron ISD,Dickinson County,1074 PYLE DR,KINGSFORD,MI,49802,4451,(906)779-2690,329.00000,27.59000,2.00000,33,Town: Remote,11.92000000,Specialized,Open
2601115,MI-82763,Discovery Creative Pathways,Wayne County,19360 Harper Avenue,Harper Woods,MI,48225,,(616)916-7509,841.00000,25.00000,2.00000,21,Suburb: Large,33.64000000,Charter,Open
2626940,MI-31100,Dollar Bay-Tamarack City Area Schools,Houghton County,PO Box 371 48475 Maple Drive,Dollar Bay,MI,49922,0371,(906)482-5800,306.00000,20.90000,1.00000,33,Town: Remote,14.64000000,Regular Local,Open
2600175,MI-82930,Dove Academy of Detroit,Wayne County,20001 WEXFORD ST,DETROIT,MI,48234,1807,(313)366-9110,477.00000,29.01000,1.00000,11,City: Large,16.44000000,Charter,Open
2612150,MI-14020,Dowagiac Union School District,Cass County,243 S FRONT ST,DOWAGIAC,MI,49047,1738,(269)782-4402,1900.00000,112.15000,7.00000,31,Town: Fringe,16.94000000,Regular Local,Open
2600215,MI-63910,Dr. Joseph F. Pollack Academic Center of Excellence,Oakland County,23777 SOUTHFIELD RD,SOUTHFIELD,MI,48075,3458,(248)569-1060,561.00000,47.50000,1.00000,13,City: Small,11.81000000,Charter,Open
2612240,MI-44050,Dryden Community Schools,Lapeer County,3866 ROCHESTER RD,DRYDEN,MI,48428,9721,(810)448-4092,470.00000,34.67000,2.00000,42,Rural: Distant,13.56000000,Regular Local,Open
2612300,MI-58050,Dundee Community Schools,Monroe County,420 YPSILANTI ST,DUNDEE,MI,48131,1152,(734)529-2350,1795.00000,89.97000,4.00000,31,Town: Fringe,19.95000000,Regular Local,Open
2612330,MI-78030,Durand Area Schools,Shiawassee County,310 NORTH SAGINAW ST,DURAND,MI,48429,1237,(989)288-2681,1242.00000,73.78000,4.00000,41,Rural: Fringe,16.83000000,Regular Local,Open
2600159,MI-70906,Eagle Crest Charter Academy,Ottawa County,11950 RILEY ST,HOLLAND,MI,49424,8553,(616)786-2400,649.00000,42.03000,1.00000,23,Suburb: Small,15.44000000,Charter,Open
2601083,MI-25916,Eagle's Nest Academy,Genesee County,5005 CLOVERLAWN DR,FLINT,MI,48504,2084,(810)787-9019,158.00000,3.00000,1.00000,13,City: Small,52.67000000,Charter,Open
2600996,MI-81910,East Arbor Charter Academy,Washtenaw County,6885 Merritt Road,Ypsilanti,MI,48197,,(734)484-5506,483.00000,29.01000,1.00000,41,Rural: Fringe,16.65000000,Charter,Open
2612420,MI-74050,East China School District,St. Clair County,1585 MEISNER RD,EAST CHINA,MI,48054,4143,(810)676-1018,3688.00000,211.89000,9.00000,23,Suburb: Small,17.41000000,Regular Local,Open
2612480,MI-41090,East Grand Rapids Public Schools,Kent County,2915 HALL ST SE,GRAND RAPIDS,MI,49506,3111,(616)235-3535,2946.00000,160.00000,5.00000,21,Suburb: Large,18.41000000,Regular Local,Open
2612540,MI-38090,East Jackson Community Schools,Jackson County,1404 NORTH SUTTON RD,JACKSON,MI,49202,2822,(517)764-2090,778.00000,47.83000,3.00000,23,Suburb: Small,16.27000000,Regular Local,Open
2612560,MI-15060,East Jordan Public Schools,Charlevoix County,PO Box 399,East Jordan,MI,49727,0399,(231)536-3131,743.00000,55.48000,3.00000,42,Rural: Distant,13.39000000,Regular Local,Open
2612600,MI-33010,East Lansing School District,Ingham County,501 BURCHAM DR,EAST LANSING,MI,48823,2798,(517)333-7424,3788.00000,213.72000,8.00000,13,City: Small,17.72000000,Regular Local,Open
2601090,MI-74900,East Shore Leadership Academy,St. Clair County,1403 7TH ST,PORT HURON,MI,48060,5903,(810)247-0687,183.00000,11.80000,1.00000,23,Suburb: Small,15.51000000,Charter,Open
2680280,MI-17000,Eastern Upper Peninsula ISD,Chippewa County,315 ARMORY PLACE,SAULT STE. MARIE,MI,49783,2005,(906)632-3373,258.00000,14.45000,2.00000,42,Rural: Distant,17.85000000,Specialized,Open
2612660,MI-34340,Easton Township S/D #6,Ionia County,1779 HAYNOR RD,IONIA,MI,48846,8681,(616)527-4900,9.00000,1.00000,1.00000,41,Rural: Fringe,9.00000000,Regular Local,Open
2612450,MI-50020,Eastpointe Community Schools,Macomb County,24685 KELLY RD,EASTPOINTE,MI,48021,1399,(586)533-3023,2261.00000,145.98000,8.00000,21,Suburb: Large,15.49000000,Regular Local,Open
2600136,MI-82915,Eaton Academy,Macomb County,21450 UNIVERSAL AVE,EASTPOINTE,MI,48021,2969,(586)777-1519,332.00000,19.00000,1.00000,21,Suburb: Large,17.47000000,Charter,Open
2612690,MI-23050,Eaton Rapids Public Schools,Eaton County,912 GREYHOUND DR,EATON RAPIDS,MI,48827,2620,(517)663-8155,1981.00000,129.97000,6.00000,31,Town: Fringe,15.24000000,Regular Local,Open
2680380,MI-23000,Eaton RESA,Eaton County,1790 PACKARD HWY,CHARLOTTE,MI,48813,9717,(517)541-8720,282.00000,28.90000,2.00000,31,Town: Fringe,9.76000000,Specialized,Open
2612810,MI-11250,Eau Claire Public Schools,Berrien County,6190 West Main Street,Eau Claire,MI,49111,9327,(269)461-6947,654.00000,35.97000,4.00000,41,Rural: Fringe,18.18000000,Regular Local,Open
2612930,MI-82250,Ecorse Public Schools,Wayne County,27225 W OUTER DR,ECORSE,MI,48229,1217,(313)294-4750,1119.00000,59.00000,6.00000,21,Suburb: Large,18.97000000,Regular Local,Open
2612990,MI-14030,Edwardsburg Public Schools,Cass County,69410 SECTION ST,EDWARDSBURG,MI,49112,9668,(269)663-1053,2642.00000,134.12000,6.00000,21,Suburb: Large,19.70000000,Regular Local,Open
2613050,MI-05060,Elk Rapids Schools,Antrim County,308 MEGUZEE PT,ELK RAPIDS,MI,49629,9597,(231)264-8692,1231.00000,68.27000,5.00000,42,Rural: Distant,18.03000000,Regular Local,Open
2613090,MI-32050,Elkton-Pigeon-Bay Port Laker Schools,Huron County,6136 PIGEON RD,PIGEON,MI,48755,9585,(989)453-4600,936.00000,58.87000,3.00000,43,Rural: Remote,15.90000000,Regular Local,Open
2613110,MI-05065,Ellsworth Community School,Antrim County,9467 PARK ST,ELLSWORTH,MI,49729,9679,(231)588-2544,238.00000,17.62000,1.00000,42,Rural: Distant,13.51000000,Regular Local,Open
2613140,MI-31070,Elm River Township School District,Houghton County,3999 WINONA RD,TOIVOLA,MI,49965,9333,(906)288-3751,5.00000,1.00000,1.00000,43,Rural: Remote,5.00000000,Regular Local,Open
2600192,MI-13902,Endeavor Charter Academy,Calhoun County,380 HELMER RD N,SPRINGFIELD,MI,49037,7776,(269)962-9300,679.00000,37.01000,1.00000,23,Suburb: Small,18.35000000,Charter,Open
2615600,MI-49055,Engadine Consolidated Schools,Mackinac County,W13920 MELVILLE ST,ENGADINE,MI,49827,9501,(906)477-6313,338.00000,22.29000,2.00000,43,Rural: Remote,15.16000000,Regular Local,Open
2613500,MI-21010,Escanaba Area Public Schools,Delta County,1500 LUDINGTON ST,ESCANABA,MI,49829,2839,(906)786-5411,2129.00000,119.52000,5.00000,33,Town: Remote,17.81000000,Regular Local,Open
2601032,MI-82744,Escuela Avancemos,Wayne County,2635 HOWARD ST,DETROIT,MI,48216,2058,(313)596-0079,393.00000,18.50000,1.00000,11,City: Large,21.24000000,Charter,Open
2613530,MI-09050,Essexville-Hampton Public Schools,Bay County,303 PINE ST,ESSEXVILLE,MI,48732,1584,(989)894-9700,1500.00000,102.11000,4.00000,23,Suburb: Small,14.69000000,Regular Local,Open
2613560,MI-67020,Evart Public Schools,Osceola County,321 N HEMLOCK ST,Evart,MI,49631,9588,(231)734-5594,896.00000,60.54000,3.00000,43,Rural: Remote,14.80000000,Regular Local,Open
2600014,MI-66045,Ewen-Trout Creek Consolidated School District,Ontonagon County,14312 AIRPORT RD,EWEN,MI,49925,,(906)813-0620,159.00000,12.10000,1.00000,43,Rural: Remote,13.14000000,Regular Local,Open
2600093,MI-41905,Excel Charter Academy,Kent County,4201 BRETON RD SE,GRAND RAPIDS,MI,49512,3857,(616)281-9339,784.00000,38.07000,1.00000,12,City: Midsize,20.59000000,Charter,Open
2613680,MI-40060,Excelsior Township S/D #1,Kalkaska County,5521 M 72 NE,KALKASKA,MI,49646,9774,(231)922-6200,45.00000,2.00000,1.00000,42,Rural: Distant,22.50000000,Regular Local,Open
2610560,MI-68030,Fairview Area School District,Oscoda County,1879 EAST MILLER RD,FAIRVIEW,MI,48621,8705,(989)848-7004,298.00000,12.00000,1.00000,43,Rural: Remote,24.83000000,Regular Local,Open
2614070,MI-63200,Farmington Public School District,Oakland County,32500 SHIAWASSEE RD,FARMINGTON,MI,48336,2338,(248)489-3340,9041.00000,626.95000,16.00000,13,City: Small,14.42000000,Regular Local,Open
2614100,MI-18020,Farwell Area Schools,Clare County,399 E Michigan St,FARWELL,MI,48622,,(989)588-9917,1008.00000,58.10000,4.00000,32,Town: Distant,17.35000000,Regular Local,Open
2601027,MI-63926,Faxon Academy,Oakland County,26275 NORTHWESTERN HWY,SOUTHFIELD,MI,48076,3926,(313)282-7618,119.00000,3.00000,1.00000,13,City: Small,39.67000000,Charter,Open
2614230,MI-03050,Fennville Public Schools,Allegan County,PO Box 1,Fennville,MI,49408,0001,(269)722-3350,1247.00000,76.75000,4.00000,42,Rural: Distant,16.25000000,Regular Local,Open
2614250,MI-25100,Fenton Area Public Schools,Genesee County,3100 OWEN RD,FENTON,MI,48430,1754,(810)591-4700,3088.00000,188.89000,6.00000,21,Suburb: Large,16.35000000,Regular Local,Open
2614280,MI-63020,Ferndale Public Schools,Oakland County,871 Pinecrest,FERNDALE,MI,48220,1055,(248)586-8651,3131.00000,172.27000,7.00000,21,Suburb: Large,18.17000000,Regular Local,Open
2614460,MI-50090,Fitzgerald Public Schools,Macomb County,23200 RYAN RD,WARREN,MI,48091,4551,(586)757-1750,2202.00000,178.80000,6.00000,12,City: Midsize,12.32000000,Regular Local,Open
2600945,MI-82997,Flagship Charter Academy,Wayne County,13661 WISCONSIN ST,DETROIT,MI,48238,2356,(313)933-7933,643.00000,37.02000,1.00000,11,City: Large,17.37000000,Charter,Open
2600145,MI-41911,Flat River Academy,Montcalm County,9481 Jordan Road,Greenville,MI,48838,,(616)754-9360,129.00000,12.15000,1.00000,41,Rural: Fringe,10.62000000,Charter,Open
2607080,MI-82180,Flat Rock Community Schools,Wayne County,28639 DIVISION ST,FLAT ROCK,MI,48134,1515,(734)535-6500,1772.00000,96.50000,5.00000,21,Suburb: Large,18.36000000,Regular Local,Open
2601117,MI-25918,Flex High School of Michigan,Genesee County,4945 CLIO RD,FLINT,MI,48504,1886,(877)360-5327,246.00000,10.41000,2.00000,21,Suburb: Large,23.63000000,Charter,Open
2600292,MI-63920,Flex High School of Pontiac,Oakland County,142 AUBURN AVE,PONTIAC,MI,48342,3008,(248)206-4316,37.00000,1.00000,1.00000,13,City: Small,37.00000000,Charter,Open
2600984,MI-47903,FlexTech High School,Livingston County,7707 Conference Center Road,Brighton,MI,48114,,(810)844-3366,177.00000,11.50000,1.00000,22,Suburb: Midsize,15.39000000,Charter,Open
2601122,MI-37900,Flextech High School Shepherd,Isabella County,380 W BLANCHARD RD,SHEPHERD,MI,48883,9552,(810)206-3260,71.00000,5.76000,1.00000,42,Rural: Distant,12.33000000,Charter,Open
2601124,MI-25919,Flint Cultural Center Academy,Genesee County,1200 ROBERT T LONGWAY BLVD,FLINT,MI,48503,,(810)339-8750,596.00000,32.00000,1.00000,13,City: Small,18.63000000,Charter,Open
2614520,MI-25010,Flint School District of the City of,Genesee County,923 EAST KEARSLEY ST,FLINT,MI,48503,1974,(810)760-1249,2840.00000,149.20000,14.00000,13,City: Small,19.03000000,Regular Local,Open
2614550,MI-25120,Flushing Community Schools,Genesee County,522 NORTH MCKINLEY RD,FLUSHING,MI,48433,1353,(810)591-1180,4074.00000,214.97000,8.00000,21,Suburb: Large,18.95000000,Regular Local,Open
2614570,MI-40020,Forest Area Community Schools,Kalkaska County,7741 SHIPPY RD SW,FIFE LAKE,MI,49633,8225,(231)369-4191,515.00000,34.35000,3.00000,42,Rural: Distant,14.99000000,Regular Local,Open
2614610,MI-41110,Forest Hills Public Schools,Kent County,6590 CASCADE RD SE,GRAND RAPIDS,MI,49546,6428,(616)493-8800,9201.00000,509.84000,18.00000,21,Suburb: Large,18.05000000,Regular Local,Open
2611190,MI-36015,Forest Park School District,Iron County,801 FOREST PKWY,CRYSTAL FALLS,MI,49920,1133,(906)214-4695,479.00000,28.31000,1.00000,43,Rural: Remote,16.92000000,Regular Local,Open
2600314,MI-81906,Fortis Academy,Washtenaw County,3875 GOLFSIDE DR,YPSILANTI,MI,48197,3726,(734)572-3623,638.00000,39.32000,1.00000,21,Suburb: Large,16.23000000,Charter,Open
2601133,MI-82772,Fostering Leadership Academy,Wayne County,16511 DELAWARE AVE,REDFORD,MI,48240,,(313)977-9178,59.00000,4.00000,1.00000,21,Suburb: Large,14.75000000,Charter,Open
2600964,MI-63923,Four Corners Montessori Academy,Oakland County,1075 EAST GARDENIA AVE,MADISON HEIGHTS,MI,48071,3433,(248)542-7001,291.00000,17.00000,1.00000,21,Suburb: Large,17.12000000,Charter,Open
2614700,MI-19070,Fowler Public Schools,Clinton County,PO Box 408,Fowler,MI,48835,,(989)593-2250,443.00000,28.31000,2.00000,42,Rural: Distant,15.65000000,Regular Local,Open
2614730,MI-47030,Fowlerville Community Schools,Livingston County,7677 WEST SHARPE RD STE A,FOWLERVILLE,MI,48836,8748,(517)223-6001,2590.00000,143.28000,5.00000,31,Town: Fringe,18.08000000,Regular Local,Open
2600218,MI-73909,Francis Reh PSA,Saginaw County,2201 OWEN ST,SAGINAW,MI,48601,3466,(989)753-2349,499.00000,30.70000,1.00000,13,City: Small,16.25000000,Charter,Open
2614760,MI-73190,Frankenmuth School District,Saginaw County,525 EAST GENESEE ST,FRANKENMUTH,MI,48734,1296,(989)652-9958,1374.00000,63.09000,3.00000,31,Town: Fringe,21.78000000,Regular Local,Open
2614790,MI-10025,Frankfort-Elberta Area Schools,Benzie County,534 11TH ST,FRANKFORT,MI,49635,9351,(231)352-4641,477.00000,32.52000,2.00000,43,Rural: Remote,14.67000000,Regular Local,Open
2614820,MI-50100,Fraser Public Schools,Macomb County,33466 GARFIELD RD,FRASER,MI,48026,1850,(586)439-7000,4650.00000,284.94000,8.00000,21,Suburb: Large,16.32000000,Regular Local,Open
2615060,MI-73200,Freeland Community School District,Saginaw County,710 POWLEY DR,FREELAND,MI,48623,8106,(989)695-5527,2051.00000,100.58000,3.00000,23,Suburb: Small,20.39000000,Regular Local,Open
2615150,MI-62040,Fremont Public School District,Newaygo County,450 E PINE ST,FREMONT,MI,49412,1767,(231)924-2350,2092.00000,119.40000,5.00000,41,Rural: Fringe,17.52000000,Regular Local,Open
2600301,MI-82987,Frontier International Academy,Wayne County,13200 CONANT ST,DETROIT,MI,48212,2338,(734)369-9500,921.00000,38.50000,2.00000,11,City: Large,23.92000000,Charter,Open
2615390,MI-61080,Fruitport Community Schools,Muskegon County,3255 PONTALUNA RD,FRUITPORT,MI,49415,9600,(231)865-3154,2678.00000,156.25000,7.00000,22,Suburb: Midsize,17.14000000,Regular Local,Open
2615420,MI-29050,Fulton Schools,Gratiot County,8060 ELY HWY,MIDDLETON,MI,48856,9704,(989)236-7300,558.00000,35.16000,3.00000,42,Rural: Distant,15.87000000,Regular Local,Open
2615450,MI-39050,Galesburg-Augusta Community Schools,Kalamazoo County,1076 NORTH 37TH ST,GALESBURG,MI,49053,9762,(269)484-2000,971.00000,62.84000,4.00000,41,Rural: Fringe,15.45000000,Regular Local,Open
2615540,MI-82050,Garden City Public Schools,Wayne County,1333 RADCLIFF ST,GARDEN CITY,MI,48135,1126,(734)762-6311,3228.00000,239.60000,8.00000,21,Suburb: Large,13.47000000,Regular Local,Open
2601097,MI-53901,Gateway To Success Academy,Mason County,526 N SCOTTVILLE RD,SCOTTVILLE,MI,49454,9572,(231)845-0922,107.00000,7.63000,1.00000,42,Rural: Distant,14.02000000,Charter,Open
2615730,MI-69020,Gaylord Community Schools,Otsego County,615 SOUTH ELM AVE,GAYLORD,MI,49735,1253,(989)705-3009,2793.00000,161.14000,5.00000,41,Rural: Fringe,17.33000000,Regular Local,Open
2681001,MI-81916,GEE Compass Academy,†,850 S Hewitt Street,Ypsilanti,MI,48197,8141,(734)369-9500,†,†,1.00000,†,†,†,Charter,New
2680400,MI-25000,Genesee ISD,Genesee County,2413 W Maple Ave,Flint,MI,48507,3493,(810)591-4402,2982.00000,244.23000,6.00000,21,Suburb: Large,12.21000000,Specialized,Open
2615750,MI-25070,Genesee School District,Genesee County,PO Box 220,Genesee,MI,48437,0220,(810)591-1650,731.00000,46.92000,2.00000,21,Suburb: Large,15.58000000,Regular Local,Open
2600224,MI-82937,George Crockett Academy,Wayne County,4851 14TH ST,DETROIT,MI,48208,2204,(313)896-6078,355.00000,25.50000,1.00000,11,City: Large,13.92000000,Charter,Open
2600249,MI-82963,George Washington Carver Academy,Wayne County,14510 2ND AVE,HIGHLAND PARK,MI,48203,5715,(313)865-6024,370.00000,26.70000,2.00000,21,Suburb: Large,13.86000000,Charter,Open
2680999,MI-41932,Gerald Dawkins Academy,Kent County,1050 FISK ST SE,GRAND RAPIDS,MI,49507,1413,(517)281-8626,†,†,1.00000,13,City: Small,†,Charter,New
2615870,MI-82290,Gibraltar School District,Wayne County,19370 VREELAND RD,WOODHAVEN,MI,48183,4430,(734)379-6350,3630.00000,198.00000,7.00000,21,Suburb: Large,18.33000000,Regular Local,Open
2615970,MI-21025,Gladstone Area Schools,Delta County,400 SOUTH 10TH ST,GLADSTONE,MI,49837,1534,(906)428-2417,1490.00000,83.89000,4.00000,33,Town: Remote,17.76000000,Regular Local,Open
2615990,MI-26040,Gladwin Community Schools,Gladwin County,401 NORTH BOWERY AVE,GLADWIN,MI,48624,1442,(989)426-9255,1605.00000,83.33000,5.00000,32,Town: Distant,19.26000000,Regular Local,Open
2616020,MI-45010,Glen Lake Community Schools,Leelanau County,3375 WEST BURDICKVILLE RD,MAPLE CITY,MI,49664,8753,(231)334-3061,711.00000,55.11000,1.00000,43,Rural: Remote,12.90000000,Regular Local,Open
2615510,MI-03440,Glenn Public School District,Allegan County,PO Box 69,Glenn,MI,49416,,(269)512-7970,33.00000,3.00000,1.00000,42,Rural: Distant,11.00000000,Regular Local,Open
2600973,MI-82725,Global Heights Academy,Wayne County,23713 Joy Road,Dearborn Heights,MI,48127,,(313)624-3400,252.00000,13.50000,1.00000,21,Suburb: Large,18.67000000,Charter,Open
2601064,MI-81900,Global Tech Academy,Washtenaw County,1715 E FOREST AVE,YPSILANTI,MI,48198,4160,(734)390-9625,207.00000,11.00000,1.00000,21,Suburb: Large,18.82000000,Charter,Open
2616050,MI-80110,Gobles Public School District,Van Buren County,PO Box 412,Gobles,MI,49055,0412,(269)628-9390,737.00000,47.77000,3.00000,42,Rural: Distant,15.43000000,Regular Local,Open
2616080,MI-41120,Godfrey-Lee Public Schools,Kent County,1324 BURTON ST SW,WYOMING,MI,49509,1466,(616)241-4722,1650.00000,108.99000,5.00000,21,Suburb: Large,15.14000000,Regular Local,Open
2616110,MI-41020,Godwin Heights Public Schools,Kent County,15 36TH ST SW,GRAND RAPIDS,MI,49548,2101,(616)252-2090,2026.00000,118.58000,5.00000,21,Suburb: Large,17.09000000,Regular Local,Open
2680420,MI-27000,Gogebic-Ontonagon ISD,Ontonagon County,PO Box 218,Bergland,MI,49910,0218,(906)575-3438,107.00000,12.66000,1.00000,43,Rural: Remote,8.45000000,Specialized,Open
2616320,MI-25050,Goodrich Area Schools,Genesee County,8029 GALE RD,GOODRICH,MI,48438,9260,(810)591-2201,1932.00000,95.70000,4.00000,41,Rural: Fringe,20.19000000,Regular Local,Open
2600193,MI-25903,Grand Blanc Academy,Genesee County,5135 EAST HILL RD,GRAND BLANC,MI,48439,7637,(810)953-3140,325.00000,28.40000,1.00000,21,Suburb: Large,11.44000000,Charter,Open
2616350,MI-25030,Grand Blanc Community Schools,Genesee County,G11920 S SAGINAW ST,GRAND BLANC,MI,48439,,(810)591-6000,7801.00000,437.28000,13.00000,21,Suburb: Large,17.84000000,Regular Local,Open
2616380,MI-70010,Grand Haven Area Public Schools,Ottawa County,1415 SOUTH BEECHTREE ST,GRAND HAVEN,MI,49417,2843,(616)850-5015,5411.00000,343.99000,13.00000,22,Suburb: Midsize,15.73000000,Regular Local,Open
2616410,MI-23060,Grand Ledge Public Schools,Eaton County,220 LAMSON ST,GRAND LEDGE,MI,48837,1760,(517)925-5401,5096.00000,296.32000,8.00000,21,Suburb: Large,17.20000000,Regular Local,Open
2600252,MI-41921,Grand Rapids Child Discovery Center,Kent County,409 Lafayette Ave SE,GRAND RAPIDS,MI,49503,,(616)459-0330,287.00000,15.00000,1.00000,12,City: Midsize,19.13000000,Charter,Open
2616440,MI-41010,Grand Rapids Public Schools,Kent County,PO Box 117,Grand Rapids,MI,49501,0117,(616)819-2000,13787.00000,795.97000,51.00000,12,City: Midsize,17.32000000,Regular Local,Open
2601082,MI-82757,Grand River Academy,Wayne County,28111 8 MILE RD,LIVONIA,MI,48152,2359,(248)893-6100,736.00000,38.06000,1.00000,13,City: Small,19.34000000,Charter,Open
2601095,MI-41930,Grand River Preparatory High School,Kent County,650 52nd Street,Kentwood,MI,49548,,(616)261-1800,604.00000,30.78000,1.00000,13,City: Small,19.62000000,Charter,Open
2600265,MI-28902,Grand Traverse Academy,Grand Traverse County,1245 HAMMOND RD E,TRAVERSE CITY,MI,49686,9000,(231)932-6008,787.00000,51.00000,1.00000,33,Town: Remote,15.43000000,Charter,Open
2616470,MI-41130,Grandville Public Schools,Kent County,3839 Prairie St SW,Grandville,MI,49418,1688,(616)254-6570,5521.00000,331.36000,10.00000,21,Suburb: Large,16.66000000,Regular Local,Open
2616500,MI-62050,Grant Public School District,Newaygo County,148 ELDER ST,GRANT,MI,49327,8411,(231)834-5621,1638.00000,93.13000,5.00000,42,Rural: Distant,17.59000000,Regular Local,Open
2616560,MI-42030,Grant Township S/D #2,Keweenaw County,PO Box 74,Copper Harbor,MI,49918,0074,(906)289-4447,7.00000,1.00000,1.00000,43,Rural: Remote,7.00000000,Regular Local,Open
2616830,MI-38050,Grass Lake Community Schools,Jackson County,899 SOUTH UNION ST,GRASS LAKE,MI,49240,9346,(517)867-5540,1315.00000,78.96000,3.00000,41,Rural: Fringe,16.65000000,Regular Local,Open
2680460,MI-29000,Gratiot-Isabella RESD,Gratiot County,PO Box 310,Ithaca,MI,48847,0310,(989)875-5101,246.00000,66.80000,1.00000,32,Town: Distant,3.68000000,Specialized,Open
2600157,MI-63907,Great Lakes Academy,Oakland County,46312 WOODWARD AVE,PONTIAC,MI,48342,5006,(248)334-6434,183.00000,12.00000,1.00000,13,City: Small,15.25000000,Charter,Open
2601050,MI-33914,Great Lakes Learning Academy,Ingham County,2875 EYDE PKWY,EAST LANSING,MI,48823,5368,(810)471-4989,1136.00000,37.56000,2.00000,21,Suburb: Large,30.24000000,Charter,Open
2600294,MI-63922,Great Oaks Academy,Macomb County,4257 BART AVE,WARREN,MI,48091,1977,(586)427-4540,744.00000,38.02000,1.00000,12,City: Midsize,19.57000000,Charter,Open
2601037,MI-25914,Greater Heights Academy,Genesee County,3196 W PASADENA AVE,FLINT,MI,48504,2330,(810)768-3860,246.00000,18.00000,1.00000,21,Suburb: Large,13.67000000,Charter,Open
2617160,MI-59070,Greenville Public Schools,Montcalm County,1414 CHASE ST,GREENVILLE,MI,48838,7147,(616)754-3686,3601.00000,211.50000,7.00000,32,Town: Distant,17.03000000,Regular Local,Open
2617220,MI-82300,Grosse Ile Township Schools,Wayne County,23276 EAST RIVER RD,GROSSE ILE,MI,48138,1535,(734)362-2581,1594.00000,90.48000,4.00000,21,Suburb: Large,17.62000000,Regular Local,Open
2625740,MI-82055,Grosse Pointe Public Schools,Wayne County,20601 MORNINGSIDE DRIVE,GROSSE POINTE WOODS,MI,48236,1584,(313)432-3000,6516.00000,431.44000,12.00000,21,Suburb: Large,15.10000000,Regular Local,Open
2617250,MI-39065,Gull Lake Community Schools,Kalamazoo County,10100 EAST D AVE,RICHLAND,MI,49083,8601,(269)548-3406,3256.00000,213.37000,7.00000,22,Suburb: Midsize,15.26000000,Regular Local,Open
2614690,MI-52040,Gwinn Area Community Schools,Marquette County,50 WEST STATE HIGHWAY M35,GWINN,MI,49841,9180,(906)346-9283,997.00000,67.00000,3.00000,43,Rural: Remote,14.88000000,Regular Local,Open
2617340,MI-11670,Hagar Township S/D #6,Berrien County,3422 RIVERSIDE RD,BENTON HARBOR,MI,49022,9583,(269)849-1343,73.00000,6.83000,1.00000,41,Rural: Fringe,10.69000000,Regular Local,Open
2617370,MI-35020,Hale Area Schools,Iosco County,200 WEST MAIN ST,HALE,MI,48739,9255,(989)728-7661,343.00000,22.76000,1.00000,43,Rural: Remote,15.07000000,Regular Local,Open
2617400,MI-03100,Hamilton Community Schools,Allegan County,4815 136TH AVE,HAMILTON,MI,49419,9604,(269)751-5148,2905.00000,155.67000,7.00000,41,Rural: Fringe,18.66000000,Regular Local,Open
2600287,MI-82977,Hamtramck Academy,Wayne County,11420 CONANT ST,HAMTRAMCK,MI,48212,3134,(313)368-7312,548.00000,29.01000,1.00000,21,Suburb: Large,18.89000000,Charter,Open
2617520,MI-82060,Hamtramck School District of the City of,Wayne County,PO Box 12012,Hamtramck,MI,48212,0012,(313)591-7412,3062.00000,193.24000,8.00000,21,Suburb: Large,15.85000000,Regular Local,Open
2617550,MI-31010,Hancock Public Schools,Houghton County,501 Campus Drive,HANCOCK,MI,49930,1845,(906)487-5925,604.00000,39.60000,2.00000,41,Rural: Fringe,15.25000000,Regular Local,Open
2600305,MI-82986,Hanley International Academy,Wayne County,2400 DENTON ST,HAMTRAMCK,MI,48212,3616,(313)875-8888,660.00000,37.75000,1.00000,21,Suburb: Large,17.48000000,Charter,Open
2617640,MI-38100,Hanover-Horton School District,Jackson County,10400 MOSCOW RD,HORTON,MI,49246,9402,(517)563-0100,1023.00000,54.11000,3.00000,42,Rural: Distant,18.91000000,Regular Local,Open
2600007,MI-32060,Harbor Beach Community Schools,Huron County,402 SOUTH 5TH ST,HARBOR BEACH,MI,48441,1386,(989)479-3261,491.00000,31.68000,3.00000,43,Rural: Remote,15.50000000,Regular Local,Open
2617700,MI-24020,Harbor Springs School District,Emmet County,800 STATE ROAD,HARBOR SPRINGS,MI,49740,1137,(231)526-4540,737.00000,55.62000,3.00000,42,Rural: Distant,13.25000000,Regular Local,Open
2617730,MI-13070,Harper Creek Community Schools,Calhoun County,7454 B DR N,BATTLE CREEK,MI,49014,8381,(269)441-6571,2819.00000,162.42000,5.00000,41,Rural: Fringe,17.36000000,Regular Local,Open
2617760,MI-82320,Harper Woods The School District of the City of,Wayne County,19851 ANITA ST,HARPER WOODS,MI,48225,1103,(586)209-2400,2581.00000,102.60000,7.00000,21,Suburb: Large,25.16000000,Regular Local,Open
2617820,MI-18060,Harrison Community Schools,Clare County,PO Box 529,Harrison,MI,48625,0529,(989)539-7871,1260.00000,84.50000,4.00000,32,Town: Distant,14.91000000,Regular Local,Open
2617860,MI-64040,Hart Public School District,Oceana County,301 JOHNSON ST W,HART,MI,49420,1081,(231)873-6214,1246.00000,80.66000,3.00000,32,Town: Distant,15.45000000,Regular Local,Open
2617880,MI-80120,Hartford Public Schools,Van Buren County,115 SCHOOL ST,HARTFORD,MI,49057,1183,(269)621-7001,1364.00000,72.56000,4.00000,31,Town: Fringe,18.80000000,Regular Local,Open
2617910,MI-47060,Hartland Consolidated Schools,Livingston County,9525 EAST HIGHLAND RD,HOWELL,MI,48843,9098,(810)626-2100,5162.00000,289.53000,9.00000,41,Rural: Fringe,17.83000000,Regular Local,Open
2617940,MI-33060,Haslett Public Schools,Ingham County,5593 FRANKLIN ST,HASLETT,MI,48840,5000,(517)339-8242,2563.00000,189.23000,5.00000,21,Suburb: Large,13.54000000,Regular Local,Open
2617970,MI-08030,Hastings Area School District,Barry County,232 West Grand Street,Hastings,MI,49058,2225,(269)945-6137,2550.00000,145.46000,6.00000,32,Town: Distant,17.53000000,Regular Local,Open
2618030,MI-63130,Hazel Park School District of the City of,Oakland County,1620 EAST ELZA AVE,HAZEL PARK,MI,48030,2358,(248)658-5220,2947.00000,213.48000,11.00000,21,Suburb: Large,13.80000000,Regular Local,Open
2618180,MI-73210,Hemlock Public School District,Saginaw County,PO Box 260,Hemlock,MI,48626,0260,(989)642-5282,1169.00000,66.60000,5.00000,41,Rural: Fringe,17.55000000,Regular Local,Open
2600171,MI-82926,Henry Ford Academy,Wayne County,PO Box 1148,Dearborn,MI,48121,1148,(313)982-6193,497.00000,†,1.00000,12,City: Midsize,‡,Charter,Open
2680220,MI-14000,Heritage Southwest Intermediate School District,Cass County,61682 DAILEY RD,CASSOPOLIS,MI,49031,9648,(269)445-6202,254.00000,29.00000,2.00000,42,Rural: Distant,8.76000000,Specialized,Open
2618270,MI-62060,Hesperia Community Schools,Newaygo County,96 S Division Street,Hesperia,MI,49421,0338,(231)854-6185,818.00000,45.63000,3.00000,42,Rural: Distant,17.93000000,Regular Local,Open
2601014,MI-82749,Highland Park Public School Academy System,Wayne County,15900 WOODWARD AVE,HIGHLAND PARK,MI,48203,2948,(313)957-3005,280.00000,2.50000,1.00000,21,Suburb: Large,112.00000000,Charter,Open
2601107,MI-83900,Highpoint Virtual Academy of Michigan,Wexford County,210 E Mesick Avenue,Mesick,MI,49668,,(231)307-4707,2308.00000,124.30000,1.00000,43,Rural: Remote,18.57000000,Charter,Open
2618360,MI-60020,Hillman Community Schools,Montmorency County,26042 M 32 S,HILLMAN,MI,49746,9788,(989)742-2908,415.00000,29.96000,2.00000,43,Rural: Remote,13.85000000,Regular Local,Open
2618390,MI-30020,Hillsdale Community Schools,Hillsdale County,30 SOUTH NORWOOD AVE,HILLSDALE,MI,49242,1802,(517)437-4401,1274.00000,78.62000,5.00000,32,Town: Distant,16.20000000,Regular Local,Open
2680480,MI-30000,Hillsdale ISD,Hillsdale County,310 WEST BACON ST,HILLSDALE,MI,49242,1546,(517)689-1801,304.00000,27.70000,2.00000,32,Town: Distant,10.97000000,Specialized,Open
2600143,MI-30901,Hillsdale Preparatory School,Hillsdale County,160 MECHANIC RD,HILLSDALE,MI,49242,1053,(517)437-4625,88.00000,6.00000,1.00000,32,Town: Distant,14.67000000,Charter,Open
2618420,MI-70020,Holland City School District,Ottawa County,320 W 24th St,HOLLAND,MI,49423,4037,(616)494-2005,2834.00000,173.00000,7.00000,13,City: Small,16.38000000,Regular Local,Open
2600216,MI-63911,Holly Academy,Oakland County,820 ACADEMY RD,HOLLY,MI,48442,1546,(248)634-5554,586.00000,38.75000,1.00000,31,Town: Fringe,15.12000000,Charter,Open
2618450,MI-63210,Holly Area School District,Oakland County,920 BAIRD ST,HOLLY,MI,48442,1735,(248)328-3147,3101.00000,200.31000,6.00000,31,Town: Fringe,15.48000000,Regular Local,Open
2618480,MI-33070,Holt Public Schools,Ingham County,5780 HOLT RD,HOLT,MI,48842,9696,(517)694-5715,4923.00000,337.34000,9.00000,21,Suburb: Large,14.59000000,Regular Local,Open
2618510,MI-61120,Holton Public Schools,Muskegon County,6500 Fourth Street,HOLTON,MI,49425,7505,(231)821-1700,828.00000,54.41000,4.00000,42,Rural: Distant,15.22000000,Regular Local,Open
2618540,MI-13080,Homer Community School District,Calhoun County,403 SOUTH HILLSDALE ST,HOMER,MI,49245,1247,(517)568-4463,910.00000,53.83000,3.00000,42,Rural: Distant,16.91000000,Regular Local,Open
2600121,MI-81901,Honey Creek Community School,Washtenaw County,1735 S WAGNER RD,ANN ARBOR,MI,48103,9715,(734)994-2636,251.00000,19.04000,1.00000,21,Suburb: Large,13.18000000,Charter,Open
2600229,MI-82942,Hope Academy,Wayne County,12121 BROADSTREET AVE,DETROIT,MI,48204,1550,(313)934-0054,414.00000,13.35000,1.00000,11,City: Large,31.01000000,Charter,Open
2600988,MI-41926,Hope Academy of West Michigan,Kent County,240 Brown Street SE,Grand Rapids,MI,49507,,(616)977-4917,359.00000,28.10000,1.00000,12,City: Midsize,12.78000000,Charter,Open
2600243,MI-82957,Hope of Detroit Academy,Wayne County,4443 NORTH CAMPBELL ST,DETROIT,MI,48210,2520,(313)897-8720,1010.00000,56.10000,2.00000,11,City: Large,18.00000000,Charter,Open
2618570,MI-03070,Hopkins Public Schools,Allegan County,400 S CLARK ST,HOPKINS,MI,49328,9538,(269)793-7261,1480.00000,83.58000,4.00000,42,Rural: Distant,17.71000000,Regular Local,Open
2618600,MI-72020,Houghton Lake Community Schools,Roscommon County,4433 W HOUGHTON LAKE DR,HOUGHTON LAKE,MI,48629,9786,(989)366-2031,1162.00000,97.47000,3.00000,41,Rural: Fringe,11.92000000,Regular Local,Open
2628890,MI-31110,Houghton-Portage Township School District,Houghton County,1603 GUNDLACH RD,HOUGHTON,MI,49931,2605,(906)482-0451,1445.00000,79.52000,3.00000,41,Rural: Fringe,18.17000000,Regular Local,Open
2618720,MI-47070,Howell Public Schools,Livingston County,411 NORTH HIGHLANDER WAY,HOWELL,MI,48843,1021,(517)548-6234,6871.00000,375.99000,10.00000,22,Suburb: Midsize,18.27000000,Regular Local,Open
2618810,MI-46080,Hudson Area Schools,Lenawee County,781 NORTH MAPLE GROVE AVE,HUDSON,MI,49247,1149,(517)448-8912,1243.00000,54.09000,5.00000,42,Rural: Distant,22.98000000,Regular Local,Open
2618840,MI-70190,Hudsonville Public School District,Ottawa County,3886 VAN BUREN ST,HUDSONVILLE,MI,49426,1038,(616)669-1740,6806.00000,415.08000,13.00000,21,Suburb: Large,16.40000000,Regular Local,Open
2600211,MI-50903,Huron Academy,Macomb County,11401 METROPOLITAN PKWY,STERLING HEIGHTS,MI,48312,2937,(586)446-9170,644.00000,45.57000,2.00000,21,Suburb: Large,14.13000000,Charter,Open
2680500,MI-32000,Huron ISD,Huron County,1299 SOUTH THOMAS RD STE 1,BAD AXE,MI,48413,9730,(989)269-6406,202.00000,30.40000,2.00000,41,Rural: Fringe,6.64000000,Specialized,Open
2618930,MI-82340,Huron School District,Wayne County,32044 HURON RIVER DR,NEW BOSTON,MI,48164,9282,(734)782-2441,2541.00000,151.49000,8.00000,21,Suburb: Large,16.77000000,Regular Local,Open
2618990,MI-63220,Huron Valley Schools,Oakland County,2390 SOUTH MILFORD RD,HIGHLAND,MI,48357,4934,(248)684-8234,7970.00000,486.77000,16.00000,21,Suburb: Large,16.37000000,Regular Local,Open
2601040,MI-70909,ICademy Global,Ottawa County,8485 HOMESTEAD DR,ZEELAND,MI,49464,8969,(616)953-9879,242.00000,19.40000,1.00000,23,Suburb: Small,12.47000000,Charter,Open
2619050,MI-58070,Ida Public School District,Monroe County,3145 PRAIRIE ST,IDA,MI,48140,9600,(734)269-9003,1440.00000,81.21000,3.00000,41,Rural: Fringe,17.73000000,Regular Local,Open
2619100,MI-44060,Imlay City Community Schools,Lapeer County,634 WEST BORLAND RD,IMLAY CITY,MI,48444,1416,(810)724-9861,1770.00000,98.78000,5.00000,32,Town: Distant,17.92000000,Regular Local,Open
2680520,MI-33000,Ingham ISD,Ingham County,2630 WEST HOWELL RD,MASON,MI,48854,9392,(517)244-1289,1295.00000,82.13000,9.00000,41,Rural: Fringe,15.77000000,Specialized,Open
2601110,MI-82762,Inkster Preparatory Academy,Wayne County,27355 Woodsfield Street,Wixom,MI,48141,,(313)278-3825,266.00000,1.25000,1.00000,21,Suburb: Large,212.80000000,Charter,Open
2619170,MI-16050,Inland Lakes Schools,Cheboygan County,4363 SOUTH STRAITS HWY,INDIAN RIVER,MI,49749,9457,(231)238-6868,621.00000,43.12000,2.00000,43,Rural: Remote,14.40000000,Regular Local,Open
2601011,MI-70908,Innocademy,Ottawa County,8485 HOMESTEAD DR,ZEELAND,MI,49464,8969,(616)748-5637,269.00000,23.63000,1.00000,23,Suburb: Small,11.38000000,Charter,Open
2601071,MI-03900,Innocademy Allegan Campus,Allegan County,2611 56TH ST,FENNVILLE,MI,49408,9443,(269)561-4050,94.00000,7.80000,1.00000,42,Rural: Distant,12.05000000,Charter,Open
2601077,MI-23903,Insight School of Michigan,Eaton County,526 S CREYTS RD,LANSING,MI,48917,8263,(517)580-0020,652.00000,38.25000,1.00000,21,Suburb: Large,17.05000000,Charter,Open
2600195,MI-25905,International Academy of Flint,Genesee County,2820 SOUTH SAGINAW ST,FLINT,MI,48503,5708,(810)600-5210,890.00000,50.51000,1.00000,13,City: Small,17.62000000,Charter,Open
2600946,MI-73912,International Academy of Saginaw,Saginaw County,1944 IOWA AVE,SAGINAW,MI,48601,5213,(989)921-1000,80.00000,4.00000,1.00000,22,Suburb: Midsize,20.00000000,Charter,Open
2680540,MI-34000,Ionia ISD,Ionia County,2191 HARWOOD RD,IONIA,MI,48846,9458,(616)527-4900,448.00000,47.35000,2.00000,41,Rural: Fringe,9.46000000,Specialized,Open
2619250,MI-34010,Ionia Public Schools,Ionia County,250 EAST TUTTLE RD,IONIA,MI,48846,8605,(616)527-9280,2833.00000,153.54000,8.00000,41,Rural: Fringe,18.45000000,Regular Local,Open
2619290,MI-34360,Ionia Township S/D #2,Ionia County,2120 NORTH STATE RD,IONIA,MI,48846,8527,(616)527-4900,14.00000,1.00000,1.00000,32,Town: Distant,14.00000000,Regular Local,Open
2680560,MI-35000,Iosco RESA,Iosco County,27 NORTH REMPERT RD,TAWAS CITY,MI,48763,9752,(989)362-3006,196.00000,21.70000,2.00000,42,Rural: Distant,9.03000000,Specialized,Open
2619410,MI-22010,Iron Mountain Public Schools,Dickinson County,217 IZZO MARIUCCI WAY,IRON MOUNTAIN,MI,49801,3326,(906)779-2600,756.00000,46.08000,5.00000,33,Town: Remote,16.41000000,Regular Local,Open
2619470,MI-27020,Ironwood Area Schools of Gogebic County,Gogebic County,650 EAST AYER ST,IRONWOOD,MI,49938,2206,(906)932-0200,728.00000,57.31000,2.00000,33,Town: Remote,12.70000000,Regular Local,Open
2619530,MI-52180,Ishpeming Public School District No. 1,Marquette County,319 EAST DIVISION ST,ISHPEMING,MI,49849,2005,(906)485-5501,674.00000,43.81000,4.00000,33,Town: Remote,15.38000000,Regular Local,Open
2600073,MI-23901,Island City Academy,Eaton County,6421 CLINTON RD,EATON RAPIDS,MI,48827,,(517)663-0111,201.00000,14.00000,1.00000,41,Rural: Fringe,14.36000000,Charter,Open
2619580,MI-29060,Ithaca Public Schools,Gratiot County,710 NORTH UNION ST,ITHACA,MI,48847,1314,(989)875-3700,1020.00000,54.29000,3.00000,42,Rural: Distant,18.79000000,Regular Local,Open
2601123,MI-82767,Ivywood Classical Academy,Wayne County,14356 GENOA CT,PLYMOUTH,MI,48170,2457,(248)207-1757,574.00000,26.56000,1.00000,21,Suburb: Large,21.61000000,Charter,Open
2680580,MI-38000,Jackson ISD,Jackson County,6700 BROWNS LAKE RD,JACKSON,MI,49201,8379,(517)768-5200,1148.00000,142.58000,5.00000,41,Rural: Fringe,8.05000000,Specialized,Open
2601044,MI-38900,Jackson Preparatory & Early College,Jackson County,2111 EMMONS RD,JACKSON,MI,49201,8395,(517)705-5732,287.00000,12.98000,1.00000,41,Rural: Fringe,22.11000000,Charter,Open
2619620,MI-38170,Jackson Public Schools,Jackson County,522 WILDWOOD AVE,JACKSON,MI,49201,1013,(517)841-2202,4486.00000,249.86000,13.00000,13,City: Small,17.95000000,Regular Local,Open
2600993,MI-82728,Jalen Rose Leadership Academy,Wayne County,15000 Trojan Street,Detroit,MI,48235,,(313)397-3333,411.00000,16.40000,1.00000,11,City: Large,25.06000000,Charter,Open
2619800,MI-58080,Jefferson Schools (Monroe),Monroe County,5707 WILLIAMS RD,NEWPORT,MI,48166,9500,(734)322-2551,1357.00000,68.52000,4.00000,23,Suburb: Small,19.80000000,Regular Local,Open
2619830,MI-70175,Jenison Public Schools,Ottawa County,8375 20TH AVE,JENISON,MI,49428,9230,(616)457-8890,5198.00000,355.41000,11.00000,21,Suburb: Large,14.63000000,Regular Local,Open
2619890,MI-69030,Johannesburg-Lewiston Area Schools,Otsego County,PO Box 69,Johannesburg,MI,49751,9622,(989)732-1773,717.00000,41.88000,3.00000,42,Rural: Distant,17.12000000,Regular Local,Open
2619920,MI-30030,Jonesville Community Schools,Hillsdale County,115 East Street,Jonesville,MI,49250,1062,(517)849-9075,1273.00000,70.21000,4.00000,41,Rural: Fringe,18.13000000,Regular Local,Open
2600071,MI-17901,Joseph K. Lumsden Bahweting Anishnabe Academy,Chippewa County,1301 MARQUETTE AVE,SAULT SAINTE MARIE,MI,49783,9533,(906)635-5055,596.00000,45.11000,1.00000,41,Rural: Fringe,13.21000000,Charter,Open
2600244,MI-82958,Joy Preparatory Academy,Wayne County,15055 DEXTER AVE,DETROIT,MI,48238,2124,(313)340-0023,179.00000,15.40000,1.00000,11,City: Large,11.62000000,Charter,Open
2601099,MI-39911,Kalamazoo Covenant Academy,Kalamazoo County,404 WEST CROSSTOWN PKWY,KALAMAZOO,MI,49001,2761,(269)888-2700,132.00000,7.50000,1.00000,13,City: Small,17.60000000,Charter,Open
2619950,MI-39010,Kalamazoo Public Schools,Kalamazoo County,1220 Howard St,Kalamazoo,MI,49008,1882,(269)337-0100,12298.00000,670.57000,31.00000,13,City: Small,18.34000000,Regular Local,Open
2680600,MI-39000,Kalamazoo RESA,Kalamazoo County,1819 EAST MILHAM AVE,KALAMAZOO,MI,49002,3035,(269)250-9202,1592.00000,115.31000,5.00000,13,City: Small,13.81000000,Specialized,Open
2620010,MI-51045,Kaleva Norman Dickson School District,Manistee County,4400 NORTH HIGH BRIDGE RD,BRETHREN,MI,49619,,(231)477-5353,539.00000,37.27000,3.00000,43,Rural: Remote,14.46000000,Regular Local,Open
2620050,MI-40040,Kalkaska Public Schools,Kalkaska County,315 S Coral Street,Kalkaska,MI,49646,,(231)258-9109,1393.00000,93.50000,4.00000,33,Town: Remote,14.90000000,Regular Local,Open
2620070,MI-25110,Kearsley Community School District,Genesee County,4396 UNDERHILL DR,FLINT,MI,48506,1534,(810)591-8000,2843.00000,164.23000,6.00000,21,Suburb: Large,17.31000000,Regular Local,Open
2620160,MI-41140,Kelloggsville Public Schools,Kent County,242 52ND ST SE,GRAND RAPIDS,MI,49548,5829,(616)538-7460,2272.00000,127.47000,7.00000,13,City: Small,17.82000000,Regular Local,Open
2620280,MI-41145,Kenowa Hills Public Schools,Kent County,2325 4 MILE RD NW,GRAND RAPIDS,MI,49544,9703,(616)784-2511,3010.00000,187.95000,6.00000,21,Suburb: Large,16.01000000,Regular Local,Open
2600099,MI-47901,Kensington Woods Schools,Livingston County,9501 Pettys Road,Lakeland,MI,48143,,(517)545-0828,111.00000,8.91000,1.00000,22,Suburb: Midsize,12.46000000,Charter,Open
2620310,MI-41150,Kent City Community Schools,Kent County,200 NORTH CLOVER ST,KENT CITY,MI,49330,8945,(616)678-7714,1291.00000,71.74000,4.00000,42,Rural: Distant,18.00000000,Regular Local,Open
2680620,MI-41000,Kent ISD,Kent County,2930 KNAPP ST NE,GRAND RAPIDS,MI,49525,4518,(616)364-1333,3324.00000,246.89000,9.00000,12,City: Midsize,13.46000000,Specialized,Open
2620340,MI-41160,Kentwood Public Schools,Kent County,5820 EASTERN AVE SE,GRAND RAPIDS,MI,49508,6213,(616)455-4400,9357.00000,552.46000,16.00000,21,Suburb: Large,16.94000000,Regular Local,Open
2601100,MI-63938,Keys Grace Academy,Oakland County,27321 Hampden,Madison Heights,MI,48071,,(248)629-7700,473.00000,26.30000,1.00000,21,Suburb: Large,17.98000000,Charter,Open
2600289,MI-82976,Keystone Academy,Wayne County,47925 BEMIS RD,BELLEVILLE,MI,48111,9760,(734)697-9470,629.00000,37.28000,1.00000,21,Suburb: Large,16.87000000,Charter,Open
2601046,MI-63934,Kingsbury Country Day School,Oakland County,5000 HOSNER RD,OXFORD,MI,48370,1000,(248)628-2571,354.00000,27.96000,1.00000,41,Rural: Fringe,12.66000000,Charter,Open
2620380,MI-28090,Kingsley Area Schools,Grand Traverse County,402 FENTON ST,KINGSLEY,MI,49649,9397,(231)263-5261,1493.00000,88.46000,3.00000,42,Rural: Distant,16.88000000,Regular Local,Open
2620400,MI-79080,Kingston Community School District,Tuscola County,5790 STATE ST,KINGSTON,MI,48741,5105,(989)683-2294,581.00000,31.00000,2.00000,43,Rural: Remote,18.74000000,Regular Local,Open
2601141,MI-82775,KIPP Detroit Imani Academy,Wayne County,19321 W CHICAGO ST,DETROIT,MI,48228,1739,(586)808-6604,34.00000,3.50000,1.00000,11,City: Large,9.71000000,Charter,Open
2600148,MI-41914,Knapp Charter Academy,Kent County,1759 LEFFINGWELL AVE NE,GRAND RAPIDS,MI,49525,4531,(616)364-1100,576.00000,37.46000,1.00000,21,Suburb: Large,15.38000000,Charter,Open
2600018,MI-07040,L'Anse Area Schools,Baraga County,201 NORTH 4TH ST,LANSE,MI,49946,1499,(906)524-6000,513.00000,33.72000,1.00000,43,Rural: Remote,15.21000000,Regular Local,Open
2621870,MI-50140,L'Anse Creuse Public Schools,Macomb County,24076 FV Pankow Blvd,Clinton Township,MI,48036,1304,(586)783-6300,9414.00000,543.76000,19.00000,21,Suburb: Large,17.31000000,Regular Local,Open
2620550,MI-78040,Laingsburg Community Schools,Shiawassee County,205 SOUTH WOODHULL RD,LAINGSBURG,MI,48848,9331,(517)651-2705,1139.00000,68.51000,3.00000,42,Rural: Distant,16.63000000,Regular Local,Open
2620610,MI-57020,Lake City Area School District,Missaukee County,PO Box 900,Lake City,MI,49651,0900,(231)839-4333,1171.00000,73.88000,3.00000,42,Rural: Distant,15.85000000,Regular Local,Open
2620670,MI-25200,Lake Fenton Community Schools,Genesee County,11425 TORREY RD,FENTON,MI,48430,9622,(810)591-2532,2005.00000,111.09000,4.00000,41,Rural: Fringe,18.05000000,Regular Local,Open
2620700,MI-31130,Lake Linden-Hubbell School District,Houghton County,601 CALUMET ST,LAKE LINDEN,MI,49945,1002,(906)296-6211,376.00000,25.60000,1.00000,33,Town: Remote,14.69000000,Regular Local,Open
2620730,MI-63230,Lake Orion Community Schools,Oakland County,315 NORTH LAPEER ST,LAKE ORION,MI,48362,3165,(248)693-5404,6831.00000,446.11000,13.00000,21,Suburb: Large,15.31000000,Regular Local,Open
2632670,MI-50120,Lake Shore Public Schools (Macomb),Macomb County,28850 HARPER AVE,SAINT CLAIR SHORES,MI,48081,1249,(586)285-8480,3239.00000,177.68000,6.00000,21,Suburb: Large,18.23000000,Regular Local,Open
2601093,MI-17900,Lake Superior Academy,Chippewa County,8936 S MACKINAC TRL,SAULT S MARIE,MI,49783,8903,(906)259-1168,85.00000,4.48000,1.00000,42,Rural: Distant,18.97000000,Charter,Open
2620820,MI-11030,Lakeshore School District (Berrien),Berrien County,5771 CLEVELAND AVE,STEVENSVILLE,MI,49127,9481,(269)428-1400,2688.00000,158.16000,5.00000,23,Suburb: Small,17.00000000,Regular Local,Open
2620910,MI-59090,Lakeview Community Schools (Montcalm),Montcalm County,602 WASHINGTON ST,LAKEVIEW,MI,48850,,(989)352-6226,1037.00000,62.80000,3.00000,42,Rural: Distant,16.51000000,Regular Local,Open
2620880,MI-50130,Lakeview Public Schools (Macomb),Macomb County,27575 Harper Ave,SAINT CLAIR SHORES,MI,48081,2181,(586)445-4000,4287.00000,214.24000,7.00000,21,Suburb: Large,20.01000000,Regular Local,Open
2620850,MI-13090,Lakeview Sch. District (Calhoun),Calhoun County,15 ARBOR ST,BATTLE CREEK,MI,49015,2903,(269)565-2400,3988.00000,228.03000,7.00000,13,City: Small,17.49000000,Regular Local,Open
2620940,MI-25280,LakeVille Community School District,Genesee County,11107 WASHBURN RD,OTISVILLE,MI,48463,9630,(810)591-3980,1071.00000,62.76000,3.00000,42,Rural: Distant,17.07000000,Regular Local,Open
2620980,MI-34090,Lakewood Public Schools,Barry County,223 W BROADWAY ST,WOODLAND,MI,48897,9798,(616)374-8043,1653.00000,83.06000,4.00000,42,Rural: Distant,19.90000000,Regular Local,Open
2621120,MI-63280,Lamphere Public Schools,Oakland County,31201 DORCHESTER AVE,MADISON HEIGHTS,MI,48071,1075,(248)589-1990,2341.00000,152.11000,7.00000,21,Suburb: Large,15.39000000,Regular Local,Open
2600220,MI-74903,Landmark Academy,St. Clair County,4800 LAPEER RD,KIMBALL,MI,48074,1517,(810)982-7210,850.00000,47.90000,1.00000,23,Suburb: Small,17.75000000,Charter,Open
2600959,MI-33910,Lansing Charter Academy,Ingham County,3300 EXPRESS CT,LANSING,MI,48910,4370,(517)882-9585,451.00000,27.05000,1.00000,12,City: Midsize,16.67000000,Charter,Open
2621150,MI-33020,Lansing Public School District,Ingham County,519 WEST KALAMAZOO ST,LANSING,MI,48933,2008,(517)755-1010,10023.00000,587.89000,26.00000,12,City: Midsize,17.05000000,Regular Local,Open
2621180,MI-44010,Lapeer Community Schools,Lapeer County,250 2ND ST,LAPEER,MI,48446,1445,(810)667-2401,4386.00000,233.15000,8.00000,31,Town: Fringe,18.81000000,Regular Local,Open
2680660,MI-44000,Lapeer ISD,Lapeer County,1996 WEST OREGON ST,LAPEER,MI,48446,1121,(810)664-5917,242.00000,38.35000,2.00000,42,Rural: Distant,6.31000000,Specialized,Open
2600296,MI-63918,Laurus Academy,Oakland County,24590 LAHSER RD,SOUTHFIELD,MI,48033,6040,(248)799-8401,749.00000,45.01000,1.00000,13,City: Small,16.64000000,Charter,Open
2621210,MI-80130,Lawrence Public Schools,Van Buren County,650 WEST SAINT JOSEPH ST,LAWRENCE,MI,49064,9323,(269)674-8233,419.00000,28.60000,2.00000,42,Rural: Distant,14.65000000,Regular Local,Open
2621240,MI-80140,Lawton Community School District,Van Buren County,101 Primary Way,Lawton,MI,49065,,(269)624-7901,1050.00000,63.00000,4.00000,41,Rural: Fringe,16.67000000,Regular Local,Open
2600970,MI-45901,Leelanau Montessori Public School Academy,Leelanau County,7401 E Duck Lake Road,Lake Leelanau,MI,49653,,(231)994-2074,74.00000,6.00000,1.00000,42,Rural: Distant,12.33000000,Charter,Open
2600979,MI-82723,Legacy Charter Academy,Wayne County,4900 E HILDALE ST,DETROIT,MI,48234,2225,(877)223-6402,739.00000,40.51000,1.00000,11,City: Large,18.24000000,Charter,Open
2621390,MI-45020,Leland Public School District,Leelanau County,PO Box 498,Leland,MI,49654,0498,(231)256-9857,450.00000,32.00000,1.00000,42,Rural: Distant,14.06000000,Regular Local,Open
2680680,MI-46000,Lenawee ISD,Lenawee County,4107 NORTH ADRIAN HWY,ADRIAN,MI,49221,8313,(517)265-1627,462.00000,76.74000,4.00000,32,Town: Distant,6.02000000,Specialized,Open
2621420,MI-49040,Les Cheneaux Community Schools,Mackinac County,PO Box 366,Cedarville,MI,49719,0366,(906)484-2256,227.00000,16.22000,1.00000,43,Rural: Remote,14.00000000,Regular Local,Open
2621450,MI-33100,Leslie Public Schools,Ingham County,4141 HULL RD,LESLIE,MI,49251,9583,(517)589-8200,1100.00000,71.94000,4.00000,41,Rural: Fringe,15.29000000,Regular Local,Open
2601058,MI-23900,LifeTech Academy,Eaton County,854 ELMWOOD RD,LANSING,MI,48917,2070,(517)325-5469,400.00000,8.08000,1.00000,21,Suburb: Large,49.50000000,Charter,Open
2601096,MI-47900,Light of the World Academy,Livingston County,550 E Hamburg,Pinckney,MI,48169,,(734)720-9760,246.00000,17.10000,1.00000,22,Suburb: Midsize,14.39000000,Charter,Open
2600949,MI-41922,Lighthouse Academy,Kent County,3300 36TH ST SE,Grand Rapids,MI,49512,,(616)949-2287,344.00000,31.72000,8.00000,13,City: Small,10.84000000,Charter,Open
2601118,MI-63939,Lighthouse Connections Academy,Oakland County,3150 LIVERNOIS RD,TROY,MI,48083,5000,(810)447-0893,2454.00000,80.23000,1.00000,13,City: Small,30.59000000,Charter,Open
2621570,MI-81070,Lincoln Consolidated School District,Washtenaw County,7425 WILLIS RD,YPSILANTI,MI,48197,8919,(734)484-7001,3566.00000,190.76000,6.00000,41,Rural: Fringe,18.69000000,Regular Local,Open
2621600,MI-82090,Lincoln Park School District of the City of,Wayne County,1650 CHAMPAIGN RD,LINCOLN PARK,MI,48146,3202,(313)389-0200,4864.00000,306.60000,11.00000,21,Suburb: Large,15.86000000,Regular Local,Open
2601139,MI-82773,Lincoln-King Adams-Young Academy,Oakland County,306 E Fourth Street,Royal Oak,MI,48067,,(734)716-7193,1262.00000,41.00000,3.00000,11,City: Large,30.78000000,Charter,Open
2600197,MI-25907,Linden Charter Academy,Genesee County,3244 N LINDEN RD,FLINT,MI,48504,1753,(810)720-0515,791.00000,36.05000,1.00000,21,Suburb: Large,21.94000000,Charter,Open
2621690,MI-25250,Linden Community Schools,Genesee County,7205 SILVER LAKE RD,LINDEN,MI,48451,8710,(810)591-0980,2468.00000,133.86000,5.00000,21,Suburb: Large,18.44000000,Regular Local,Open
2621750,MI-30040,Litchfield Community Schools,Hillsdale County,210 WILLIAMS ST,LITCHFIELD,MI,49252,9641,(517)542-2388,251.00000,16.69000,2.00000,42,Rural: Distant,15.04000000,Regular Local,Open
2601108,MI-81913,Livingston Classical Academy,Washtenaw County,8877 Main Street,Whitmore Lake,MI,48189,,(734)449-2052,265.00000,24.59000,1.00000,22,Suburb: Midsize,10.78000000,Charter,Open
2680700,MI-47000,Livingston ESA,Livingston County,1425 WEST GRAND RIVER AVE,HOWELL,MI,48843,1916,(517)540-6801,571.00000,48.20000,2.00000,22,Suburb: Midsize,11.85000000,Specialized,Open
2621840,MI-82095,Livonia Public Schools School District,Wayne County,15125 FARMINGTON RD,LIVONIA,MI,48154,5413,(734)744-2525,13228.00000,834.35000,26.00000,13,City: Small,15.85000000,Regular Local,Open
2622050,MI-41170,Lowell Area Schools,Kent County,300 HIGH ST,LOWELL,MI,49331,1478,(616)987-2500,3498.00000,198.60000,7.00000,41,Rural: Fringe,17.61000000,Regular Local,Open
2622200,MI-53040,Ludington Area School District,Mason County,809 EAST TINKHAM AVE,LUDINGTON,MI,49431,1536,(231)845-7303,2072.00000,116.52000,3.00000,33,Town: Remote,17.78000000,Regular Local,Open
2601033,MI-82747,MacDowell Preparatory Academy,Wayne County,4201 West Outer Drive,Detroit,MI,48226,,(313)494-8141,368.00000,21.00000,1.00000,11,City: Large,17.52000000,Charter,Open
2622230,MI-49110,Mackinac Island Public Schools,Mackinac County,PO Box 340,Mackinac Island,MI,49757,0340,(906)847-3377,58.00000,7.71000,1.00000,42,Rural: Distant,7.52000000,Regular Local,Open
2622260,MI-16070,Mackinaw City Public Schools,Emmet County,609 WEST CENTRAL AVE,MACKINAW CITY,MI,49701,9650,(231)436-8211,143.00000,16.21000,1.00000,42,Rural: Distant,8.82000000,Regular Local,Open
2600101,MI-50901,Macomb Academy,Macomb County,39092 GARFIELD RD,CLINTON TOWNSHIP,MI,48038,4094,(586)228-2201,44.00000,3.00000,1.00000,21,Suburb: Large,14.67000000,Charter,Open
2680720,MI-50000,Macomb ISD,Macomb County,44001 GARFIELD RD,CLINTON TOWNSHIP,MI,48038,1100,(586)228-3300,3882.00000,226.10000,8.00000,21,Suburb: Large,17.17000000,Specialized,Open
2601035,MI-50914,Macomb Montessori Academy,Macomb County,14057 East Nine Mile Road,Warren,MI,48089,,(586)359-2138,248.00000,8.50000,1.00000,12,City: Midsize,29.18000000,Charter,Open
2600317,MI-25911,Madison Academy,Genesee County,6170 TORREY RD,FLINT,MI,48507,5954,(810)655-2949,541.00000,64.85000,2.00000,41,Rural: Fringe,8.34000000,Charter,Open
2622290,MI-63140,Madison District Public Schools,Oakland County,26524 JOHN R RD,MADISON HEIGHTS,MI,48071,3612,(248)399-7800,914.00000,67.80000,5.00000,21,Suburb: Large,13.48000000,Regular Local,Open
2622320,MI-46090,Madison School District (Lenawee),Lenawee County,3498 TREAT HWY,ADRIAN,MI,49221,9763,(517)263-0741,1644.00000,92.53000,3.00000,32,Town: Distant,17.77000000,Regular Local,Open
2601008,MI-82742,Madison-Carver Academy,Wayne County,19900 MCINTYRE ST,DETROIT,MI,48219,1263,(734)716-7193,421.00000,15.00000,1.00000,11,City: Large,28.07000000,Charter,Open
2622350,MI-05070,Mancelona Public Schools,Antrim County,112 ST JOHNS AVE,MANCELONA,MI,49659,9602,(231)587-9764,863.00000,46.10000,3.00000,43,Rural: Remote,18.72000000,Regular Local,Open
2622380,MI-81080,Manchester Community Schools,Washtenaw County,710 E MAIN ST,MANCHESTER,MI,48158,9588,(734)428-9711,778.00000,47.94000,3.00000,42,Rural: Distant,16.23000000,Regular Local,Open
2622410,MI-51070,Manistee Area Public Schools,Manistee County,550 MAPLE ST,MANISTEE,MI,49660,1896,(231)723-3521,1225.00000,68.77000,3.00000,33,Town: Remote,17.81000000,Regular Local,Open
2680740,MI-51000,Manistee ISD,Manistee County,772 EAST PARKDALE AVE,MANISTEE,MI,49660,9110,(231)723-4264,109.00000,8.25000,1.00000,41,Rural: Fringe,13.21000000,Specialized,Open
2622470,MI-77010,Manistique Area Schools,Schoolcraft County,100 NORTH CEDAR ST,MANISTIQUE,MI,49854,1248,(906)252-4330,721.00000,41.51000,3.00000,33,Town: Remote,17.37000000,Regular Local,Open
2622500,MI-83060,Manton Consolidated Schools,Wexford County,105 5TH ST,MANTON,MI,49663,9473,(231)824-6411,956.00000,59.92000,3.00000,42,Rural: Distant,15.95000000,Regular Local,Open
2622620,MI-23065,Maple Valley Schools,Eaton County,11090 NASHVILLE HWY,VERMONTVILLE,MI,49096,8578,(517)852-9699,912.00000,58.21000,4.00000,42,Rural: Distant,15.67000000,Regular Local,Open
2622830,MI-13095,Mar Lee School District,Calhoun County,21236 H DR N,MARSHALL,MI,49068,9319,(269)781-5412,305.00000,21.79000,1.00000,42,Rural: Distant,14.00000000,Regular Local,Open
2622740,MI-14050,Marcellus Community Schools,Cass County,PO Box 48,Marcellus,MI,49067,0048,(269)646-7655,628.00000,37.43000,4.00000,42,Rural: Distant,16.78000000,Regular Local,Open
2622800,MI-67050,Marion Public Schools,Osceola County,PO Box 0,Marion,MI,49665,0715,(231)743-2486,419.00000,25.05000,2.00000,43,Rural: Remote,16.73000000,Regular Local,Open
2622860,MI-76140,Marlette Community Schools,Sanilac County,6230 Euclid St,Marlette,MI,48453,,(989)635-7429,716.00000,41.63000,2.00000,43,Rural: Remote,17.20000000,Regular Local,Open
2600013,MI-52170,Marquette Area Public Schools,Marquette County,1201 WEST FAIR AVE,MARQUETTE,MI,49855,2668,(906)225-5326,3230.00000,192.31000,7.00000,33,Town: Remote,16.80000000,Regular Local,Open
2680750,MI-52000,Marquette-Alger Regional Education Service Agency,Marquette County,321 EAST OHIO ST,MARQUETTE,MI,49855,3847,(906)226-5102,139.00000,6.32000,1.00000,33,Town: Remote,21.99000000,Specialized,Open
2600250,MI-13903,Marshall Academy,Calhoun County,18203 HOMER RD,MARSHALL,MI,49068,8718,(269)781-6330,272.00000,15.72000,1.00000,41,Rural: Fringe,17.30000000,Charter,Open
2622970,MI-13110,Marshall Public Schools,Calhoun County,100 EAST GREEN ST,MARSHALL,MI,49068,1533,(269)781-1250,2641.00000,158.58000,8.00000,31,Town: Fringe,16.65000000,Regular Local,Open
2600131,MI-82910,Martin Luther King Jr. Education Center Academy,Wayne County,16827 APPOLINE ST,DETROIT,MI,48235,4205,(313)341-4944,380.00000,9.00000,1.00000,11,City: Large,42.22000000,Charter,Open
2622980,MI-03060,Martin Public Schools,Allegan County,1556 CHALMERS,MARTIN,MI,49070,9762,(269)442-0500,614.00000,41.30000,2.00000,42,Rural: Distant,14.87000000,Regular Local,Open
2623040,MI-74100,Marysville Public Schools,St. Clair County,495 East Huron Blvd,MARYSVILLE,MI,48040,1566,(810)364-7731,2655.00000,132.03000,5.00000,23,Suburb: Small,20.11000000,Regular Local,Open
2623100,MI-58090,Mason Consolidated Schools (Monroe),Monroe County,2400 MASON EAGLE DR,ERIE,MI,48133,9373,(734)848-9304,1028.00000,59.74000,4.00000,41,Rural: Fringe,17.21000000,Regular Local,Open
2623130,MI-53010,Mason County Central Schools,Mason County,300 WEST BROADWAY AVE,SCOTTVILLE,MI,49454,1019,(231)757-3713,1260.00000,68.36000,5.00000,42,Rural: Distant,18.43000000,Regular Local,Open
2623160,MI-53020,Mason County Eastern Schools,Mason County,18 SOUTH MAIN ST,CUSTER,MI,49405,9624,(231)757-3733,382.00000,22.59000,2.00000,42,Rural: Distant,16.91000000,Regular Local,Open
2623070,MI-33130,Mason Public Schools (Ingham),Ingham County,201 W ASH ST,MASON,MI,48854,1513,(517)676-2484,3261.00000,188.48000,6.00000,21,Suburb: Large,17.30000000,Regular Local,Open
2623250,MI-80150,Mattawan Consolidated School,Van Buren County,56720 MURRAY ST,MATTAWAN,MI,49071,8902,(269)668-3361,3610.00000,200.48000,5.00000,22,Suburb: Midsize,18.01000000,Regular Local,Open
2623280,MI-79090,Mayville Community School District,Tuscola County,6250 FULTON ST,MAYVILLE,MI,48744,9103,(989)843-6115,567.00000,31.66000,2.00000,42,Rural: Distant,17.91000000,Regular Local,Open
2623310,MI-57030,McBain Rural Agricultural Schools,Missaukee County,107 EAST MAPLE ST,MC BAIN,MI,49657,9672,(231)825-2165,1037.00000,59.01000,3.00000,42,Rural: Distant,17.57000000,Regular Local,Open
2680770,MI-54000,Mecosta-Osceola ISD,Mecosta County,15760 190TH AVE,BIG RAPIDS,MI,49307,9096,(231)796-3543,393.00000,47.80000,3.00000,32,Town: Distant,8.22000000,Specialized,Open
2623460,MI-82045,Melvindale-Northern Allen Park Schools,Wayne County,18530 PROSPECT ST,MELVINDALE,MI,48122,1508,(313)389-3300,2956.00000,149.00000,4.00000,21,Suburb: Large,19.84000000,Regular Local,Open
2623490,MI-74120,Memphis Community Schools,Macomb County,PO Box 201,Memphis,MI,48041,0201,(810)535-8225,738.00000,48.98000,2.00000,42,Rural: Distant,15.07000000,Regular Local,Open
2623520,MI-75060,Mendon Community School District,St. Joseph County,148 KIRBY RD,MENDON,MI,49072,9609,(269)496-8491,455.00000,31.50000,2.00000,42,Rural: Distant,14.44000000,Regular Local,Open
2623550,MI-55100,Menominee Area Public Schools,Menominee County,1230 13TH ST,MENOMINEE,MI,49858,2763,(906)863-4466,1147.00000,75.66000,4.00000,32,Town: Distant,15.16000000,Regular Local,Open
2680790,MI-55000,Menominee ISD,Menominee County,1201 41ST AVE,MENOMINEE,MI,49858,1102,(906)863-5665,83.00000,8.00000,1.00000,32,Town: Distant,10.38000000,Specialized,Open
2623580,MI-56050,Meridian Public Schools,Midland County,3361 NORTH MERIDIAN RD,SANFORD,MI,48657,9161,(989)687-3200,1347.00000,82.38000,3.00000,41,Rural: Fringe,16.35000000,Regular Local,Open
2623610,MI-73230,Merrill Community Schools,Saginaw County,555 WEST ALICE ST,MERRILL,MI,48637,8757,(989)643-7261,522.00000,35.10000,3.00000,42,Rural: Distant,14.87000000,Regular Local,Open
2600281,MI-50906,Merritt Academy,Macomb County,59900 HAVENRIDGE RD,NEW HAVEN,MI,48048,1915,(586)749-6000,551.00000,63.35000,1.00000,41,Rural: Fringe,8.70000000,Charter,Open
2623670,MI-83070,Mesick Consolidated Schools,Wexford County,PO Box 275,Mesick,MI,49668,0275,(231)885-1200,563.00000,35.83000,2.00000,43,Rural: Remote,15.71000000,Regular Local,Open
2600262,MI-82967,Metro Charter Academy,Wayne County,34800 ECORSE RD,ROMULUS,MI,48174,1642,(734)641-3200,559.00000,32.04000,1.00000,21,Suburb: Large,17.45000000,Charter,Open
2623790,MI-38120,Michigan Center School District,Jackson County,400 S STATE ST,MICHIGAN CENTER,MI,49254,1237,(517)764-5778,1316.00000,74.47000,3.00000,23,Suburb: Small,17.67000000,Regular Local,Open
2600210,MI-50902,Michigan Collegiate,Macomb County,16911 EASTLAND ST,ROSEVILLE,MI,48066,2078,(586)779-8055,875.00000,43.44000,2.00000,12,City: Midsize,20.14000000,Charter,Open
2600969,MI-33911,Michigan Connections Academy,Ingham County,3950 HERITAGE AVE STE 100,OKEMOS,MI,48864,3344,(517)507-5390,1656.00000,73.54000,1.00000,21,Suburb: Large,22.52000000,Charter,Open
2600960,MI-84040,Michigan Department of Community Health,Ingham County,201 TOWNSEND ST,LANSING,MI,48913,0001,(517)335-0267,0.00000,0.00000,5.00000,21,Suburb: Large,†,State,Open
2600001,MI-84020,Michigan Department of Corrections,Ingham County,PO Box 30003,Lansing,MI,48909,7503,(517)373-0720,44.00000,0.00000,25.00000,32,Town: Distant,†,State,Open
2600004,MI-84010,Michigan Department of Human Services,Ingham County,PO Box 30037,Lansing,MI,48909,7537,(517)373-2000,41.00000,0.00000,2.00000,41,Rural: Fringe,†,State,Open
2601010,MI-82751,Michigan Educational Choice Center,Wayne County,20045 JOANN ST,DETROIT,MI,48205,1136,(313)314-3730,255.00000,16.00000,1.00000,11,City: Large,15.94000000,Charter,Open
2601070,MI-51905,Michigan Great Lakes Virtual Academy,Manistee County,50 FILER ST,MANISTEE,MI,49660,2727,(231)794-5999,3389.00000,187.77000,1.00000,33,Town: Remote,18.05000000,Charter,Open
2601114,MI-19900,Michigan International Prep School,Clinton County,8989 E Colony Road,Elsie,MI,48331,,(248)289-5521,1206.00000,46.45000,1.00000,42,Rural: Distant,25.96000000,Charter,Open
2600967,MI-63924,Michigan Mathematics and Science Academy,Macomb County,27300 Dequindre Road,Warren,MI,48092,,(586)353-2108,741.00000,58.00000,2.00000,12,City: Midsize,12.78000000,Charter,Open
2601112,MI-80900,Michigan Online School,Van Buren County,209 S STATE ST,GOBLES,MI,49055,9405,(269)216-6972,925.00000,38.00000,1.00000,42,Rural: Distant,24.34000000,Charter,Open
2600280,MI-84050,Michigan School for the Deaf,Genesee County,1235 W COURT ST,FLINT,MI,48503,5015,(810)257-1467,0.00000,20.00000,1.00000,13,City: Small,†,State,Open
2600972,MI-41925,Michigan Virtual Charter Academy,Oakland County,1620 E ELZA AVE,HAZEL PARK,MI,48030,2358,(616)309-1601,2895.00000,160.29000,1.00000,21,Suburb: Large,18.06000000,Charter,Open
2623830,MI-21135,Mid Peninsula School District,Delta County,5055 SAINT NICHOLAS 31ST RD,ROCK,MI,49880,9477,(906)359-4387,191.00000,14.55000,1.00000,42,Rural: Distant,13.13000000,Regular Local,Open
2600082,MI-33904,Mid-Michigan Leadership Academy,Ingham County,730 WEST MAPLE ST,LANSING,MI,48906,5086,(517)485-5379,348.00000,23.00000,1.00000,12,City: Midsize,15.13000000,Charter,Open
2680800,MI-56000,Midland County Educational Service Agency,Midland County,3917 JEFFERSON AVE,MIDLAND,MI,48640,3582,(989)631-5890,838.00000,35.84000,1.00000,13,City: Small,23.38000000,Specialized,Open
2623820,MI-56010,Midland Public Schools,Midland County,600 EAST CARPENTER ST,MIDLAND,MI,48640,5417,(989)923-5001,7436.00000,430.54000,13.00000,13,City: Small,17.27000000,Regular Local,Open
2623850,MI-81100,Milan Area Schools,Monroe County,100 BIG RED DR,MILAN,MI,48160,1582,(734)439-5050,1918.00000,122.65000,6.00000,41,Rural: Fringe,15.64000000,Regular Local,Open
2600297,MI-11904,Mildred C. Wells Preparatory Academy,Berrien County,248 9TH ST,BENTON HARBOR,MI,49022,4723,(269)926-2885,217.00000,7.70000,1.00000,23,Suburb: Small,28.18000000,Charter,Open
2623910,MI-79100,Millington Community Schools,Tuscola County,8664 DEAN DR,MILLINGTON,MI,48746,9694,(989)660-2451,1117.00000,58.73000,5.00000,42,Rural: Distant,19.02000000,Regular Local,Open
2624000,MI-68010,Mio-AuSable Schools,Oscoda County,1110 WEST 8TH ST,MIO,MI,48647,9140,(989)826-2404,496.00000,28.80000,2.00000,43,Rural: Remote,17.22000000,Regular Local,Open
2601045,MI-63928,Momentum Academy,Oakland County,60 S LYNN AVE,WATERFORD,MI,48328,3823,(248)682-5000,213.00000,14.00000,1.00000,21,Suburb: Large,15.21000000,Charter,Open
2624120,MI-61060,Mona Shores Public School District,Muskegon County,121 Randall Road,Norton Shores,MI,49441,,(231)332-8201,3876.00000,234.21000,6.00000,22,Suburb: Midsize,16.55000000,Regular Local,Open
2680820,MI-58000,Monroe ISD,Monroe County,1101 SOUTH RAISINVILLE RD,MONROE,MI,48161,9047,(734)322-2610,1176.00000,141.57000,4.00000,41,Rural: Fringe,8.31000000,Specialized,Open
2624150,MI-58010,Monroe Public Schools,Monroe County,PO Box 733,Monroe,MI,48162,0733,(734)265-3070,4614.00000,250.58000,8.00000,23,Suburb: Small,18.41000000,Regular Local,Open
2612960,MI-59045,Montabella Community Schools,Montcalm County,1390 E NORTH COUNTY LINE RD,BLANCHARD,MI,49310,9303,(989)427-5148,754.00000,52.13000,2.00000,43,Rural: Remote,14.46000000,Regular Local,Open
2624180,MI-61180,Montague Area Public Schools,Muskegon County,4855 EILERS RD,MONTAGUE,MI,49437,9159,(231)893-1515,1353.00000,85.99000,4.00000,41,Rural: Fringe,15.73000000,Regular Local,Open
2680830,MI-59000,Montcalm Area ISD,Montcalm County,621 NORTH NEW ST,STANTON,MI,48888,9459,(989)831-5261,464.00000,62.78000,5.00000,32,Town: Distant,7.39000000,Specialized,Open
2624420,MI-25260,Montrose Community Schools,Genesee County,PO Box 3129,Montrose,MI,48457,0829,(810)591-8811,1466.00000,85.60000,4.00000,41,Rural: Fringe,17.13000000,Regular Local,Open
2624540,MI-49070,Moran Township School District,Mackinac County,W1828 GROS CAP RD,SAINT IGNACE,MI,49781,9699,(906)643-7970,89.00000,7.26000,1.00000,42,Rural: Distant,12.26000000,Regular Local,Open
2624570,MI-46100,Morenci Area Schools,Lenawee County,788 COOMER ST,MORENCI,MI,49256,9501,(517)458-7501,535.00000,35.87000,2.00000,42,Rural: Distant,14.91000000,Regular Local,Open
2624600,MI-54040,Morley Stanwood Community Schools,Mecosta County,4700 NORTHLAND DR,MORLEY,MI,49336,9522,(231)856-4392,1065.00000,59.30000,3.00000,42,Rural: Distant,17.96000000,Regular Local,Open
2624630,MI-78060,Morrice Area Schools,Shiawassee County,111 EAST MASON,MORRICE,MI,48857,9695,(517)625-3142,481.00000,33.34000,2.00000,41,Rural: Fringe,14.43000000,Regular Local,Open
2624690,MI-50160,Mount Clemens Community School District,Macomb County,167 CASS AVE,MOUNT CLEMENS,MI,48043,2203,(586)461-3776,753.00000,46.32000,3.00000,21,Suburb: Large,16.26000000,Regular Local,Open
2600283,MI-50908,Mt. Clemens Montessori Academy,Macomb County,1070 HAMPTON RD,MOUNT CLEMENS,MI,48043,2955,(586)465-5545,269.00000,14.60000,1.00000,21,Suburb: Large,18.42000000,Charter,Open
2624720,MI-25040,Mt. Morris Consolidated Schools,Genesee County,12356 WALTER ST,MOUNT MORRIS,MI,48458,1749,(810)591-8760,1555.00000,85.43000,9.00000,21,Suburb: Large,18.20000000,Regular Local,Open
2624750,MI-37010,Mt. Pleasant City School District,Isabella County,720 NORTH KINNEY AVE,MOUNT PLEASANT,MI,48858,1757,(989)775-2301,3378.00000,234.00000,10.00000,32,Town: Distant,14.44000000,Regular Local,Open
2600315,MI-81908,Multicultural Academy,Washtenaw County,5550 PLATT RD,ANN ARBOR,MI,48108,9762,(734)677-0732,191.00000,14.65000,1.00000,21,Suburb: Large,13.04000000,Charter,Open
2624810,MI-02070,Munising Public Schools,Alger County,810 State Highway M28 West,Munising,MI,49862,1609,(906)387-2251,570.00000,39.05000,2.00000,33,Town: Remote,14.60000000,Regular Local,Open
2680850,MI-61000,Muskegon Area ISD,Muskegon County,630 HARVEY ST,MUSKEGON,MI,49442,4278,(231)767-7229,1534.00000,106.10000,3.00000,13,City: Small,14.46000000,Specialized,Open
2601088,MI-61906,Muskegon Covenant Academy,Muskegon County,125 CATHERINE AVE,MUSKEGON,MI,49442,3331,(231)720-3100,154.00000,5.50000,1.00000,13,City: Small,28.00000000,Charter,Open
2601029,MI-61905,Muskegon Heights Public School Academy System,Muskegon County,2441 Sanford Street,Muskegon Heights,MI,49444,,(231)830-3732,625.00000,21.00000,3.00000,22,Suburb: Midsize,29.76000000,Charter,Open
2680996,MI-61907,Muskegon Maritime Academy,Muskegon County,571 E APPLE AVE,MUSKEGON,MI,49442,3643,(231)903-5523,53.00000,4.00000,1.00000,13,City: Small,13.25000000,Charter,Open
2601067,MI-61900,Muskegon Montessori Academy for Environmental Change,Muskegon County,2950 MCCRACKEN ST,NORTON SHORES,MI,49441,3623,(231)766-7500,166.00000,7.50000,1.00000,22,Suburb: Midsize,22.13000000,Charter,Open
2624840,MI-61010,Muskegon Public Schools of the City of,Muskegon County,1458 5TH ST,MUSKEGON,MI,49441,,(231)720-2000,3353.00000,177.97000,7.00000,13,City: Small,18.84000000,Regular Local,Open
2600103,MI-55901,Nah Tah Wahsh Public School Academy,Menominee County,N14911 HANNAHVILLE ROAD B 1,WILSON,MI,49896,9612,(906)466-2952,185.00000,20.00000,1.00000,43,Rural: Remote,9.25000000,Charter,Open
2624960,MI-38130,Napoleon Community Schools,Jackson County,PO Box 308,Napoleon,MI,49261,0308,(517)905-5705,1320.00000,67.30000,4.00000,41,Rural: Fringe,19.61000000,Regular Local,Open
2625020,MI-52090,Negaunee Public Schools,Marquette County,101 SOUTH PIONEER AVE,NEGAUNEE,MI,49866,1609,(906)475-4157,1552.00000,90.42000,3.00000,33,Town: Remote,17.16000000,Regular Local,Open
2600213,MI-58901,New Bedford Academy,Monroe County,6315 SECOR RD,LAMBERTVILLE,MI,48144,9411,(734)744-8464,83.00000,5.00000,1.00000,21,Suburb: Large,16.60000000,Charter,Open
2600090,MI-41901,New Branches Charter Academy,Kent County,3662 Poinsettia Ave SE,Grand Rapids,MI,49508,5546,(616)243-6221,358.00000,22.20000,1.00000,12,City: Midsize,16.13000000,Charter,Open
2625140,MI-11200,New Buffalo Area Schools,Berrien County,PO Box 280,NEW BUFFALO,MI,49117,1540,(269)469-6010,536.00000,50.30000,3.00000,41,Rural: Fringe,10.66000000,Regular Local,Open
2601135,MI-50920,New Dawn Academy of Warren,Macomb County,8200 IRVING RD,STERLING HTS,MI,48312,4621,(855)800-7836,76.00000,5.74000,1.00000,21,Suburb: Large,13.24000000,Charter,Open
2625230,MI-50170,New Haven Community Schools,Macomb County,PO Box 482000,New Haven,MI,48048,2000,(586)749-5123,1442.00000,81.70000,4.00000,21,Suburb: Large,17.65000000,Regular Local,Open
2625290,MI-78070,New Lothrop Area Public Schools,Shiawassee County,PO Box 339,New Lothrop,MI,48460,0339,(810)638-5091,877.00000,49.04000,2.00000,41,Rural: Fringe,17.88000000,Regular Local,Open
2601075,MI-82713,New Paradigm College Prep,Wayne County,4001 29TH ST,DETROIT,MI,48210,2601,(313)852-1500,196.00000,5.00000,1.00000,11,City: Large,39.20000000,Charter,Open
2600998,MI-82735,New Paradigm Glazer-Loving Academy,Wayne County,1000 LYNN ST,DETROIT,MI,48211,1081,(313)833-1100,245.00000,2.00000,1.00000,11,City: Large,122.50000000,Charter,Open
2680860,MI-62000,Newaygo County RESA,Newaygo County,4747 WEST 48TH ST,FREMONT,MI,49412,7205,(231)924-0381,434.00000,60.61000,2.00000,41,Rural: Fringe,7.16000000,Specialized,Open
2625320,MI-62070,Newaygo Public School District,Newaygo County,360 S Mill Street,Newaygo,MI,49337,0820,(231)652-6984,1536.00000,84.95000,3.00000,32,Town: Distant,18.08000000,Regular Local,Open
2601017,MI-41929,NexTech High School,Kent County,801 BROADWAY AVE NORTHWEST STE 225,GRAND RAPIDS,MI,49504,4464,(616)458-4992,140.00000,6.00000,1.00000,12,City: Midsize,23.33000000,Charter,Open
2625400,MI-52015,NICE Community School District,Marquette County,300 SOUTH WESTWOOD DR,ISHPEMING,MI,49849,2922,(906)485-1021,1156.00000,74.60000,2.00000,41,Rural: Fringe,15.50000000,Regular Local,Open
2625560,MI-11300,Niles Community Schools,Berrien County,1 TYLER ST,NILES,MI,49120,3784,(269)683-0732,3303.00000,167.01000,11.00000,13,City: Small,19.78000000,Regular Local,Open
2600995,MI-50913,Noor International Academy,Macomb County,37412 DEQUINDRE RD,STERLING HEIGHTS,MI,48310,3503,(313)565-0507,160.00000,10.83000,1.00000,21,Suburb: Large,14.77000000,Charter,Open
2625650,MI-30050,North Adams-Jerome Public Schools,Hillsdale County,4555 KNOWLES RD,NORTH ADAMS,MI,49262,9709,(517)689-1701,376.00000,25.20000,2.00000,42,Rural: Distant,14.92000000,Regular Local,Open
2625680,MI-44090,North Branch Area Schools,Lapeer County,PO Box 3620,North Branch,MI,48461,,(810)688-3570,2382.00000,126.32000,4.00000,42,Rural: Distant,18.86000000,Regular Local,Open
2629220,MI-55115,North Central Area Schools,Menominee County,W5465 E 3RD ST,HERMANSVILLE,MI,49847,9604,(906)498-7737,326.00000,18.90000,3.00000,43,Rural: Remote,17.25000000,Regular Local,Open
2630480,MI-22045,North Dickinson County Schools,Dickinson County,W6588 STATE HIGHWAY M69,FELCH,MI,49831,8890,(906)542-9281,260.00000,15.72000,1.00000,43,Rural: Remote,16.54000000,Regular Local,Open
2625780,MI-32080,North Huron School District,Huron County,21 MAIN ST,KINDE,MI,48445,9760,(989)874-4100,318.00000,28.54000,1.00000,42,Rural: Distant,11.14000000,Regular Local,Open
2625800,MI-61230,North Muskegon Public Schools,Muskegon County,1600 MILLS AVE,MUSKEGON,MI,49445,3014,(231)719-4100,939.00000,59.41000,3.00000,22,Suburb: Midsize,15.81000000,Regular Local,Open
2600219,MI-73910,North Saginaw Charter Academy,Saginaw County,2332 TRAUTNER DR,SAGINAW,MI,48604,9593,(989)249-3105,561.00000,32.44000,1.00000,22,Suburb: Midsize,17.29000000,Charter,Open
2600153,MI-52901,North Star Montessori Academy,Marquette County,3030 WRIGHT ST,MARQUETTE,MI,49855,9649,(906)226-0156,190.00000,16.01000,1.00000,41,Rural: Fringe,11.87000000,Charter,Open
2625920,MI-45040,Northport Public School District,Leelanau County,104 S WING ST,Northport,MI,49670,9817,(231)386-5153,129.00000,17.42000,1.00000,43,Rural: Remote,7.41000000,Regular Local,Open
2600194,MI-25904,Northridge Academy,Genesee County,4100 Coldwater Road,FLINT,MI,48504,,(810)785-8811,225.00000,12.60000,1.00000,41,Rural: Fringe,17.86000000,Charter,Open
2625950,MI-41025,Northview Public Schools,Kent County,4365 HUNSBERGER AVE NE,GRAND RAPIDS,MI,49525,6128,(616)363-6861,3061.00000,190.41000,8.00000,21,Suburb: Large,16.08000000,Regular Local,Open
2625980,MI-82390,Northville Public Schools,Wayne County,405 W MAIN ST,NORTHVILLE,MI,48167,1577,(248)344-3508,7115.00000,384.77000,10.00000,21,Suburb: Large,18.49000000,Regular Local,Open
2626010,MI-38140,Northwest Community Schools,Jackson County,6900 RIVES JUNCTION RD,JACKSON,MI,49201,9404,(517)817-4721,3560.00000,201.90000,5.00000,23,Suburb: Small,17.63000000,Regular Local,Open
2680440,MI-28000,Northwest Education Services,Grand Traverse County,1101 RED DR,TRAVERSE CITY,MI,49684,4465,(231)922-6200,903.00000,182.37000,5.00000,33,Town: Remote,4.95000000,Specialized,Open
2626040,MI-22025,Norway-Vulcan Area Schools,Dickinson County,300 SECTION ST,NORWAY,MI,49870,1356,(906)563-9552,592.00000,32.67000,3.00000,41,Rural: Fringe,18.12000000,Regular Local,Open
2626100,MI-75100,Nottawa Community School,St. Joseph County,26438 M 86,STURGIS,MI,49091,9319,(269)467-7153,171.00000,12.20000,1.00000,42,Rural: Distant,14.02000000,Regular Local,Open
2626130,MI-63100,Novi Community School District,Oakland County,25345 TAFT RD,NOVI,MI,48374,2423,(248)449-1234,6655.00000,413.78000,10.00000,13,City: Small,16.08000000,Regular Local,Open
2626190,MI-63250,Oak Park School District of the City of,Oakland County,13900 GRANZON ST,OAK PARK,MI,48237,2756,(248)336-7706,3680.00000,187.89000,7.00000,21,Suburb: Large,19.59000000,Regular Local,Open
2600184,MI-39903,Oakland Academy,Kalamazoo County,6325 OAKLAND DR,PORTAGE,MI,49024,2589,(269)324-8951,163.00000,12.75000,1.00000,13,City: Small,12.78000000,Charter,Open
2601043,MI-63931,Oakland FlexTech High School,Oakland County,23801 Industrial Park Drive,Farmington Hills,MI,48335,,(248)426-8530,201.00000,12.80000,1.00000,13,City: Small,15.70000000,Charter,Open
2600217,MI-63912,Oakland International Academy,Wayne County,8228 Conant Street,DETROIT,MI,48211,1552,(248)327-7673,865.00000,44.00000,4.00000,11,City: Large,19.66000000,Charter,Open
2680880,MI-63000,Oakland Schools,Oakland County,2111 PONTIAC LAKE RD,WATERFORD,MI,48328,2736,(248)209-2000,2304.00000,99.70000,6.00000,21,Suburb: Large,23.11000000,Specialized,Open
2626220,MI-61065,Oakridge Public Schools,Muskegon County,275 SOUTH WOLF LAKE RD,MUSKEGON,MI,49442,3029,(231)788-7100,1880.00000,121.09000,5.00000,22,Suburb: Midsize,15.53000000,Regular Local,Open
2601068,MI-63909,Oakside Prep Academy,Oakland County,355 SUMMIT DR,WATERFORD,MI,48328,3366,(248)520-4255,1182.00000,68.25000,1.00000,21,Suburb: Large,17.32000000,Charter,Open
2600285,MI-17902,Ojibwe Charter School,Chippewa County,12099 W LAKESHORE DR,BRIMLEY,MI,49715,9318,(906)248-8600,144.00000,10.50000,1.00000,42,Rural: Distant,13.71000000,Charter,Open
2626280,MI-33170,Okemos Public Schools,Ingham County,4406 OKEMOS RD,OKEMOS,MI,48864,2553,(517)706-5007,4593.00000,280.04000,7.00000,21,Suburb: Large,16.40000000,Regular Local,Open
2601119,MI-28900,Old Mission Peninsula School,Grand Traverse County,2699 ISLAND VIEW RD,TRAVERSE CITY,MI,49686,9701,(231)252-0225,163.00000,13.50000,1.00000,42,Rural: Distant,12.07000000,Charter,Open
2600242,MI-82956,Old Redford Academy,Wayne County,17195 REDFORD ST,DETROIT,MI,48219,3259,(313)766-7615,987.00000,23.00000,3.00000,11,City: Large,42.91000000,Charter,Open
2626370,MI-23080,Olivet Community Schools,Eaton County,255 FIRST ST,OLIVET,MI,49076,9498,(269)749-9129,1265.00000,73.12000,3.00000,42,Rural: Distant,17.30000000,Regular Local,Open
2626400,MI-71050,Onaway Area Community School District,Presque Isle County,4549 M 33,ONAWAY,MI,49765,9623,(989)733-4950,541.00000,36.10000,3.00000,43,Rural: Remote,14.99000000,Regular Local,Open
2626430,MI-23490,Oneida Township S/D #3,Eaton County,8981 ONEIDA RD,GRAND LEDGE,MI,48837,7405,(517)541-8760,33.00000,3.00000,1.00000,41,Rural: Fringe,11.00000000,Regular Local,Open
2626490,MI-51060,Onekama Consolidated Schools,Manistee County,5016 MAIN ST,ONEKAMA,MI,49675,9701,(231)889-4251,304.00000,18.94000,1.00000,42,Rural: Distant,16.05000000,Regular Local,Open
2626520,MI-46110,Onsted Community Schools,Lenawee County,10109 Slee Rd,Onsted,MI,49265,0220,(517)467-2173,1219.00000,74.50000,3.00000,42,Rural: Distant,16.36000000,Regular Local,Open
2626550,MI-66050,Ontonagon Area School District,Ontonagon County,701 PARKER AVENUE,ONTONAGON,MI,49953,1415,(906)813-0614,275.00000,16.27000,1.00000,43,Rural: Remote,16.90000000,Regular Local,Open
2626760,MI-61190,Orchard View Schools,Muskegon County,35 SOUTH SHERIDAN DR,MUSKEGON,MI,49442,1440,(231)760-1310,2171.00000,120.50000,5.00000,41,Rural: Fringe,18.02000000,Regular Local,Open
2626970,MI-35010,Oscoda Area Schools,Iosco County,PO Box 694,Oscoda,MI,48750,,(989)739-2033,1149.00000,67.10000,2.00000,41,Rural: Fringe,17.12000000,Regular Local,Open
2627060,MI-03020,Otsego Public Schools,Allegan County,400 SHERWOOD ST,OTSEGO,MI,49078,1280,(269)694-7900,2363.00000,133.93000,6.00000,31,Town: Fringe,17.64000000,Regular Local,Open
2680900,MI-70000,Ottawa Area ISD,Ottawa County,13565 PORT SHELDON ST,HOLLAND,MI,49424,9241,(616)738-8940,1331.00000,112.90000,4.00000,41,Rural: Fringe,11.79000000,Specialized,Open
2600274,MI-03902,Outlook Academy,Allegan County,310 THOMAS ST,ALLEGAN,MI,49010,9158,(269)512-7880,57.00000,5.10000,2.00000,41,Rural: Fringe,11.18000000,Charter,Open
2627150,MI-19120,Ovid-Elsie Area Schools,Clinton County,8989 EAST COLONY RD,ELSIE,MI,48831,9724,(989)834-2271,1344.00000,79.76000,5.00000,42,Rural: Distant,16.85000000,Regular Local,Open
2627180,MI-32090,Owendale-Gagetown Area School District,Huron County,7166 EAST MAIN ST,OWENDALE,MI,48754,9601,(989)678-4261,151.00000,12.72000,2.00000,43,Rural: Remote,11.87000000,Regular Local,Open
2627210,MI-78110,Owosso Public Schools,Shiawassee County,645 ALGER AVE,OWOSSO,MI,48867,4601,(989)723-8131,2948.00000,165.86000,6.00000,32,Town: Distant,17.77000000,Regular Local,Open
2627240,MI-63110,Oxford Community Schools,Oakland County,10 N Washington St,OXFORD,MI,48371,,(248)969-5000,5649.00000,350.25000,10.00000,21,Suburb: Large,16.13000000,Regular Local,Open
2600068,MI-12901,Pansophia Academy,Branch County,52 ABBOTT AVE,COLDWATER,MI,49036,1430,(517)279-4686,433.00000,23.80000,1.00000,32,Town: Distant,18.19000000,Charter,Open
2600204,MI-38902,Paragon Charter Academy,Jackson County,3750 MCCAIN RD,JACKSON,MI,49201,7675,(517)750-9500,620.00000,37.44000,1.00000,23,Suburb: Small,16.56000000,Charter,Open
2600206,MI-39905,Paramount Charter Academy,Kalamazoo County,3624 SOUTH WESTNEDGE AVE,KALAMAZOO,MI,49008,2969,(269)553-6400,379.00000,26.99000,1.00000,13,City: Small,14.04000000,Charter,Open
2627420,MI-39130,Parchment School District,Kalamazoo County,520 NORTH ORIENT ST,KALAMAZOO,MI,49004,1757,(269)488-1050,1586.00000,94.64000,6.00000,22,Suburb: Midsize,16.76000000,Regular Local,Open
2601076,MI-82737,Pathways Academy,Wayne County,11340 E JEFFERSON AVE,DETROIT,MI,48214,3331,(313)209-3804,119.00000,4.00000,1.00000,11,City: Large,29.75000000,Charter,Open
2627660,MI-80160,Paw Paw Public School District,Van Buren County,119 JOHNSON RD,PAW PAW,MI,49079,1093,(269)415-5200,2191.00000,128.48000,5.00000,31,Town: Fringe,17.05000000,Regular Local,Open
2627690,MI-76180,Peck Community School District,Sanilac County,222 EAST LAPEER ST,PECK,MI,48466,9655,(810)378-5171,375.00000,26.25000,2.00000,42,Rural: Distant,14.29000000,Regular Local,Open
2627720,MI-24040,Pellston Public Schools,Emmet County,172 PARK ST,PELLSTON,MI,49769,9400,(231)539-8421,459.00000,37.80000,2.00000,42,Rural: Distant,12.14000000,Regular Local,Open
2601116,MI-82765,Pembroke Academy,Wayne County,19940 MANSFIELD ST,DETROIT,MI,48235,2332,(313)933-9727,348.00000,27.01000,1.00000,11,City: Large,12.88000000,Charter,Open
2627810,MI-13120,Pennfield Schools,Calhoun County,8587 PENNFIELD RD,BATTLE CREEK,MI,49017,8104,(269)961-9781,1986.00000,101.15000,5.00000,41,Rural: Fringe,19.63000000,Regular Local,Open
2627840,MI-64070,Pentwater Public School District,Oceana County,600 PARK ST,PENTWATER,MI,49449,9597,(231)869-4100,232.00000,19.84000,1.00000,42,Rural: Distant,11.69000000,Regular Local,Open
2627900,MI-78080,Perry Public Schools,Shiawassee County,2665 W Britton Rd,Perry,MI,48872,,(517)625-3108,967.00000,60.04000,3.00000,31,Town: Fringe,16.11000000,Regular Local,Open
2627960,MI-19125,Pewamo-Westphalia Community Schools,Clinton County,5101 SOUTH CLINTONIA RD,WESTPHALIA,MI,48894,9632,(989)587-5100,658.00000,37.59000,2.00000,42,Rural: Distant,17.50000000,Regular Local,Open
2628020,MI-17090,Pickford Public Schools,Chippewa County,333 S Pleasant Street,Pickford,MI,49774,0278,(906)647-6285,463.00000,29.86000,1.00000,42,Rural: Distant,15.51000000,Regular Local,Open
2628140,MI-47080,Pinckney Community Schools,Livingston County,2130 EAST M 36,PINCKNEY,MI,48169,8186,(810)225-3900,2132.00000,121.90000,6.00000,22,Suburb: Midsize,17.49000000,Regular Local,Open
2628170,MI-09090,Pinconning Area Schools,Bay County,605 WEST 5TH ST,PINCONNING,MI,48650,8706,(989)308-0500,1159.00000,61.03000,4.00000,42,Rural: Distant,18.99000000,Regular Local,Open
2628200,MI-67055,Pine River Area Schools,Osceola County,17445 PINE RIVER RD,LEROY,MI,49655,8366,(231)829-3841,974.00000,59.33000,3.00000,43,Rural: Remote,16.42000000,Regular Local,Open
2680997,MI-81915,Pittsfield Acres Academy,Washtenaw County,4377 TEXTILE RD,YPSILANTI,MI,48197,9018,(734)210-0660,21.00000,3.80000,1.00000,21,Suburb: Large,5.53000000,Charter,Open
2628500,MI-30060,Pittsford Area Schools,Hillsdale County,9304 HAMILTON RD,PITTSFORD,MI,49271,9856,(517)523-3481,356.00000,20.29000,2.00000,42,Rural: Distant,17.55000000,Regular Local,Open
2628530,MI-03010,Plainwell Community Schools,Allegan County,600 SCHOOL DR,PLAINWELL,MI,49080,1582,(269)685-5823,2623.00000,150.58000,6.00000,31,Town: Fringe,17.42000000,Regular Local,Open
2600125,MI-82904,Plymouth Educational Center Charter School,Wayne County,1460 EAST FOREST AVE,DETROIT,MI,48207,1000,(313)831-3280,435.00000,9.25000,1.00000,11,City: Large,47.03000000,Charter,Open
2601020,MI-82743,Plymouth Scholars Charter Academy,Wayne County,48484 N Territorial Road,Plymouth,MI,48170,,(734)459-6149,793.00000,37.82000,1.00000,21,Suburb: Large,20.97000000,Charter,Open
2628560,MI-82100,Plymouth-Canton Community Schools,Wayne County,454 SOUTH HARVEY ST,PLYMOUTH,MI,48170,1717,(734)416-2700,16294.00000,920.55000,25.00000,21,Suburb: Large,17.70000000,Regular Local,Open
2600156,MI-63906,Pontiac Academy for Excellence,Oakland County,196 CESAR E CHAVEZ AVE,PONTIAC,MI,48342,1094,(248)745-9420,551.00000,32.00000,1.00000,13,City: Small,17.22000000,Charter,Open
2628740,MI-63030,Pontiac City School District,Oakland County,47200 WOODWARD AVE,PONTIAC,MI,48342,5008,(248)451-6883,3402.00000,222.60000,10.00000,13,City: Small,15.28000000,Regular Local,Open
2628830,MI-74010,Port Huron Area School District,St. Clair County,2720 Riverside Drive,Port Huron,MI,48060,5013,(810)984-3101,7257.00000,447.39000,16.00000,23,Suburb: Small,16.22000000,Regular Local,Open
2628950,MI-39140,Portage Public Schools,Kalamazoo County,8107 Mustang Drive,PORTAGE,MI,49002,5433,(269)323-5000,8616.00000,487.66000,14.00000,13,City: Small,17.67000000,Regular Local,Open
2629120,MI-34110,Portland Public Schools,Ionia County,1100 IONIA RD,PORTLAND,MI,48875,1035,(517)647-4161,2036.00000,125.32000,4.00000,32,Town: Distant,16.25000000,Regular Local,Open
2629130,MI-71060,Posen Consolidated School District No. 9,Presque Isle County,PO Box 187,Posen,MI,49776,0187,(989)248-6500,216.00000,14.00000,2.00000,43,Rural: Remote,15.43000000,Regular Local,Open
2629160,MI-23090,Potterville Public Schools,Eaton County,425 E MAIN ST,POTTERVILLE,MI,48876,9771,(517)645-4705,753.00000,44.80000,3.00000,41,Rural: Fringe,16.81000000,Regular Local,Open
2629190,MI-52100,Powell Township Schools,Marquette County,PO Box 160,Big Bay,MI,49808,0160,(906)345-9355,42.00000,6.38000,1.00000,43,Rural: Remote,6.58000000,Regular Local,Open
2601132,MI-41931,PrepNet Virtual Academy,Kent County,3850 BROADMOOR AVE SE,GRAND RAPIDS,MI,49512,3975,(616)222-1700,1220.00000,83.21000,1.00000,13,City: Small,14.66000000,Charter,Open
2600269,MI-71902,Presque Isle Academy,Presque Isle County,PO Box 731,ONAWAY,MI,49765,8694,(989)733-6708,25.00000,0.90000,1.00000,43,Rural: Remote,27.78000000,Charter,Open
2600310,MI-50909,Prevail Academy,Macomb County,353 CASS AVE,MOUNT CLEMENS,MI,48043,2112,(586)783-0173,585.00000,37.03000,1.00000,21,Suburb: Large,15.80000000,Charter,Open
2607690,MI-31030,Public Schools of Calumet Laurium & Keweenaw,Houghton County,57070 MINE ST,CALUMET,MI,49913,2949,(906)337-0311,1359.00000,84.10000,4.00000,33,Town: Remote,16.16000000,Regular Local,Open
2627930,MI-24070,Public Schools of Petoskey,Emmet County,1130 HOWARD ST,PETOSKEY,MI,49770,3035,(231)348-2100,2526.00000,152.48000,7.00000,33,Town: Remote,16.57000000,Regular Local,Open
2600965,MI-82718,Quest Charter Academy,Wayne County,24745 VAN BORN RD,TAYLOR,MI,48180,1221,(313)299-0534,762.00000,40.02000,1.00000,13,City: Small,19.04000000,Charter,Open
2629250,MI-12040,Quincy Community Schools,Branch County,1 EDUCATIONAL PKWY,QUINCY,MI,49082,1173,(517)639-7141,1149.00000,63.23000,3.00000,32,Town: Distant,18.17000000,Regular Local,Open
2629340,MI-21060,Rapid River Public Schools,Delta County,10070 US HIGHWAY 2,Rapid River,MI,49878,0068,(906)474-6411,278.00000,18.55000,1.00000,42,Rural: Distant,14.99000000,Regular Local,Open
2629370,MI-61210,Ravenna Public Schools,Muskegon County,12322 STAFFORD ST,RAVENNA,MI,49451,9410,(231)853-2231,1030.00000,66.90000,3.00000,42,Rural: Distant,15.40000000,Regular Local,Open
2600950,MI-50912,Reach Charter Academy,Macomb County,25275 CHIPPENDALE ST,ROSEVILLE,MI,48066,3960,(586)498-9171,577.00000,35.04000,1.00000,21,Suburb: Large,16.47000000,Charter,Open
2629400,MI-30070,Reading Community Schools,Hillsdale County,PO Box 330,Reading,MI,49274,,(517)283-2166,696.00000,42.18000,2.00000,42,Rural: Distant,16.50000000,Regular Local,Open
2681000,MI-50917,Red Oak Academy,†,11200 E 11 MILE RD,WARREN,MI,48089,1365,(734)369-9500,†,†,0.00000,†,†,†,Charter,Future
2629460,MI-82110,Redford Union Schools District No. 1,Wayne County,17715 Brady,REDFORD,MI,48240,1033,(313)242-6000,2075.00000,133.87000,8.00000,21,Suburb: Large,15.50000000,Regular Local,Open
2629490,MI-67060,Reed City Area Public Schools,Osceola County,225 WEST CHURCH AVE STE A,REED CITY,MI,49677,1265,(231)832-2201,1394.00000,78.71000,4.00000,42,Rural: Distant,17.71000000,Regular Local,Open
2629520,MI-79110,Reese Public Schools,Tuscola County,PO Box 389,Reese,MI,48757,0389,(989)868-9864,752.00000,45.50000,3.00000,42,Rural: Distant,16.53000000,Regular Local,Open
2629540,MI-61220,Reeths-Puffer Schools,Muskegon County,991 WEST GILES RD,MUSKEGON,MI,49445,1329,(231)719-3101,3571.00000,200.09000,7.00000,22,Suburb: Midsize,17.85000000,Regular Local,Open
2600985,MI-82727,Regent Park Scholars Charter Academy,Wayne County,15865 East Seven Mile Road,Detroit,MI,48205,,(313)371-1300,732.00000,41.05000,1.00000,11,City: Large,17.83000000,Charter,Open
2600982,MI-23902,Relevant Academy of Eaton County,Eaton County,220 LAMSON ST,GRAND LEDGE,MI,48837,1760,(517)925-5450,63.00000,4.31000,1.00000,21,Suburb: Large,14.62000000,Charter,Open
2600087,MI-37901,Renaissance Public School Academy,Isabella County,2797 SOUTH ISABELLA RD,MOUNT PLEASANT,MI,48858,2067,(989)773-9889,426.00000,26.60000,1.00000,32,Town: Distant,16.02000000,Charter,Open
2629580,MI-52110,Republic-Michigamme Schools,Marquette County,227 MAPLE ST,REPUBLIC,MI,49879,9261,(906)376-2277,86.00000,10.01000,1.00000,43,Rural: Remote,8.59000000,Regular Local,Open
2600286,MI-25910,Richfield Public School Academy,Genesee County,3807 NORTH CENTER RD,FLINT,MI,48506,2642,(810)736-1281,565.00000,24.99000,2.00000,13,City: Small,22.61000000,Charter,Open
2629670,MI-50180,Richmond Community Schools,Macomb County,35276 Division Rd,Richmond,MI,48062,1380,(586)727-3565,1585.00000,91.80000,3.00000,31,Town: Fringe,17.27000000,Regular Local,Open
2600208,MI-41919,Ridge Park Charter Academy,Kent County,4120 CAMELOT RIDGE DR SE,GRAND RAPIDS,MI,49546,2432,(616)222-0093,493.00000,32.00000,1.00000,13,City: Small,15.41000000,Charter,Open
2601047,MI-50915,Rising Stars Academy,Macomb County,23855 Lawrence,Center Line,MI,48015,,(586)806-6455,57.00000,5.76000,1.00000,21,Suburb: Large,9.90000000,Charter,Open
2601031,MI-41928,River City Scholars Charter Academy,Kent County,944 Evergreen Street,Grand Rapids,MI,49507,,(616)248-3390,346.00000,28.09000,1.00000,12,City: Midsize,12.32000000,Charter,Open
2629760,MI-82120,River Rouge School District of the City of,Wayne County,1460 COOLIDGE HWY,RIVER ROUGE,MI,48218,1118,(313)297-9600,2464.00000,105.62000,5.00000,21,Suburb: Large,23.33000000,Regular Local,Open
2629790,MI-11033,River Valley School District,Berrien County,15480 THREE OAKS RD,THREE OAKS,MI,49128,9545,(269)756-9541,497.00000,40.00000,2.00000,42,Rural: Distant,12.43000000,Regular Local,Open
2600291,MI-82975,Riverside Academy,Wayne County,6409 SCHAEFER RD,DEARBORN,MI,48126,2212,(734)662-7050,777.00000,47.95000,3.00000,12,City: Midsize,16.20000000,Charter,Open
2629910,MI-82400,Riverview Community School District,Wayne County,13425 COLVIN ST,RIVERVIEW,MI,48193,6674,(734)285-9660,2831.00000,140.40000,8.00000,21,Suburb: Large,20.16000000,Regular Local,Open
2629940,MI-63260,Rochester Community School District,Oakland County,52585 DEQUINDRE RD,ROCHESTER HLS,MI,48307,2321,(248)726-3000,15017.00000,755.97000,22.00000,21,Suburb: Large,19.86000000,Regular Local,Open
2630030,MI-41210,Rockford Public Schools,Kent County,350 NORTH MAIN ST,ROCKFORD,MI,49341,1020,(616)863-6557,7719.00000,536.70000,14.00000,21,Suburb: Large,14.38000000,Regular Local,Open
2630060,MI-71080,Rogers City Area Schools,Presque Isle County,1033 WEST HURON AVE STE B,ROGERS CITY,MI,49779,1499,(989)734-9100,452.00000,27.78000,2.00000,33,Town: Remote,16.27000000,Regular Local,Open
2630090,MI-50190,Romeo Community Schools,Macomb County,316 NORTH MAIN ST,ROMEO,MI,48065,4621,(586)752-0225,5185.00000,323.69000,7.00000,21,Suburb: Large,16.02000000,Regular Local,Open
2630120,MI-82130,Romulus Community Schools,Wayne County,36540 GRANT ST,ROMULUS,MI,48174,1445,(734)532-1610,2281.00000,138.00000,8.00000,21,Suburb: Large,16.53000000,Regular Local,Open
2615830,MI-72010,Roscommon Area Public Schools,Roscommon County,299 W Sunset,Roscommon,MI,48653,,(989)275-6600,822.00000,54.35000,3.00000,42,Rural: Distant,15.12000000,Regular Local,Open
2630210,MI-50030,Roseville Community Schools,Macomb County,18975 CHURCH ST,ROSEVILLE,MI,48066,3952,(586)445-5505,4208.00000,247.54000,10.00000,21,Suburb: Large,17.00000000,Regular Local,Open
2630300,MI-63040,Royal Oak Schools,Oakland County,800 DeVillen Avenue,ROYAL OAK,MI,48073,4228,(248)435-8400,4865.00000,332.55000,9.00000,21,Suburb: Large,14.63000000,Regular Local,Open
2630360,MI-17110,Rudyard Area Schools,Chippewa County,11185 W 2nd St,Rudyard,MI,49780,,(906)478-3771,603.00000,44.24000,1.00000,42,Rural: Distant,13.63000000,Regular Local,Open
2601012,MI-82748,Rutherford Winans Academy,Wayne County,16411 Curtis,Detroit,MI,48238,,(313)873-7625,154.00000,5.00000,1.00000,11,City: Large,30.80000000,Charter,Open
2601106,MI-73900,Saginaw Covenant Academy,Saginaw County,508 S WASHINGTON AVE,SAGINAW,MI,48607,1161,(989)596-1100,122.00000,8.20000,1.00000,13,City: Small,14.88000000,Charter,Open
2680930,MI-73000,Saginaw ISD,Saginaw County,3933 Barnard Road,Saginaw,MI,48603,2514,(989)249-8701,1684.00000,172.85000,5.00000,22,Suburb: Midsize,9.74000000,Specialized,Open
2600161,MI-73908,Saginaw Preparatory Academy,Saginaw County,5173 LODGE ST,SAGINAW,MI,48601,6829,(989)752-9600,308.00000,19.50000,1.00000,22,Suburb: Midsize,15.79000000,Charter,Open
2630390,MI-73010,Saginaw School District of the City of,Saginaw County,550 MILLARD ST,SAGINAW,MI,48607,1140,(989)399-6500,5286.00000,330.73000,16.00000,13,City: Small,15.98000000,Regular Local,Open
2630450,MI-73040,Saginaw Township Community Schools,Saginaw County,PO Box 6278,Saginaw,MI,48608,6278,(989)797-1800,4596.00000,271.40000,8.00000,22,Suburb: Midsize,16.93000000,Regular Local,Open
2630660,MI-81120,Saline Area Schools,Washtenaw County,7265 N ANN ARBOR ST,SALINE,MI,48176,1034,(734)401-4001,4870.00000,278.59000,8.00000,21,Suburb: Large,17.48000000,Regular Local,Open
2630780,MI-46130,Sand Creek Community Schools,Lenawee County,6850 SAND CREEK HWY,SAND CREEK,MI,49279,9703,(517)436-3108,783.00000,47.59000,2.00000,42,Rural: Distant,16.45000000,Regular Local,Open
2630840,MI-76210,Sandusky Community School District,Sanilac County,191 PINE TREE LN,SANDUSKY,MI,48471,,(810)648-3400,979.00000,53.85000,2.00000,32,Town: Distant,18.18000000,Regular Local,Open
2680965,MI-76000,Sanilac ISD,Sanilac County,175 EAST AITKEN RD,PECK,MI,48466,9608,(810)648-4700,345.00000,29.21000,2.00000,32,Town: Distant,11.81000000,Specialized,Open
2630930,MI-34120,Saranac Community Schools,Ionia County,225 PLEASANT ST,SARANAC,MI,48881,8716,(616)642-1400,852.00000,51.22000,2.00000,42,Rural: Distant,16.63000000,Regular Local,Open
2630960,MI-03080,Saugatuck Public Schools,Allegan County,PO Box 818,Douglas,MI,49406,0818,(269)857-1444,802.00000,54.74000,3.00000,31,Town: Fringe,14.65000000,Regular Local,Open
2630990,MI-17010,Sault Ste. Marie Area Schools,Chippewa County,876 MARQUETTE AVE,SAULT SAINTE MARIE,MI,49783,2978,(906)632-5653,1953.00000,117.82000,6.00000,41,Rural: Fringe,16.58000000,Regular Local,Open
2631020,MI-39160,Schoolcraft Community Schools,Kalamazoo County,13400 S 14TH ST,SCHOOLCRAFT,MI,49087,9100,(269)488-7390,1071.00000,69.60000,2.00000,22,Suburb: Midsize,15.39000000,Regular Local,Open
2680998,MI-82776,SER YouthBuild Learning Academy,Wayne County,5200 STECKER ST,DEARBORN,MI,48126,3813,(248)404-7166,175.00000,6.00000,2.00000,12,City: Midsize,29.17000000,Charter,Open
2631320,MI-64080,Shelby Public Schools,Oceana County,525 NORTH STATE ST,SHELBY,MI,49455,8201,(231)861-5211,1126.00000,79.71000,4.00000,42,Rural: Distant,14.13000000,Regular Local,Open
2631380,MI-37060,Shepherd Public Schools,Isabella County,PO Box 219,Shepherd,MI,48883,0219,(989)828-5520,1785.00000,96.85000,5.00000,42,Rural: Distant,18.43000000,Regular Local,Open
2680975,MI-78000,Shiawassee Regional ESD,Shiawassee County,1025 NORTH SHIAWASSEE ST,CORUNNA,MI,48817,1151,(989)743-3471,556.00000,44.00000,2.00000,32,Town: Distant,12.64000000,Specialized,Open
2600010,MI-32610,Sigel Township S/D #3F,Huron County,4151 SECTION LINE RD,BAD AXE,MI,48413,9155,(989)269-8944,34.00000,2.41000,1.00000,42,Rural: Distant,14.11000000,Regular Local,Open
2600011,MI-32620,Sigel Township S/D #4F,Huron County,5754 SECTION LINE RD,HARBOR BEACH,MI,48441,9607,(989)479-9266,25.00000,2.08000,1.00000,42,Rural: Distant,12.02000000,Regular Local,Open
2632070,MI-11830,Sodus Township S/D #5,Berrien County,4439 RIVER RD,SODUS,MI,49126,9779,(269)925-6757,65.00000,4.55000,1.00000,41,Rural: Fringe,14.29000000,Regular Local,Open
2600223,MI-81905,South Arbor Charter Academy,Washtenaw County,8200 CARPENTER RD,YPSILANTI,MI,48197,9173,(734)528-2821,801.00000,39.31000,1.00000,41,Rural: Fringe,20.38000000,Charter,Open
2600997,MI-82729,South Canton Scholars Charter Academy,Wayne County,3085 South Canton Center Road,Canton,MI,48188,,(734)398-5658,815.00000,35.03000,1.00000,21,Suburb: Large,23.27000000,Charter,Open
2632300,MI-80010,South Haven Public Schools,Van Buren County,554 GREEN ST,SOUTH HAVEN,MI,49090,1894,(269)637-0521,1798.00000,128.38000,6.00000,32,Town: Distant,14.01000000,Regular Local,Open
2632220,MI-50200,South Lake Schools,Macomb County,23101 STADIUM DR,SAINT CLAIR SHORES,MI,48080,3208,(586)435-1600,1496.00000,88.86000,4.00000,21,Suburb: Large,16.84000000,Regular Local,Open
2632250,MI-63240,South Lyon Community Schools,Oakland County,345 SOUTH WARREN ST,SOUTH LYON,MI,48178,1317,(248)573-8100,8470.00000,484.36000,13.00000,22,Suburb: Midsize,17.49000000,Regular Local,Open
2601021,MI-81912,South Pointe Scholars Charter Academy,Washtenaw County,10550 Geddes Road,Ypsilanti,MI,48198,,(734)484-0118,636.00000,38.20000,1.00000,21,Suburb: Large,16.65000000,Charter,Open
2632280,MI-82140,South Redford School District,Wayne County,26141 Schoolcraft,Redford,MI,48239,2791,(313)535-4000,2812.00000,177.17000,7.00000,21,Suburb: Large,15.87000000,Regular Local,Open
2632310,MI-63060,Southfield Public School District,Oakland County,24661 LAHSER RD,SOUTHFIELD,MI,48033,3238,(248)746-8777,4933.00000,335.94000,13.00000,13,City: Small,14.68000000,Regular Local,Open
2632340,MI-82405,Southgate Community School District,Wayne County,13940 LEROY ST,SOUTHGATE,MI,48195,2053,(734)246-4600,3370.00000,205.25000,8.00000,21,Suburb: Large,16.42000000,Regular Local,Open
2632370,MI-41240,Sparta Area Schools,Kent County,465 SOUTH UNION ST,SPARTA,MI,49345,1503,(616)887-8253,2433.00000,140.16000,4.00000,41,Rural: Fringe,17.36000000,Regular Local,Open
2632550,MI-70300,Spring Lake Public Schools,Ottawa County,345 HAMMOND ST,SPRING LAKE,MI,49456,2064,(616)847-7919,2331.00000,140.46000,6.00000,41,Rural: Fringe,16.60000000,Regular Local,Open
2632610,MI-38150,Springport Public Schools,Jackson County,300 W MAIN ST,SPRINGPORT,MI,49284,,(517)857-3495,1010.00000,57.35000,3.00000,42,Rural: Distant,17.61000000,Regular Local,Open
2632640,MI-73240,St. Charles Community Schools,Saginaw County,891 WEST WALNUT ST,SAINT CHARLES,MI,48655,1257,(989)865-9961,797.00000,40.91000,3.00000,42,Rural: Distant,19.48000000,Regular Local,Open
2600316,MI-74911,St. Clair County Intervention Academy,St. Clair County,1170 MICHIGAN RD,PORT HURON,MI,48060,4658,(586)731-5300,40.00000,3.40000,1.00000,23,Suburb: Small,11.76000000,Charter,Open
2680940,MI-74000,St. Clair County RESA,St. Clair County,PO Box 1500,Marysville,MI,48040,,(810)364-8990,551.00000,74.20000,2.00000,23,Suburb: Small,7.43000000,Specialized,Open
2600012,MI-49010,St. Ignace Area Schools,Mackinac County,W429 PORTAGE ST,SAINT IGNACE,MI,49781,1303,(906)643-8145,420.00000,32.71000,3.00000,41,Rural: Fringe,12.84000000,Regular Local,Open
2632820,MI-19140,St. Johns Public Schools,Clinton County,501 WEST SICKLES ST,SAINT JOHNS,MI,48879,2173,(989)227-4050,2606.00000,151.45000,7.00000,31,Town: Fringe,17.21000000,Regular Local,Open
2680960,MI-75000,St. Joseph County ISD,St. Joseph County,62445 Shimmel Road,Centreville,MI,49032,,(269)467-5400,383.00000,30.60000,1.00000,42,Rural: Distant,12.52000000,Specialized,Open
2632850,MI-11020,St. Joseph Public Schools,Berrien County,2580 S CLEVELAND AVE,SAINT JOSEPH,MI,49085,2657,(269)926-3100,2965.00000,148.62000,5.00000,23,Suburb: Small,19.95000000,Regular Local,Open
2632880,MI-29100,St. Louis Public Schools,Gratiot County,113 EAST SAGINAW ST,SAINT LOUIS,MI,48880,1755,(989)681-2545,945.00000,58.17000,4.00000,32,Town: Distant,16.25000000,Regular Local,Open
2632940,MI-06050,Standish-Sterling Community Schools,Arenac County,3789 WYATT RD,STANDISH,MI,48658,9120,(989)846-3670,1505.00000,82.89000,3.00000,42,Rural: Distant,18.16000000,Regular Local,Open
2632970,MI-31140,Stanton Township Public Schools,Houghton County,50870 HOLMAN SCHOOL RD,ATLANTIC MINE,MI,49905,9262,(906)482-2797,182.00000,9.00000,1.00000,42,Rural: Distant,20.22000000,Regular Local,Open
2600228,MI-82941,Star International Academy,Wayne County,24425 HASS ST,DEARBORN HEIGHTS,MI,48127,3275,(313)724-8990,1928.00000,99.40000,2.00000,21,Suburb: Large,19.40000000,Charter,Open
2600264,MI-09902,State Street Academy,Bay County,1110 STATE ST,BAY CITY,MI,48706,3669,(989)684-6484,258.00000,21.56000,1.00000,13,City: Small,11.97000000,Charter,Open
2633000,MI-55120,Stephenson Area Public Schools,Menominee County,PO Box 509,Stephenson,MI,49887,0509,(906)753-2221,442.00000,23.10000,1.00000,43,Rural: Remote,19.13000000,Regular Local,Open
2633030,MI-33200,Stockbridge Community Schools,Ingham County,100 Price Ave Ste A,STOCKBRIDGE,MI,49285,9791,(517)851-7188,1156.00000,77.21000,3.00000,42,Rural: Distant,14.97000000,Regular Local,Open
2633090,MI-75010,Sturgis Public Schools,St. Joseph County,107 WEST WEST ST,STURGIS,MI,49091,1447,(269)659-1500,2967.00000,160.09000,6.00000,32,Town: Distant,18.53000000,Regular Local,Open
2601104,MI-59900,Success Virtual Learning Centers of Michigan,Montcalm County,7188 Avenue B,Vestaburg,MI,48891,,(616)794-6329,1794.00000,30.20000,1.00000,43,Rural: Remote,59.40000000,Charter,Open
2633120,MI-58100,Summerfield Schools,Monroe County,17555 IDA WEST RD,PETERSBURG,MI,49270,9564,(734)279-1035,593.00000,34.59000,2.00000,42,Rural: Distant,17.14000000,Regular Local,Open
2600225,MI-82938,Summit Academy North,Wayne County,18601 MIDDLEBELT RD,ROMULUS,MI,48174,9290,(734)379-9766,1569.00000,91.49000,3.00000,41,Rural: Fringe,17.15000000,Charter,Open
2600019,MI-02080,Superior Central School District,Alger County,PO Box 148,Eben Junction,MI,49825,0148,(906)439-5531,329.00000,22.44000,1.00000,43,Rural: Remote,14.66000000,Regular Local,Open
2633360,MI-45050,Suttons Bay Public Schools,Leelanau County,310 Elm Street,Suttons Bay,MI,49682,0367,(231)271-8604,578.00000,34.19000,3.00000,42,Rural: Distant,16.91000000,Regular Local,Open
2633410,MI-73255,Swan Valley School District,Saginaw County,8380 OHERN RD,SAGINAW,MI,48609,5199,(989)921-3701,1790.00000,98.61000,5.00000,22,Suburb: Midsize,18.15000000,Regular Local,Open
2633420,MI-25180,Swartz Creek Community Schools,Genesee County,8354 CAPPY LN,SWARTZ CREEK,MI,48473,1242,(810)591-2300,3510.00000,173.82000,8.00000,21,Suburb: Large,20.19000000,Regular Local,Open
2625350,MI-48040,Tahquamenon Area Schools,Luce County,700 NEWBERRY AVE,NEWBERRY,MI,49868,1503,(906)293-3226,503.00000,36.34000,1.00000,33,Town: Remote,13.84000000,Regular Local,Open
2633510,MI-35030,Tawas Area Schools,Iosco County,245 WEST M 55,TAWAS CITY,MI,48763,9252,(989)984-2250,1136.00000,64.43000,3.00000,41,Rural: Fringe,17.63000000,Regular Local,Open
2600331,MI-82995,Taylor Exemplar Academy,Wayne County,26727 GODDARD RD,TAYLOR,MI,48180,3912,(734)941-7742,695.00000,34.00000,1.00000,13,City: Small,20.44000000,Charter,Open
2601061,MI-82756,Taylor Preparatory High School,Wayne County,9540 TELEGRAPH RD,TAYLOR,MI,48180,3356,(313)668-2100,464.00000,27.49000,1.00000,13,City: Small,16.88000000,Charter,Open
2633540,MI-82150,Taylor School District,Wayne County,23033 NORTHLINE RD,TAYLOR,MI,48180,4625,(734)374-1200,5419.00000,332.73000,13.00000,13,City: Small,16.29000000,Regular Local,Open
2633720,MI-46140,Tecumseh Public Schools,Lenawee County,760 BROWN ST,TECUMSEH,MI,49286,1006,(517)424-7318,2563.00000,156.30000,7.00000,32,Town: Distant,16.40000000,Regular Local,Open
2633750,MI-13130,Tekonsha Community Schools,Calhoun County,245 SOUTH ELM ST,TEKONSHA,MI,49092,9266,(517)767-4121,185.00000,15.61000,1.00000,42,Rural: Distant,11.85000000,Regular Local,Open
2600173,MI-82928,The Dearborn Academy,Wayne County,19310 FORD RD,DEARBORN,MI,48128,2403,(313)271-0644,515.00000,31.00000,1.00000,12,City: Midsize,16.61000000,Charter,Open
2600983,MI-28904,The Greenspire School,Grand Traverse County,1026 Red Drive,Traverse City,MI,49684,,(231)946-4400,245.00000,17.55000,2.00000,33,Town: Remote,13.96000000,Charter,Open
2601051,MI-82706,The James and Grace Lee Boggs School,Wayne County,7600 GOETHE ST,DETROIT,MI,48214,1762,(313)923-2301,154.00000,11.00000,1.00000,11,City: Large,14.00000000,Charter,Open
2601018,MI-25912,The New Standard Academy,Genesee County,2040 W Carpenter,Flint,MI,48505,,(810)787-3330,779.00000,46.50000,1.00000,21,Suburb: Large,16.75000000,Charter,Open
2633810,MI-08050,Thornapple Kellogg School District,Barry County,10051 GREEN LAKE RD,MIDDLEVILLE,MI,49333,8705,(269)795-5521,3163.00000,177.71000,6.00000,41,Rural: Fringe,17.80000000,Regular Local,Open
2600966,MI-49901,Three Lakes Academy,Mackinac County,W17540 Main Street,CURTIS,MI,49820,0159,(906)586-6631,104.00000,8.10000,1.00000,43,Rural: Remote,12.84000000,Charter,Open
2600288,MI-61904,Three Oaks Public School Academy,Muskegon County,1212 KINGSLEY ST,MUSKEGON,MI,49442,4025,(231)767-3365,348.00000,24.00000,1.00000,13,City: Small,14.50000000,Charter,Open
2633840,MI-75080,Three Rivers Community Schools,St. Joseph County,851 6TH AVENUE RD,THREE RIVERS,MI,49093,9431,(269)279-1100,2323.00000,148.41000,6.00000,31,Town: Fringe,15.65000000,Regular Local,Open
2600214,MI-61902,Timberland Academy,Muskegon County,2574 MCLAUGHLIN AVE,MUSKEGON,MI,49442,4439,(231)767-9700,623.00000,39.04000,1.00000,22,Suburb: Midsize,15.96000000,Charter,Open
2601036,MI-82754,Tipton Academy,Wayne County,1615 BELTON ST,GARDEN CITY,MI,48135,3003,(734)261-0500,489.00000,34.00000,2.00000,21,Suburb: Large,14.38000000,Charter,Open
2633870,MI-28010,Traverse City Area Public Schools,Grand Traverse County,412 WEBSTER ST,TRAVERSE CITY,MI,49686,2650,(231)933-1700,8712.00000,449.86000,16.00000,33,Town: Remote,19.37000000,Regular Local,Open
2633900,MI-82155,Trenton Public Schools,Wayne County,2603 CHARLTON RD,TRENTON,MI,48183,2446,(734)676-8600,2501.00000,162.35000,4.00000,21,Suburb: Large,15.40000000,Regular Local,Open
2633930,MI-59080,Tri County Area Schools,Kent County,94 Cherry Street PO Box 79,Sand Lake,MI,49343,0079,(616)636-5454,1719.00000,105.01000,3.00000,42,Rural: Distant,16.37000000,Regular Local,Open
2600277,MI-82973,Trillium Academy,Wayne County,15740 RACHO BLVD,TAYLOR,MI,48180,5211,(734)374-8222,681.00000,47.80000,1.00000,13,City: Small,14.25000000,Charter,Open
2600311,MI-58902,Triumph Academy,Monroe County,3000 VIVIAN RD,MONROE,MI,48162,8600,(734)240-2610,777.00000,34.05000,1.00000,41,Rural: Fringe,22.82000000,Charter,Open
2634260,MI-63150,Troy School District,Oakland County,4400 LIVERNOIS RD,TROY,MI,48098,4777,(248)823-4000,12461.00000,760.54000,21.00000,13,City: Small,16.38000000,Regular Local,Open
2680980,MI-79000,Tuscola ISD,Tuscola County,1385 CLEAVER RD,CARO,MI,48723,9135,(989)673-2144,406.00000,42.00000,2.00000,41,Rural: Fringe,9.67000000,Specialized,Open
2634380,MI-32170,Ubly Community Schools,Huron County,2020 UNION ST,UBLY,MI,48475,8824,(989)658-8202,623.00000,38.87000,2.00000,42,Rural: Distant,16.03000000,Regular Local,Open
2634410,MI-13135,Union City Community Schools,Branch County,430 SAINT JOSEPH ST,UNION CITY,MI,49094,1245,(517)741-8091,922.00000,54.67000,3.00000,42,Rural: Distant,16.86000000,Regular Local,Open
2634440,MI-79145,Unionville-Sebewaing Area S.D.,Huron County,2203 WILDNER RD,SEBEWAING,MI,48759,9506,(989)883-2360,685.00000,35.30000,2.00000,42,Rural: Distant,19.41000000,Regular Local,Open
2600237,MI-82950,Universal Academy,Wayne County,4833 Ogden,DETROIT,MI,48210,,(313)565-0507,700.00000,36.65000,1.00000,11,City: Large,19.10000000,Charter,Open
2600300,MI-82982,Universal Learning Academy,Wayne County,28015 JOY RD,WESTLAND,MI,48185,5525,(734)402-5900,730.00000,44.80000,1.00000,21,Suburb: Large,16.29000000,Charter,Open
2600956,MI-82702,University Preparatory Academy (PSAD),Wayne County,P O Box 2339,DETROIT,MI,48202,3457,(313)887-1613,1808.00000,127.74000,4.00000,11,City: Large,14.15000000,Charter,Open
2600961,MI-82703,University Preparatory Art & Design,Wayne County,485 W MILWAUKEE ST,DETROIT,MI,48202,3220,(313)481-4000,1237.00000,78.87000,2.00000,11,City: Large,15.68000000,Charter,Open
2600952,MI-82701,University Preparatory Science and Math (PSAD),Wayne County,5100 JOHN R ST,DETROIT,MI,48202,,(313)887-1613,1424.00000,86.32000,3.00000,11,City: Large,16.50000000,Charter,Open
2600971,MI-82724,University Yes Academy,Wayne County,P O Box 2716,Detroit,MI,48202,,(313)215-4617,365.00000,9.30000,1.00000,11,City: Large,39.25000000,Charter,Open
2601120,MI-55900,Uplift Michigan Academy,Menominee County,W526 DIVISION ST,STEPHENSON,MI,49887,,(313)335-3218,709.00000,25.25000,1.00000,43,Rural: Remote,28.08000000,Charter,Open
2634470,MI-50210,Utica Community Schools,Macomb County,11303 GREENDALE DR,STERLING HEIGHTS,MI,48312,2925,(586)797-1000,25744.00000,1414.92000,38.00000,21,Suburb: Large,18.19000000,Regular Local,Open
2680985,MI-80000,Van Buren ISD,Van Buren County,490 SOUTH PAW PAW ST,LAWRENCE,MI,49064,9328,(269)674-8091,591.00000,113.82000,4.00000,42,Rural: Distant,5.19000000,Specialized,Open
2634560,MI-82430,Van Buren Public Schools,Wayne County,555 WEST COLUMBIA AVE,BELLEVILLE,MI,48111,2611,(734)697-1054,4319.00000,256.13000,8.00000,21,Suburb: Large,16.86000000,Regular Local,Open
2634680,MI-50220,Van Dyke Public Schools,Macomb County,23500 MAC ARTHUR BLVD,WARREN,MI,48089,1741,(586)758-8334,2004.00000,156.85000,6.00000,12,City: Midsize,12.78000000,Regular Local,Open
2634620,MI-69040,Vanderbilt Area Schools,Otsego County,947 DONOVAN ST,VANDERBILT,MI,49795,9772,(989)983-2561,98.00000,5.83000,1.00000,42,Rural: Distant,16.81000000,Regular Local,Open
2600115,MI-70905,Vanderbilt Charter Academy,Ottawa County,301 WEST 16TH ST,HOLLAND,MI,49423,3329,(616)820-5050,486.00000,30.74000,1.00000,13,City: Small,15.81000000,Charter,Open
2634650,MI-38020,Vandercook Lake Public Schools,Jackson County,1000 EAST GOLF AVE,JACKSON,MI,49203,5730,(517)782-9044,700.00000,43.31000,3.00000,23,Suburb: Small,16.16000000,Regular Local,Open
2600098,MI-41910,Vanguard Charter Academy,Kent County,1620 52ND ST SW,WYOMING,MI,49519,9629,(616)538-3630,797.00000,38.50000,1.00000,21,Suburb: Large,20.70000000,Charter,Open
2634710,MI-79150,Vassar Public Schools,Tuscola County,220 ATHLETIC ST,VASSAR,MI,48768,1205,(989)823-8535,896.00000,57.32000,3.00000,32,Town: Distant,15.63000000,Regular Local,Open
2634860,MI-32650,Verona Township S/D #1F,Huron County,3487 SCHOOL ST,BAD AXE,MI,48413,8845,(989)269-7054,25.00000,1.41000,1.00000,42,Rural: Distant,17.73000000,Regular Local,Open
2634920,MI-59150,Vestaburg Community Schools,Montcalm County,7188 Avenue B,Vestaburg,MI,48891,9502,(989)268-5353,963.00000,44.00000,4.00000,43,Rural: Remote,21.89000000,Regular Local,Open
2634950,MI-39170,Vicksburg Community Schools,Kalamazoo County,PO Box 158,Vicksburg,MI,49097,0158,(269)321-1000,2588.00000,141.08000,6.00000,22,Suburb: Midsize,18.34000000,Regular Local,Open
2600968,MI-74912,Virtual Learning Academy of St. Clair County,St. Clair County,499 Range Road,Marysville,MI,48040,,(810)455-4480,130.00000,5.80000,1.00000,23,Suburb: Small,22.41000000,Charter,Open
2600097,MI-41909,Vista Charter Academy,Kent County,711 32ND ST SE,GRAND RAPIDS,MI,49548,2307,(616)246-6920,605.00000,43.80000,1.00000,21,Suburb: Large,13.81000000,Charter,Open
2600951,MI-82716,Vista Meadows Academy,Wayne County,20651 WEST WARREN ST,DEARBORN HEIGHTS,MI,48127,2622,(313)240-4347,103.00000,5.12000,1.00000,21,Suburb: Large,20.12000000,Charter,Open
2600227,MI-82940,Voyageur Academy,Wayne County,4321 MILITARY ST,DETROIT,MI,48210,2451,(313)361-4180,1226.00000,53.00000,2.00000,11,City: Large,23.13000000,Charter,Open
2601023,MI-82746,W-A-Y Academy,Wayne County,8701 West Vernor Highway,Detroit,MI,48209,,(313)444-8082,195.00000,2.00000,2.00000,11,City: Large,97.50000000,Charter,Open
2635010,MI-27070,Wakefield-Marenisco School District,Gogebic County,715 PUTNAM ST,WAKEFIELD,MI,49968,1025,(906)224-7211,252.00000,17.81000,1.00000,42,Rural: Distant,14.15000000,Regular Local,Open
2600112,MI-70901,Walden Green Montessori,Ottawa County,17339 ROOSEVELT RD,SPRING LAKE,MI,49456,1253,(616)842-4523,232.00000,13.50000,1.00000,22,Suburb: Midsize,17.19000000,Charter,Open
2635040,MI-30080,Waldron Area Schools,Hillsdale County,13380 WALDRON RD,WALDRON,MI,49288,9694,(517)286-6251,261.00000,18.32000,1.00000,43,Rural: Remote,14.25000000,Regular Local,Open
2600149,MI-41915,Walker Charter Academy,Kent County,1801 3 MILE RD NW,GRAND RAPIDS,MI,49544,1445,(616)785-2700,698.00000,38.38000,1.00000,21,Suburb: Large,18.19000000,Charter,Open
2635130,MI-64090,Walkerville Public Schools,Oceana County,145 EAST LATHROP STREET,WALKERVILLE,MI,49459,,(231)873-4850,276.00000,15.54000,2.00000,43,Rural: Remote,17.76000000,Regular Local,Open
2635160,MI-63290,Walled Lake Consolidated Schools,Oakland County,850 LADD RD BLDG D,WALLED LAKE,MI,48390,3086,(248)956-2000,12102.00000,702.63000,20.00000,21,Suburb: Large,17.22000000,Regular Local,Open
2600254,MI-63913,Walton Charter Academy,Oakland County,744 EAST WALTON BLVD,PONTIAC,MI,48340,1361,(248)371-9300,809.00000,40.40000,1.00000,13,City: Small,20.02000000,Charter,Open
2635190,MI-50230,Warren Consolidated Schools,Macomb County,31300 ANITA DRIVE,WARREN,MI,48093,1646,(586)825-2400,12660.00000,694.75000,23.00000,12,City: Midsize,18.22000000,Regular Local,Open
2635220,MI-50240,Warren Woods Public Schools,Macomb County,12900 FRAZHO RD,WARREN,MI,48089,1300,(586)439-4469,3118.00000,176.92000,7.00000,12,City: Midsize,17.62000000,Regular Local,Open
2600271,MI-82970,Warrendale Charter Academy,Wayne County,19400 SAWYER ST,DETROIT,MI,48228,3330,(313)240-4200,709.00000,37.00000,1.00000,11,City: Large,19.16000000,Charter,Open
2600958,MI-82719,Washington-Parks Academy,Wayne County,11685 Appleton,Redford,MI,48239,,(734)716-7193,580.00000,19.50000,1.00000,21,Suburb: Large,29.74000000,Charter,Open
2680990,MI-81000,Washtenaw ISD,Washtenaw County,PO Box 1406,Ann Arbor,MI,48106,1406,(734)994-8100,906.00000,160.88000,9.00000,21,Suburb: Large,5.63000000,Specialized,Open
2600164,MI-81903,Washtenaw Technical Middle College,Washtenaw County,4800 EAST HURON RIVER DR,ANN ARBOR,MI,48105,4800,(734)973-3410,776.00000,22.86000,1.00000,21,Suburb: Large,33.95000000,Charter,Open
2601053,MI-63929,Waterford Montessori Academy,Oakland County,4860 MIDLAND AVE,WATERFORD,MI,48329,1743,(248)674-2400,402.00000,27.99000,2.00000,21,Suburb: Large,14.36000000,Charter,Open
2635310,MI-63300,Waterford School District,Oakland County,501 North Cass,WATERFORD,MI,48328,,(248)706-4860,7058.00000,433.51000,17.00000,21,Suburb: Large,16.28000000,Regular Local,Open
2635340,MI-27080,Watersmeet Township School District,Gogebic County,N4720 Highway US45,Watersmeet,MI,49969,0217,(906)358-4504,150.00000,18.10000,1.00000,43,Rural: Remote,8.29000000,Regular Local,Open
2635460,MI-11320,Watervliet School District,Berrien County,450 EAST SAINT JOSEPH ST,WATERVLIET,MI,49098,9300,(269)463-0300,1452.00000,80.63000,5.00000,31,Town: Fringe,18.01000000,Regular Local,Open
2635520,MI-33215,Waverly Community Schools,Eaton County,515 SNOW RD,LANSING,MI,48917,4501,(517)321-7265,2884.00000,182.07000,6.00000,21,Suburb: Large,15.84000000,Regular Local,Open
2601056,MI-25915,WAY Academy - Flint,Genesee County,817 E Kearsley St,Flint,MI,48503,4866,(810)412-8655,92.00000,3.75000,1.00000,13,City: Small,24.53000000,Charter,Open
2601074,MI-82710,WAY Michigan,Wayne County,407 E FORT ST,DETROIT,MI,48226,2940,(313)444-9292,†,1.90000,1.00000,11,City: Large,‡,Charter,Open
2635550,MI-03040,Wayland Union Schools,Allegan County,850 E SUPERIOR ST,WAYLAND,MI,49348,9141,(269)792-2181,2849.00000,157.06000,7.00000,31,Town: Fringe,18.14000000,Regular Local,Open
2680995,MI-82000,Wayne RESA,Wayne County,33500 VAN BORN RD,WAYNE,MI,48184,2474,(734)334-1300,7509.00000,0.00000,0.00000,21,Suburb: Large,†,Specialized,Open
2600015,MI-82160,Wayne-Westland Community School District,Wayne County,36745 MARQUETTE ST,WESTLAND,MI,48185,3235,(734)419-2000,9773.00000,625.37000,16.00000,21,Suburb: Large,15.63000000,Regular Local,Open
2635730,MI-33220,Webberville Community Schools,Ingham County,309 EAST GRAND RIVER RD,WEBBERVILLE,MI,48892,8602,(517)521-3422,456.00000,27.16000,3.00000,31,Town: Fringe,16.79000000,Regular Local,Open
2635790,MI-52160,Wells Township School District,Marquette County,38211 COUNTY ROAD 426,Arnold,MI,49819,9008,(906)238-4200,14.00000,3.61000,1.00000,43,Rural: Remote,3.88000000,Regular Local,Open
2600981,MI-41923,Wellspring Preparatory High School,Kent County,1031 PAGE NE,GRAND RAPIDS,MI,49505,,(616)235-9500,307.00000,19.20000,1.00000,12,City: Midsize,15.99000000,Charter,Open
2635820,MI-63160,West Bloomfield School District,Oakland County,5810 COMMERCE RD,WEST BLOOMFIELD,MI,48324,3200,(248)865-6485,4865.00000,320.72000,11.00000,21,Suburb: Large,15.17000000,Regular Local,Open
2635850,MI-65045,West Branch-Rose City Area Schools,Ogemaw County,PO Box 308,West Branch,MI,48661,0308,(989)343-2000,1871.00000,110.48000,4.00000,43,Rural: Remote,16.94000000,Regular Local,Open
2632910,MI-36025,West Iron County Public Schools,Iron County,601 NICK BAUMGARTNER WAY,IRON RIVER,MI,49935,2145,(906)265-9218,846.00000,47.93000,2.00000,33,Town: Remote,17.65000000,Regular Local,Open
2600113,MI-70902,West MI Academy of Arts and Academics,Ottawa County,17350 HAZEL ST,SPRING LAKE,MI,49456,1222,(616)844-9961,453.00000,37.53000,1.00000,22,Suburb: Midsize,12.07000000,Charter,Open
2600092,MI-41904,West MI Academy of Environmental Science,Kent County,4463 LEONARD ST NW,GRAND RAPIDS,MI,49534,2138,(616)791-7454,728.00000,43.75000,1.00000,21,Suburb: Large,16.64000000,Charter,Open
2600977,MI-41924,West Michigan Aviation Academy,Kent County,5363 44th Street SE,Grand Rapids,MI,49512,,(616)446-8886,605.00000,38.18000,1.00000,21,Suburb: Large,15.85000000,Charter,Open
2635910,MI-70070,West Ottawa Public School District,Ottawa County,1138 136TH AVE,HOLLAND,MI,49424,8418,(616)786-2099,6590.00000,424.66000,13.00000,23,Suburb: Small,15.52000000,Regular Local,Open
2680755,MI-53000,West Shore Educational Service District,Mason County,2130 WEST US HIGHWAY 10,LUDINGTON,MI,49431,8319,(231)757-3716,357.00000,45.00000,2.00000,41,Rural: Fringe,7.93000000,Specialized,Open
2600245,MI-82959,West Village Academy,Wayne County,3530 WESTWOOD ST,DEARBORN,MI,48124,3100,(313)274-9200,291.00000,17.90000,1.00000,12,City: Midsize,16.26000000,Charter,Open
2635940,MI-38010,Western School District,Jackson County,1400 S DEARING RD,PARMA,MI,49269,9712,(517)841-8170,2757.00000,149.44000,6.00000,41,Rural: Fringe,18.45000000,Regular Local,Open
2601125,MI-82766,Westfield Charter Academy,Wayne County,27201 W CHICAGO,REDFORD,MI,48239,2333,(866)642-3676,1463.00000,83.31000,2.00000,21,Suburb: Large,17.56000000,Charter,Open
2600230,MI-82943,Weston Preparatory Academy,Wayne County,22930 CHIPPEWA ST,DETROIT,MI,48219,1161,(313)387-6038,248.00000,13.00000,1.00000,11,City: Large,19.08000000,Charter,Open
2611640,MI-82240,Westwood Community School District,Wayne County,3335 SOUTH BEECH DALY ST,DEARBORN HEIGHTS,MI,48125,1189,(313)565-1900,1491.00000,88.92000,6.00000,21,Suburb: Large,16.77000000,Regular Local,Open
2635970,MI-25210,Westwood Heights Schools,Genesee County,3425 W PIERSON RD,FLINT,MI,48504,6981,(810)591-0870,1907.00000,89.17000,5.00000,21,Suburb: Large,21.39000000,Regular Local,Open
2680000,MI-83000,Wexford-Missaukee ISD,Wexford County,9907 EAST 13TH ST,CADILLAC,MI,49601,8754,(231)876-2260,362.00000,56.11000,2.00000,41,Rural: Fringe,6.45000000,Specialized,Open
2636060,MI-62090,White Cloud Public Schools,Newaygo County,PO Box 1000,White Cloud,MI,49349,1000,(231)689-3201,935.00000,50.34000,3.00000,42,Rural: Distant,18.57000000,Regular Local,Open
2636120,MI-75070,White Pigeon Community Schools,St. Joseph County,410 PRAIRIE AVE,WHITE PIGEON,MI,49099,8150,(269)483-7676,733.00000,44.57000,2.00000,31,Town: Fringe,16.45000000,Regular Local,Open
2636240,MI-17160,Whitefish Township Schools,Chippewa County,7221 NORTH M 123,PARADISE,MI,49768,9811,(906)492-3353,63.00000,7.15000,1.00000,43,Rural: Remote,8.81000000,Regular Local,Open
2636270,MI-58110,Whiteford Agricultural School District of the Counties of Le,Monroe County,6655 Consear Rd,Ottawa Lake,MI,49267,9715,(734)856-1443,807.00000,53.08000,3.00000,41,Rural: Fringe,15.20000000,Regular Local,Open
2636300,MI-61240,Whitehall District Schools,Muskegon County,541 EAST SLOCUM ST,WHITEHALL,MI,49461,1199,(231)893-1005,1957.00000,138.19000,5.00000,31,Town: Fringe,14.16000000,Regular Local,Open
2636330,MI-81140,Whitmore Lake Public School District,Washtenaw County,8845 MAIN ST,WHITMORE LAKE,MI,48189,9249,(734)449-4464,652.00000,54.63000,2.00000,22,Suburb: Midsize,11.93000000,Regular Local,Open
2636390,MI-35040,Whittemore-Prescott Area Schools,Iosco County,PO Box 250,Whittemore,MI,48770,0250,(989)756-2500,689.00000,40.08000,2.00000,43,Rural: Remote,17.19000000,Regular Local,Open
2600182,MI-30902,Will Carleton Charter School Academy,Hillsdale County,2001 WEST HALLETT RD,HILLSDALE,MI,49242,1959,(517)437-2000,280.00000,21.00000,1.00000,41,Rural: Fringe,13.33000000,Charter,Open
2600185,MI-41917,William C. Abney Academy,Kent County,1435 FULTON ST E,GRAND RAPIDS,MI,49503,3853,(616)454-5541,347.00000,24.25000,1.00000,12,City: Midsize,14.31000000,Charter,Open
2636420,MI-33230,Williamston Community Schools,Ingham County,418 HIGHLAND ST,WILLIAMSTON,MI,48895,1133,(517)655-4361,1846.00000,105.57000,4.00000,31,Town: Fringe,17.49000000,Regular Local,Open
2600203,MI-33909,Windemere Park Charter Academy,Ingham County,3100 W SAGINAW ST,LANSING,MI,48917,2307,(517)327-0700,630.00000,37.30000,1.00000,21,Suburb: Large,16.89000000,Charter,Open
2600020,MI-56901,Windover High School,Midland County,919 SMITH RD,MIDLAND,MI,48640,4164,(989)832-0852,71.00000,5.00000,1.00000,13,City: Small,14.20000000,Charter,Open
2636480,MI-16100,Wolverine Community School District,Cheboygan County,5993 W SHOLES ST,Wolverine,MI,49799,9549,(231)525-8201,256.00000,15.25000,2.00000,43,Rural: Remote,16.79000000,Regular Local,Open
2636485,MI-82365,Woodhaven-Brownstown School District,Wayne County,24821 HALL RD,WOODHAVEN,MI,48183,3756,(734)789-2357,5603.00000,317.07000,10.00000,21,Suburb: Large,17.67000000,Regular Local,Open
2600076,MI-25902,Woodland Park Academy,Genesee County,2083 GRAND BLANC RD,GRAND BLANC,MI,48439,,(810)695-4710,270.00000,24.00000,1.00000,21,Suburb: Large,11.25000000,Charter,Open
2600078,MI-28901,Woodland School,Grand Traverse County,7224 SUPPLY RD,TRAVERSE CITY,MI,49686,9416,(231)947-7474,206.00000,13.77000,1.00000,42,Rural: Distant,14.96000000,Charter,Open
2636540,MI-82170,Wyandotte School District of the City of,Wayne County,639 OAK ST,WYANDOTTE,MI,48192,5024,(734)759-6002,4318.00000,295.12000,9.00000,21,Suburb: Large,14.63000000,Regular Local,Open
2636570,MI-41026,Wyoming Public Schools,Kent County,3575 GLADIOLA AVE SW,WYOMING,MI,49519,3264,(616)531-8944,3916.00000,233.31000,7.00000,21,Suburb: Large,16.78000000,Regular Local,Open
2636600,MI-74130,Yale Public Schools,St. Clair County,198 SCHOOL DR,YALE,MI,48097,3342,(810)387-3231,1758.00000,98.42000,6.00000,42,Rural: Distant,17.86000000,Regular Local,Open
2600955,MI-39906,Youth Advancement Academy,Kalamazoo County,6750 Chime St,Kalamazoo,MI,49009,,(269)250-9362,29.00000,1.30000,1.00000,22,Suburb: Midsize,22.31000000,Charter,Open
2636630,MI-81020,Ypsilanti Community Schools,Washtenaw County,1885 PACKARD RD,YPSILANTI,MI,48197,1846,(734)221-1218,3721.00000,256.95000,12.00000,21,Suburb: Large,14.48000000,Regular Local,Open
2636660,MI-70350,Zeeland Public Schools,Ottawa County,PO Box 110,Zeeland,MI,49464,0110,(616)748-3000,6010.00000,375.89000,12.00000,23,Suburb: Small,15.99000000,Regular Local,Open
